"","ADDRESS","BKCLASS","CBSA","CBSA_DIV","CBSA_DIV_FLG","CBSA_DIV_NO","CBSA_METRO","CBSA_METRO_FLG","CBSA_METRO_NAME","CBSA_MICRO_FLG","CBSA_NO","CERT","CITY","COUNTY","CSA","CSA_FLG","CSA_NO","ESTYMD","FI_UNINUM","MAINOFF","NAME","OFFNAME","OFFNUM","RUNDATE","SERVTYPE","STALP","STCNTY","STNAME","UNINUM","ZIP","bank_address","lon","lat"
"1","451 E Hungerford Drive Suite 101","N","Washington-Arlington-Alexandria, DC-VA-MD-WV","Frederick-Gaithersburg-Rockville, MD",1,23224,47900,1,"Washington-Arlington-Alexandria, DC-VA-MD-WV",0,47900,7888,"Rockville","Montgomery","Washington-Baltimore-Arlington, DC-MD-VA-WV-PA",1,548,"05/24/2011",5061,0,"First National Bank of Pennsylvania","ROCKVILLE BRANCH",389,"10/16/2020",11,"MD",24031,"Maryland",519697,20850,"451 E Hungerford Drive Suite 101 Rockville MD 20850",-77.1511228,39.0895039
"2","6701 Democracy Blvd., Suite 400","NM","Washington-Arlington-Alexandria, DC-VA-MD-WV","Frederick-Gaithersburg-Rockville, MD",1,23224,47900,1,"Washington-Arlington-Alexandria, DC-VA-MD-WV",0,47900,57614,"Bethesda","Montgomery","Washington-Baltimore-Arlington, DC-MD-VA-WV-PA",1,548,"03/28/2008",418493,0,"Congressional Bank","ADMINISTRATIVE OFFICE",4,"10/16/2020",21,"MD",24031,"Maryland",492708,20817,"6701 Democracy Blvd., Suite 400 Bethesda MD 20817",-77.1368018,39.0224377
"3","4801-A Montgomery Lane","NM","Washington-Arlington-Alexandria, DC-VA-MD-WV","Frederick-Gaithersburg-Rockville, MD",1,23224,47900,1,"Washington-Arlington-Alexandria, DC-VA-MD-WV",0,47900,57614,"Bethesda","Montgomery","Washington-Baltimore-Arlington, DC-MD-VA-WV-PA",1,548,"08/01/2004",418493,0,"Congressional Bank","BETHESDA BRANCH",7,"10/16/2020",11,"MD",24031,"Maryland",448881,20814,"4801-A Montgomery Lane Bethesda MD 20814",-77.0951621,38.9837868
"4","10113 River Road","N","Washington-Arlington-Alexandria, DC-VA-MD-WV","Frederick-Gaithersburg-Rockville, MD",1,23224,47900,1,"Washington-Arlington-Alexandria, DC-VA-MD-WV",0,47900,57890,"Potomac","Montgomery","Washington-Baltimore-Arlington, DC-MD-VA-WV-PA",1,548,"08/30/2010",429342,0,"HSBC Bank USA, National Association","RIVER ROAD BRANCH",578,"10/16/2020",11,"MD",24031,"Maryland",513391,20854,"10113 River Road Potomac MD 20854",-77.2080458,39.0181288
"5","14804 Pratt Street","SM","Washington-Arlington-Alexandria, DC-VA-MD-WV","Washington-Arlington-Alexandria, DC-VA-MD-WV",1,47894,47900,1,"Washington-Arlington-Alexandria, DC-VA-MD-WV",0,47900,57968,"Upper Marlboro","Prince George'S","Washington-Baltimore-Arlington, DC-MD-VA-WV-PA",1,548,"01/01/1931",432804,0,"SONABANK","UPPER MARLBORO BRANCH",24,"10/16/2020",11,"MD",24033,"Maryland",41803,20772,"14804 Pratt Street Upper Marlboro MD 20772",-76.7488589,38.8174062
"6","9801 Main Street","SM","Washington-Arlington-Alexandria, DC-VA-MD-WV","Frederick-Gaithersburg-Rockville, MD",1,23224,47900,1,"Washington-Arlington-Alexandria, DC-VA-MD-WV",0,47900,588,"Damascus","Montgomery","Washington-Baltimore-Arlington, DC-MD-VA-WV-PA",1,548,"01/01/1929",400,0,"Manufacturers and Traders Trust Company","DAMASCUS BRANCH",1062,"10/16/2020",11,"MD",24031,"Maryland",270184,20872,"9801 Main Street Damascus MD 20872",-77.201959,39.2880271
"7","3706 Howard Avenue","SM","Washington-Arlington-Alexandria, DC-VA-MD-WV","Frederick-Gaithersburg-Rockville, MD",1,23224,47900,1,"Washington-Arlington-Alexandria, DC-VA-MD-WV",0,47900,588,"Kensington","Montgomery","Washington-Baltimore-Arlington, DC-MD-VA-WV-PA",1,548,"12/31/2013",400,0,"Manufacturers and Traders Trust Company","ANTIQUE ROW DRIVE-IN BRANCH",1291,"10/16/2020",23,"MD",24031,"Maryland",557430,20895,"3706 Howard Avenue Kensington MD 20895",-77.0725889,39.026673
"8","19616-M Fisher Avenue","SM","Washington-Arlington-Alexandria, DC-VA-MD-WV","Frederick-Gaithersburg-Rockville, MD",1,23224,47900,1,"Washington-Arlington-Alexandria, DC-VA-MD-WV",0,47900,588,"Poolesville","Montgomery","Washington-Baltimore-Arlington, DC-MD-VA-WV-PA",1,548,"07/23/1962",400,0,"Manufacturers and Traders Trust Company","POOLESVILLE BRANCH",661,"10/16/2020",11,"MD",24031,"Maryland",204209,20837,"19616-M Fisher Avenue Poolesville MD 20837",-77.4102565,39.1436989
"9","5 Bank Street","SM","Washington-Arlington-Alexandria, DC-VA-MD-WV","Frederick-Gaithersburg-Rockville, MD",1,23224,47900,1,"Washington-Arlington-Alexandria, DC-VA-MD-WV",0,47900,588,"Gaithersburg","Montgomery","Washington-Baltimore-Arlington, DC-MD-VA-WV-PA",1,548,"11/02/1970",400,0,"Manufacturers and Traders Trust Company","DIAMOND FARMS BRANCH",676,"10/16/2020",11,"MD",24031,"Maryland",204228,20878,"5 Bank Street Gaithersburg MD 20878",-77.2224176,39.1397353
"10","12200 Tech Road","SM","Washington-Arlington-Alexandria, DC-VA-MD-WV","Frederick-Gaithersburg-Rockville, MD",1,23224,47900,1,"Washington-Arlington-Alexandria, DC-VA-MD-WV",0,47900,588,"Silver Spring","Montgomery","Washington-Baltimore-Arlington, DC-MD-VA-WV-PA",1,548,"01/19/1988",400,0,"Manufacturers and Traders Trust Company","TECH PARK BRANCH",740,"10/16/2020",11,"MD",24031,"Maryland",204316,20904,"12200 Tech Road Silver Spring MD 20904",-76.9679966,39.0565855
"11","3221 Spartan Road","SM","Washington-Arlington-Alexandria, DC-VA-MD-WV","Frederick-Gaithersburg-Rockville, MD",1,23224,47900,1,"Washington-Arlington-Alexandria, DC-VA-MD-WV",0,47900,588,"Olney","Montgomery","Washington-Baltimore-Arlington, DC-MD-VA-WV-PA",1,548,"07/02/1999",400,0,"Manufacturers and Traders Trust Company","OLNEY BRANCH",900,"10/16/2020",11,"MD",24031,"Maryland",358669,20832,"3221 Spartan Road Olney MD 20832",-77.0630797,39.1504626
"12","6990 Laurel Bowie Road","SM","Washington-Arlington-Alexandria, DC-VA-MD-WV","Washington-Arlington-Alexandria, DC-VA-MD-WV",1,47894,47900,1,"Washington-Arlington-Alexandria, DC-VA-MD-WV",0,47900,588,"Bowie","Prince George'S","Washington-Baltimore-Arlington, DC-MD-VA-WV-PA",1,548,"05/11/2009",400,0,"Manufacturers and Traders Trust Company","BOWIE BRANCH",1158,"10/16/2020",11,"MD",24033,"Maryland",493226,20715,"6990 Laurel Bowie Road Bowie MD 20715",-76.7580442,38.985732
"13","7653 Lindbergh Drive","SM","Washington-Arlington-Alexandria, DC-VA-MD-WV","Frederick-Gaithersburg-Rockville, MD",1,23224,47900,1,"Washington-Arlington-Alexandria, DC-VA-MD-WV",0,47900,4865,"Gaithersburg","Montgomery","Washington-Baltimore-Arlington, DC-MD-VA-WV-PA",1,548,"11/01/1993",3240,0,"Sandy Spring Bank","AIRPARK COMMUNITY BRANCH",12,"10/16/2020",11,"MD",24031,"Maryland",204686,20879,"7653 Lindbergh Drive Gaithersburg MD 20879",-77.1540662,39.1684548
"14","3701 International Drive","SM","Washington-Arlington-Alexandria, DC-VA-MD-WV","Frederick-Gaithersburg-Rockville, MD",1,23224,47900,1,"Washington-Arlington-Alexandria, DC-VA-MD-WV",0,47900,4865,"Silver Spring","Montgomery","Washington-Baltimore-Arlington, DC-MD-VA-WV-PA",1,548,"08/10/1995",3240,0,"Sandy Spring Bank","BEDFORD COURT COMMUNITY BRANCH",15,"10/16/2020",11,"MD",24031,"Maryland",204687,20906,"3701 International Drive Silver Spring MD 20906",-77.0742994,39.1035112
"15","14241 Layhill Road","SM","Washington-Arlington-Alexandria, DC-VA-MD-WV","Frederick-Gaithersburg-Rockville, MD",1,23224,47900,1,"Washington-Arlington-Alexandria, DC-VA-MD-WV",0,47900,4865,"Silver Spring","Montgomery","Washington-Baltimore-Arlington, DC-MD-VA-WV-PA",1,548,"06/21/1979",3240,0,"Sandy Spring Bank","LAYHILL BRANCH",4,"10/16/2020",11,"MD",24031,"Maryland",204678,20906,"14241 Layhill Road Silver Spring MD 20906",-77.044174,39.0903154
"16","409 Russell Avenue","SM","Washington-Arlington-Alexandria, DC-VA-MD-WV","Frederick-Gaithersburg-Rockville, MD",1,23224,47900,1,"Washington-Arlington-Alexandria, DC-VA-MD-WV",0,47900,4865,"Gaithersburg","Montgomery","Washington-Baltimore-Arlington, DC-MD-VA-WV-PA",1,548,"07/02/2001",3240,0,"Sandy Spring Bank","ASBURY BRANCH",34,"10/16/2020",11,"MD",24031,"Maryland",364785,20877,"409 Russell Avenue Gaithersburg MD 20877",-77.2006906,39.1500177
"17","17801 Georgia Avenue","SM","Washington-Arlington-Alexandria, DC-VA-MD-WV","Frederick-Gaithersburg-Rockville, MD",1,23224,47900,1,"Washington-Arlington-Alexandria, DC-VA-MD-WV",0,47900,4865,"Olney","Montgomery","Washington-Baltimore-Arlington, DC-MD-VA-WV-PA",1,548,"10/19/2007",3240,0,"Sandy Spring Bank","OLNEY GEORGIA AVENUE BRANCH",52,"10/16/2020",11,"MD",24031,"Maryland",468965,20832,"17801 Georgia Avenue Olney MD 20832",-77.0657555,39.1486246
"18","10985 Baltimore Avenue","SM","Washington-Arlington-Alexandria, DC-VA-MD-WV","Washington-Arlington-Alexandria, DC-VA-MD-WV",1,47894,47900,1,"Washington-Arlington-Alexandria, DC-VA-MD-WV",0,47900,4865,"Beltsville","Prince George'S","Washington-Baltimore-Arlington, DC-MD-VA-WV-PA",1,548,"07/25/2019",3240,0,"Sandy Spring Bank","BELTSVILLE SOLUTIONS CENTER",84,"10/16/2020",11,"MD",24033,"Maryland",614852,20705,"10985 Baltimore Avenue Beltsville MD 20705",-76.9085793,39.0339837
"19","26250 Ridge Road","SM","Washington-Arlington-Alexandria, DC-VA-MD-WV","Frederick-Gaithersburg-Rockville, MD",1,23224,47900,1,"Washington-Arlington-Alexandria, DC-VA-MD-WV",0,47900,4865,"Damascus","Montgomery","Washington-Baltimore-Arlington, DC-MD-VA-WV-PA",1,548,"04/01/1987",3240,0,"Sandy Spring Bank","DAMASCUS BRANCH",7,"10/16/2020",11,"MD",24031,"Maryland",204681,20872,"26250 Ridge Road Damascus MD 20872",-77.2068775,39.2883152
"20","10916 Baltimore Avenue","N","Washington-Arlington-Alexandria, DC-VA-MD-WV","Washington-Arlington-Alexandria, DC-VA-MD-WV",1,47894,47900,1,"Washington-Arlington-Alexandria, DC-VA-MD-WV",0,47900,18409,"Beltsville","Prince George'S","Washington-Baltimore-Arlington, DC-MD-VA-WV-PA",1,548,"11/14/2015",12315,0,"TD Bank, National Association","BELTSVILLE BRANCH",1762,"10/16/2020",11,"MD",24033,"Maryland",573488,20705,"10916 Baltimore Avenue Beltsville MD 20705",-76.9109831,39.0330013
"21","7628 Old Georegtown Road","N","Washington-Arlington-Alexandria, DC-VA-MD-WV","Frederick-Gaithersburg-Rockville, MD",1,23224,47900,1,"Washington-Arlington-Alexandria, DC-VA-MD-WV",0,47900,18409,"Bethesda","Montgomery","Washington-Baltimore-Arlington, DC-MD-VA-WV-PA",1,548,"04/15/2016",12315,0,"TD Bank, National Association","WOODMONT BRANCH",1764,"10/16/2020",11,"MD",24031,"Maryland",580533,20814,"7628 Old Georegtown Road Bethesda MD 20814",-77.0970729,38.9861856
"22","19905 Century Blvd","N","Washington-Arlington-Alexandria, DC-VA-MD-WV","Frederick-Gaithersburg-Rockville, MD",1,23224,47900,1,"Washington-Arlington-Alexandria, DC-VA-MD-WV",0,47900,18409,"Germantown","Montgomery","Washington-Baltimore-Arlington, DC-MD-VA-WV-PA",1,548,"09/15/2007",12315,0,"TD Bank, National Association","GERMANTOWN BRANCH",1230,"10/16/2020",11,"MD",24031,"Maryland",479159,20874,"19905 Century Blvd Germantown MD 20874",-77.2630998,39.1828759
"23","8211 Annapolis Road","N","Washington-Arlington-Alexandria, DC-VA-MD-WV","Washington-Arlington-Alexandria, DC-VA-MD-WV",1,47894,47900,1,"Washington-Arlington-Alexandria, DC-VA-MD-WV",0,47900,18409,"Hyattsville","Prince George'S","Washington-Baltimore-Arlington, DC-MD-VA-WV-PA",1,548,"09/30/2006",12315,0,"TD Bank, National Association","NEW CARROLLTON,  MD BRANCH",1119,"10/16/2020",11,"MD",24033,"Maryland",457070,20784,"8211 Annapolis Road Hyattsville MD 20784",-76.8721411,38.9553714
"24","810 West Diamond Avenue","N","Washington-Arlington-Alexandria, DC-VA-MD-WV","Frederick-Gaithersburg-Rockville, MD",1,23224,47900,1,"Washington-Arlington-Alexandria, DC-VA-MD-WV",0,47900,18409,"Gaithersburg","Montgomery","Washington-Baltimore-Arlington, DC-MD-VA-WV-PA",1,548,"09/30/2006",12315,0,"TD Bank, National Association","GAITHERSBURG BRANCH",1122,"10/16/2020",11,"MD",24031,"Maryland",457082,20878,"810 West Diamond Avenue Gaithersburg MD 20878",-77.2164652,39.1425919
"25","8788 Georgia Avenue","N","Washington-Arlington-Alexandria, DC-VA-MD-WV","Frederick-Gaithersburg-Rockville, MD",1,23224,47900,1,"Washington-Arlington-Alexandria, DC-VA-MD-WV",0,47900,3510,"Silver Spring","Montgomery","Washington-Baltimore-Arlington, DC-MD-VA-WV-PA",1,548,"06/01/1971",2238,0,"Bank of America, National Association","NORTH SILVER SPRING BRANCH",3931,"10/16/2020",11,"MD",24031,"Maryland",228121,20910,"8788 Georgia Avenue Silver Spring MD 20910",-77.0318606,38.999053
"26","13711 Connecticut Avenue","N","Washington-Arlington-Alexandria, DC-VA-MD-WV","Frederick-Gaithersburg-Rockville, MD",1,23224,47900,1,"Washington-Arlington-Alexandria, DC-VA-MD-WV",0,47900,3510,"Silver Spring","Montgomery","Washington-Baltimore-Arlington, DC-MD-VA-WV-PA",1,548,"05/16/1970",2238,0,"Bank of America, National Association","ASPEN HILL SHOPPING CENTER BRANCH",4092,"10/16/2020",11,"MD",24031,"Maryland",247576,20906,"13711 Connecticut Avenue Silver Spring MD 20906",-77.0801346,39.0791865
"27","16268 Frederick Road","SM","Washington-Arlington-Alexandria, DC-VA-MD-WV","Frederick-Gaithersburg-Rockville, MD",1,23224,47900,1,"Washington-Arlington-Alexandria, DC-VA-MD-WV",0,47900,22858,"Gaithersburg","Montgomery","Washington-Baltimore-Arlington, DC-MD-VA-WV-PA",1,548,"12/14/1998",15972,0,"United Bank","SHADY GROVE BRANCH",47,"10/16/2020",11,"MD",24031,"Maryland",262037,20877,"16268 Frederick Road Gaithersburg MD 20877",-77.1778802,39.1215202
"28","702 Russell Avenue","N","Washington-Arlington-Alexandria, DC-VA-MD-WV","Frederick-Gaithersburg-Rockville, MD",1,23224,47900,1,"Washington-Arlington-Alexandria, DC-VA-MD-WV",0,47900,6384,"Gaithersburg","Montgomery","Washington-Baltimore-Arlington, DC-MD-VA-WV-PA",1,548,"01/21/1974",4287,0,"PNC Bank, National Association","GAITHERSBURG  MAIN OFFICE",1773,"10/16/2020",11,"MD",24031,"Maryland",14811,20877,"702 Russell Avenue Gaithersburg MD 20877",-77.2068775,39.150728
"29","196 East Montgomery Avenue","NM","Washington-Arlington-Alexandria, DC-VA-MD-WV","Frederick-Gaithersburg-Rockville, MD",1,23224,47900,1,"Washington-Arlington-Alexandria, DC-VA-MD-WV",0,47900,803,"Rockville","Montgomery","Washington-Baltimore-Arlington, DC-MD-VA-WV-PA",1,548,"06/13/2016",508,0,"WesBanco Bank, Inc.","ROCKVILLE TOWN CENTER BRANCH",289,"10/16/2020",11,"MD",24031,"Maryland",579937,20850,"196 East Montgomery Avenue Rockville MD 20850",-77.1502923,39.0842215
"30","7801 Branch Avenue","NM","Washington-Arlington-Alexandria, DC-VA-MD-WV","Washington-Arlington-Alexandria, DC-VA-MD-WV",1,47894,47900,1,"Washington-Arlington-Alexandria, DC-VA-MD-WV",0,47900,803,"Clinton","Prince George'S","Washington-Baltimore-Arlington, DC-MD-VA-WV-PA",1,548,"09/11/2002",508,0,"WesBanco Bank, Inc.","CLINTON BRANCH",273,"10/16/2020",11,"MD",24033,"Maryland",419879,20735,"7801 Branch Avenue Clinton MD 20735",-76.8921386,38.7808154
"31","12100 Annapolis Rd, Suite 1","NM","Washington-Arlington-Alexandria, DC-VA-MD-WV","Washington-Arlington-Alexandria, DC-VA-MD-WV",1,47894,47900,1,"Washington-Arlington-Alexandria, DC-VA-MD-WV",0,47900,803,"Glenn Dale","Prince George'S","Washington-Baltimore-Arlington, DC-MD-VA-WV-PA",1,548,"10/13/2009",508,0,"WesBanco Bank, Inc.","FAIRWOOD BRANCH",279,"10/16/2020",11,"MD",24033,"Maryland",496419,20769,"12100 Annapolis Rd, Suite 1 Glenn Dale MD 20769",-76.7942854,38.9644193
"32","7601 Airpark Road","NM","Washington-Arlington-Alexandria, DC-VA-MD-WV","Frederick-Gaithersburg-Rockville, MD",1,23224,47900,1,"Washington-Arlington-Alexandria, DC-VA-MD-WV",0,47900,803,"Gaithersburg","Montgomery","Washington-Baltimore-Arlington, DC-MD-VA-WV-PA",1,548,"01/30/2016",508,0,"WesBanco Bank, Inc.","AIRPARK OFFICE",296,"10/16/2020",11,"MD",24031,"Maryland",576780,20879,"7601 Airpark Road Gaithersburg MD 20879",-77.1547177,39.1700666
"33","4411 South Park Avenue","N","Washington-Arlington-Alexandria, DC-VA-MD-WV","Frederick-Gaithersburg-Rockville, MD",1,23224,47900,1,"Washington-Arlington-Alexandria, DC-VA-MD-WV",0,47900,3510,"Chevy Chase","Montgomery","Washington-Baltimore-Arlington, DC-MD-VA-WV-PA",1,548,"04/22/1963",2238,0,"Bank of America, National Association","CHEVY CHASE BRANCH",3907,"10/16/2020",11,"MD",24031,"Maryland",228088,20815,"4411 South Park Avenue Chevy Chase MD 20815",-77.0880827,38.9635896
"34","5800 Martin Luther King Jr. Highway","N","Washington-Arlington-Alexandria, DC-VA-MD-WV","Washington-Arlington-Alexandria, DC-VA-MD-WV",1,47894,47900,1,"Washington-Arlington-Alexandria, DC-VA-MD-WV",0,47900,3510,"Seat Pleasant","Prince George'S","Washington-Baltimore-Arlington, DC-MD-VA-WV-PA",1,548,"12/30/1960",2238,0,"Bank of America, National Association","SEAT PLEASANT BRANCH",3921,"10/16/2020",11,"MD",24033,"Maryland",228107,20743,"5800 Martin Luther King Jr. Highway Seat Pleasant MD 20743",-76.9088876,38.8955596
"35","15777 Columbia Pike","N","Washington-Arlington-Alexandria, DC-VA-MD-WV","Frederick-Gaithersburg-Rockville, MD",1,23224,47900,1,"Washington-Arlington-Alexandria, DC-VA-MD-WV",0,47900,4297,"Burtonsville","Montgomery","Washington-Baltimore-Arlington, DC-MD-VA-WV-PA",1,548,"06/30/1989",2818,0,"Capital One, National Association","1577 COLUMBIA PIKE BRANCH",977,"10/16/2020",11,"MD",24031,"Maryland",287569,20866,"15777 Columbia Pike Burtonsville MD 20866",-76.9268211,39.1187145
"36","8401 Connecticut Avenue","N","Washington-Arlington-Alexandria, DC-VA-MD-WV","Frederick-Gaithersburg-Rockville, MD",1,23224,47900,1,"Washington-Arlington-Alexandria, DC-VA-MD-WV",0,47900,4297,"Chevy Chase","Montgomery","Washington-Baltimore-Arlington, DC-MD-VA-WV-PA",1,548,"03/01/1990",2818,0,"Capital One, National Association","8401 CONNECTICUT AVENUE BRANCH",1007,"10/16/2020",11,"MD",24031,"Maryland",287604,20815,"8401 Connecticut Avenue Chevy Chase MD 20815",-77.0764987,38.9943421
"37","18104 Town Center","N","Washington-Arlington-Alexandria, DC-VA-MD-WV","Frederick-Gaithersburg-Rockville, MD",1,23224,47900,1,"Washington-Arlington-Alexandria, DC-VA-MD-WV",0,47900,4297,"Olney","Montgomery","Washington-Baltimore-Arlington, DC-MD-VA-WV-PA",1,548,"03/01/1991",2818,0,"Capital One, National Association","TOWN CENTER BRANCH",1012,"10/16/2020",11,"MD",24031,"Maryland",287609,20832,"18104 Town Center Olney MD 20832",-77.062675,39.1516964
"38","11241 Georgia Avenue","N","Washington-Arlington-Alexandria, DC-VA-MD-WV","Frederick-Gaithersburg-Rockville, MD",1,23224,47900,1,"Washington-Arlington-Alexandria, DC-VA-MD-WV",0,47900,4297,"Wheaton","Montgomery","Washington-Baltimore-Arlington, DC-MD-VA-WV-PA",1,548,"05/23/1996",2818,0,"Capital One, National Association","WHEATON/GEORGIA AVENUE BRANCH",1031,"10/16/2020",11,"MD",24031,"Maryland",287628,20902,"11241 Georgia Avenue Wheaton MD 20902",-77.050937,39.0399428
"39","14943 Shady Grove Road","N","Washington-Arlington-Alexandria, DC-VA-MD-WV","Frederick-Gaithersburg-Rockville, MD",1,23224,47900,1,"Washington-Arlington-Alexandria, DC-VA-MD-WV",0,47900,4297,"Rockville","Montgomery","Washington-Baltimore-Arlington, DC-MD-VA-WV-PA",1,548,"02/20/2003",2818,0,"Capital One, National Association","FALLS GROVE BRANCH",1126,"10/16/2020",11,"MD",24031,"Maryland",418512,20850,"14943 Shady Grove Road Rockville MD 20850",-77.1934691,39.0976851
"40","15618 Old Columbia Pike","N","Washington-Arlington-Alexandria, DC-VA-MD-WV","Frederick-Gaithersburg-Rockville, MD",1,23224,47900,1,"Washington-Arlington-Alexandria, DC-VA-MD-WV",0,47900,6384,"Burtonsville","Montgomery","Washington-Baltimore-Arlington, DC-MD-VA-WV-PA",1,548,"11/12/2010",4287,0,"PNC Bank, National Association","BURTONSVILLE CROSSING @ GIANT BRANCH",3835,"10/16/2020",12,"MD",24031,"Maryland",521825,20866,"15618 Old Columbia Pike Burtonsville MD 20866",-76.9354078,39.1132215
"41","797 Rockville Pike","N","Washington-Arlington-Alexandria, DC-VA-MD-WV","Frederick-Gaithersburg-Rockville, MD",1,23224,47900,1,"Washington-Arlington-Alexandria, DC-VA-MD-WV",0,47900,6384,"Rockville","Montgomery","Washington-Baltimore-Arlington, DC-MD-VA-WV-PA",1,548,"10/11/2011",4287,0,"PNC Bank, National Association","WOOTTON PKWY BRANCH",3868,"10/16/2020",11,"MD",24031,"Maryland",526224,20852,"797 Rockville Pike Rockville MD 20852",-77.1402024,39.0770362
"42","7711 Tuckerman Lane","N","Washington-Arlington-Alexandria, DC-VA-MD-WV","Frederick-Gaithersburg-Rockville, MD",1,23224,47900,1,"Washington-Arlington-Alexandria, DC-VA-MD-WV",0,47900,6384,"Potomac","Montgomery","Washington-Baltimore-Arlington, DC-MD-VA-WV-PA",1,548,"11/05/2012",4287,0,"PNC Bank, National Association","CABIN JOHN BRANCH",4367,"10/16/2020",11,"MD",24031,"Maryland",535208,20854,"7711 Tuckerman Lane Potomac MD 20854",-77.1559535,39.0397708
"43","3323 Stonybrook Drive","N","Washington-Arlington-Alexandria, DC-VA-MD-WV","Washington-Arlington-Alexandria, DC-VA-MD-WV",1,47894,47900,1,"Washington-Arlington-Alexandria, DC-VA-MD-WV",0,47900,6384,"Bowie","Prince George'S","Washington-Baltimore-Arlington, DC-MD-VA-WV-PA",1,548,"04/03/1964",4287,0,"PNC Bank, National Association","Bowie Stonybrook Branch",1819,"10/16/2020",11,"MD",24033,"Maryland",12905,20715,"3323 Stonybrook Drive Bowie MD 20715",-76.7376344,38.9786451
"44","5530 Wisconsin Avenue","NM","Washington-Arlington-Alexandria, DC-VA-MD-WV","Frederick-Gaithersburg-Rockville, MD",1,23224,47900,1,"Washington-Arlington-Alexandria, DC-VA-MD-WV",0,47900,34837,"Chevy Chase","Montgomery","Washington-Baltimore-Arlington, DC-MD-VA-WV-PA",1,548,"08/09/1982",61749,0,"Premier Bank, Inc.","CHEVY CHASE BRANCH",17,"10/16/2020",11,"MD",24031,"Maryland",255095,20815,"5530 Wisconsin Avenue Chevy Chase MD 20815",-77.0882141,38.9648926
"45","12505 Park Potomac Ave","SM","Washington-Arlington-Alexandria, DC-VA-MD-WV","Frederick-Gaithersburg-Rockville, MD",1,23224,47900,1,"Washington-Arlington-Alexandria, DC-VA-MD-WV",0,47900,34742,"Potomac","Montgomery","Washington-Baltimore-Arlington, DC-MD-VA-WV-PA",1,548,"11/02/2009",61426,0,"EagleBank","PARK POTOMAC BRANCH",17,"10/16/2020",11,"MD",24031,"Maryland",498640,20854,"12505 Park Potomac Ave Potomac MD 20854",-77.1566949,39.0603395
"46","9600 Blackwell Rd","SM","Washington-Arlington-Alexandria, DC-VA-MD-WV","Frederick-Gaithersburg-Rockville, MD",1,23224,47900,1,"Washington-Arlington-Alexandria, DC-VA-MD-WV",0,47900,34742,"Rockville","Montgomery","Washington-Baltimore-Arlington, DC-MD-VA-WV-PA",1,548,"03/18/2002",61426,0,"EagleBank","SHADY GROVE BRANCH",5,"10/16/2020",11,"MD",24031,"Maryland",363694,20850,"9600 Blackwell Rd Rockville MD 20850",-77.1932135,39.1007641
"47","11961 Tech Road","SM","Washington-Arlington-Alexandria, DC-VA-MD-WV","Frederick-Gaithersburg-Rockville, MD",1,23224,47900,1,"Washington-Arlington-Alexandria, DC-VA-MD-WV",0,47900,34742,"Silver Spring","Montgomery","Washington-Baltimore-Arlington, DC-MD-VA-WV-PA",1,548,"12/01/2004",61426,0,"EagleBank","TECH ROAD BRANCH",8,"10/16/2020",27,"MD",24031,"Maryland",437833,20904,"11961 Tech Road Silver Spring MD 20904",-76.9692568,39.0516045
"48","5480 Wisconsin Avenue","SM","Washington-Arlington-Alexandria, DC-VA-MD-WV","Frederick-Gaithersburg-Rockville, MD",1,23224,47900,1,"Washington-Arlington-Alexandria, DC-VA-MD-WV",0,47900,34742,"Chevy Chase","Montgomery","Washington-Baltimore-Arlington, DC-MD-VA-WV-PA",1,548,"05/15/2006",61426,0,"EagleBank","CHEVY CHASE BRANCH",10,"10/16/2020",11,"MD",24031,"Maryland",453540,20815,"5480 Wisconsin Avenue Chevy Chase MD 20815",-77.0873236,38.9634198
"49","5424 Western Avenue","N","Washington-Arlington-Alexandria, DC-VA-MD-WV","Frederick-Gaithersburg-Rockville, MD",1,23224,47900,1,"Washington-Arlington-Alexandria, DC-VA-MD-WV",0,47900,4297,"Chevy Chase","Montgomery","Washington-Baltimore-Arlington, DC-MD-VA-WV-PA",1,548,"06/30/1985",2818,0,"Capital One, National Association","5424 WESTERN AVE BRANCH",938,"10/16/2020",11,"MD",24031,"Maryland",287530,20815,"5424 Western Avenue Chevy Chase MD 20815",-77.0839395,38.9621981
"50","1525 Pointer Ridge Place","NM","Washington-Arlington-Alexandria, DC-VA-MD-WV","Washington-Arlington-Alexandria, DC-VA-MD-WV",1,47894,47900,1,"Washington-Arlington-Alexandria, DC-VA-MD-WV",0,47900,803,"Bowie","Prince George'S","Washington-Baltimore-Arlington, DC-MD-VA-WV-PA",1,548,"09/28/1989",508,0,"WesBanco Bank, Inc.","OLD LINE BANK BRANCH",272,"10/16/2020",11,"MD",24033,"Maryland",40432,20716,"1525 Pointer Ridge Place Bowie MD 20716",-76.7185456,38.9099348
"51","4701 Sangamore Rd","N","Washington-Arlington-Alexandria, DC-VA-MD-WV","Frederick-Gaithersburg-Rockville, MD",1,23224,47900,1,"Washington-Arlington-Alexandria, DC-VA-MD-WV",0,47900,628,"Bethesda","Montgomery","Washington-Baltimore-Arlington, DC-MD-VA-WV-PA",1,548,"12/10/2019",417,0,"JPMorgan Chase Bank, National Association","Shops at Sumner Place Branch",8470,"10/16/2020",11,"MD",24031,"Maryland",625109,20816,"4701 Sangamore Rd Bethesda MD 20816",-77.1194824,38.95006
"52","10151 Colesville Road","N","Washington-Arlington-Alexandria, DC-VA-MD-WV","Frederick-Gaithersburg-Rockville, MD",1,23224,47900,1,"Washington-Arlington-Alexandria, DC-VA-MD-WV",0,47900,3510,"Silver Spring","Montgomery","Washington-Baltimore-Arlington, DC-MD-VA-WV-PA",1,548,"02/14/1955",2238,0,"Bank of America, National Association","WOODMOOR - FOUR CORNERS BRANCH",3923,"10/16/2020",11,"MD",24031,"Maryland",228109,20901,"10151 Colesville Road Silver Spring MD 20901",-77.0117142,39.0213654
"53","1903 Research Blvd","N","Washington-Arlington-Alexandria, DC-VA-MD-WV","Frederick-Gaithersburg-Rockville, MD",1,23224,47900,1,"Washington-Arlington-Alexandria, DC-VA-MD-WV",0,47900,7551,"Rockville","Montgomery","Washington-Baltimore-Arlington, DC-MD-VA-WV-PA",1,548,"04/16/1990",4901,0,"Fulton Bank, National Association","ROCKVILLE BRANCH",257,"10/16/2020",11,"MD",24031,"Maryland",255965,20850,"1903 Research Blvd Rockville MD 20850",-77.1812497,39.0998071
"54","625 Hungerford Drive","N","Washington-Arlington-Alexandria, DC-VA-MD-WV","Frederick-Gaithersburg-Rockville, MD",1,23224,47900,1,"Washington-Arlington-Alexandria, DC-VA-MD-WV",0,47900,6384,"Rockville","Montgomery","Washington-Baltimore-Arlington, DC-MD-VA-WV-PA",1,548,"02/20/2009",4287,0,"PNC Bank, National Association","ROCKVILLE @ GIANT BRANCH",2081,"10/16/2020",12,"MD",24031,"Maryland",493307,20850,"625 Hungerford Drive Rockville MD 20850",-77.1519316,39.092556
"55","842 Muddy Branch","N","Washington-Arlington-Alexandria, DC-VA-MD-WV","Frederick-Gaithersburg-Rockville, MD",1,23224,47900,1,"Washington-Arlington-Alexandria, DC-VA-MD-WV",0,47900,6384,"Gaithersburg","Montgomery","Washington-Baltimore-Arlington, DC-MD-VA-WV-PA",1,548,"05/19/2010",4287,0,"PNC Bank, National Association","MUDDY BRANCH @ GIANT BRANCH",3751,"10/16/2020",12,"MD",24031,"Maryland",510870,20878,"842 Muddy Branch Gaithersburg MD 20878",-77.217671,39.1148399
"56","8151 15th Avenue","N","Washington-Arlington-Alexandria, DC-VA-MD-WV","Washington-Arlington-Alexandria, DC-VA-MD-WV",1,47894,47900,1,"Washington-Arlington-Alexandria, DC-VA-MD-WV",0,47900,3511,"Hyattsville","Prince George'S","Washington-Baltimore-Arlington, DC-MD-VA-WV-PA",1,548,"10/15/2014",2239,0,"Wells Fargo Bank, National Association","MD PRINCE GEORGE'S COUNTY 1 BRANCH",10256,"10/16/2020",29,"MD",24033,"Maryland",560697,20783,"8151 15th Avenue Hyattsville MD 20783",-76.981483,38.990764
"57","11640 Rockville Pike","SA","Washington-Arlington-Alexandria, DC-VA-MD-WV","Frederick-Gaithersburg-Rockville, MD",1,23224,47900,1,"Washington-Arlington-Alexandria, DC-VA-MD-WV",0,47900,32363,"Rockville","Montgomery","Washington-Baltimore-Arlington, DC-MD-VA-WV-PA",1,548,"11/15/1995",45197,0,"Presidential Bank, FSB","ROCKVILLE BRANCH",104,"10/16/2020",11,"MD",24031,"Maryland",287859,20852,"11640 Rockville Pike Rockville MD 20852",-77.1143355,39.048378
"58","8302 Woodmont Avenue","N","Washington-Arlington-Alexandria, DC-VA-MD-WV","Frederick-Gaithersburg-Rockville, MD",1,23224,47900,1,"Washington-Arlington-Alexandria, DC-VA-MD-WV",0,47900,3511,"Bethesda","Montgomery","Washington-Baltimore-Arlington, DC-MD-VA-WV-PA",1,548,"09/08/1987",2239,0,"Wells Fargo Bank, National Association","BETHESDA NORTH BRANCH",7613,"10/16/2020",11,"MD",24031,"Maryland",239854,20814,"8302 Woodmont Avenue Bethesda MD 20814",-77.0974325,38.9929597
"59","14817 Baltimore Avenue","N","Washington-Arlington-Alexandria, DC-VA-MD-WV","Washington-Arlington-Alexandria, DC-VA-MD-WV",1,47894,47900,1,"Washington-Arlington-Alexandria, DC-VA-MD-WV",0,47900,3511,"Laurel","Prince George'S","Washington-Baltimore-Arlington, DC-MD-VA-WV-PA",1,548,"07/10/1995",2239,0,"Wells Fargo Bank, National Association","LAUREL BRANCH",7605,"10/16/2020",11,"MD",24033,"Maryland",243589,20707,"14817 Baltimore Avenue Laurel MD 20707",-76.8530422,39.0945182
"60","390 Main Street","N","Washington-Arlington-Alexandria, DC-VA-MD-WV","Washington-Arlington-Alexandria, DC-VA-MD-WV",1,47894,47900,1,"Washington-Arlington-Alexandria, DC-VA-MD-WV",0,47900,6384,"Laurel","Prince George'S","Washington-Baltimore-Arlington, DC-MD-VA-WV-PA",1,548,"02/20/1996",4287,0,"PNC Bank, National Association","LAUREL BRANCH",1824,"10/16/2020",11,"MD",24033,"Maryland",204638,20707,"390 Main Street Laurel MD 20707",-76.8478164,39.1056772
"61","16481 Excalibur Road","N","Washington-Arlington-Alexandria, DC-VA-MD-WV","Washington-Arlington-Alexandria, DC-VA-MD-WV",1,47894,47900,1,"Washington-Arlington-Alexandria, DC-VA-MD-WV",0,47900,6384,"Bowie","Prince George'S","Washington-Baltimore-Arlington, DC-MD-VA-WV-PA",1,548,"05/15/1969",4287,0,"PNC Bank, National Association","BOWIE EXCALIBUR BRANCH",1820,"10/16/2020",11,"MD",24033,"Maryland",247252,20715,"16481 Excalibur Road Bowie MD 20715",-76.718726,38.9348882
"62","5500 Silver Hill Road","N","Washington-Arlington-Alexandria, DC-VA-MD-WV","Washington-Arlington-Alexandria, DC-VA-MD-WV",1,47894,47900,1,"Washington-Arlington-Alexandria, DC-VA-MD-WV",0,47900,6384,"District Heights","Prince George'S","Washington-Baltimore-Arlington, DC-MD-VA-WV-PA",1,548,"03/13/2009",4287,0,"PNC Bank, National Association","DISTRICT HEIGHTS @ GIANT BRANCH",2093,"10/16/2020",12,"MD",24033,"Maryland",493319,20747,"5500 Silver Hill Road District Heights MD 20747",-76.9123548,38.8540697
"63","9400 Taj Lane","N","Washington-Arlington-Alexandria, DC-VA-MD-WV","Washington-Arlington-Alexandria, DC-VA-MD-WV",1,47894,47900,1,"Washington-Arlington-Alexandria, DC-VA-MD-WV",0,47900,6384,"Glenarden","Prince George'S","Washington-Baltimore-Arlington, DC-MD-VA-WV-PA",1,548,"04/04/2011",4287,0,"PNC Bank, National Association","WOODMORE TOWNE CENTRE BRANCH",3808,"10/16/2020",11,"MD",24033,"Maryland",518710,20706,"9400 Taj Lane Glenarden MD 20706",-76.8452035,38.9211073
"64","110 Congressional Lane","N","Washington-Arlington-Alexandria, DC-VA-MD-WV","Frederick-Gaithersburg-Rockville, MD",1,23224,47900,1,"Washington-Arlington-Alexandria, DC-VA-MD-WV",0,47900,3511,"Rockville","Montgomery","Washington-Baltimore-Arlington, DC-MD-VA-WV-PA",1,548,"06/12/1959",2239,0,"Wells Fargo Bank, National Association","CONGRESSIONAL PLAZA BRANCH",7591,"10/16/2020",11,"MD",24031,"Maryland",11953,20852,"110 Congressional Lane Rockville MD 20852",-77.1263503,39.0637464
"65","4749 Bethesda Avenue","N","Washington-Arlington-Alexandria, DC-VA-MD-WV","Frederick-Gaithersburg-Rockville, MD",1,23224,47900,1,"Washington-Arlington-Alexandria, DC-VA-MD-WV",0,47900,628,"Bethesda","Montgomery","Washington-Baltimore-Arlington, DC-MD-VA-WV-PA",1,548,"05/14/2019",417,0,"JPMorgan Chase Bank, National Association","Bethesda Ave and Woodmont Avenue",8265,"10/16/2020",11,"MD",24031,"Maryland",613204,20814,"4749 Bethesda Avenue Bethesda MD 20814",-77.0947862,38.9813905
"66","607 North Frederick Avenue","N","Washington-Arlington-Alexandria, DC-VA-MD-WV","Frederick-Gaithersburg-Rockville, MD",1,23224,47900,1,"Washington-Arlington-Alexandria, DC-VA-MD-WV",0,47900,3511,"Gaithersburg","Montgomery","Washington-Baltimore-Arlington, DC-MD-VA-WV-PA",1,548,"09/25/1975",2239,0,"Wells Fargo Bank, National Association","GAITHERSBURG BRANCH",7601,"10/16/2020",11,"MD",24031,"Maryland",15364,20879,"607 North Frederick Avenue Gaithersburg MD 20879",-77.2128328,39.1540043
"67","1175 University Boulevard East","N","Washington-Arlington-Alexandria, DC-VA-MD-WV","Frederick-Gaithersburg-Rockville, MD",1,23224,47900,1,"Washington-Arlington-Alexandria, DC-VA-MD-WV",0,47900,3511,"Takoma Park","Montgomery","Washington-Baltimore-Arlington, DC-MD-VA-WV-PA",1,548,"08/28/1962",2239,0,"Wells Fargo Bank, National Association","LANGLEY PARK BRANCH",7596,"10/16/2020",11,"MD",24031,"Maryland",238186,20912,"1175 University Boulevard East Takoma Park MD 20912",-76.9886593,38.9892013
"68","10305 Westlake Dr","N","Washington-Arlington-Alexandria, DC-VA-MD-WV","Frederick-Gaithersburg-Rockville, MD",1,23224,47900,1,"Washington-Arlington-Alexandria, DC-VA-MD-WV",0,47900,3511,"Bethesda","Montgomery","Washington-Baltimore-Arlington, DC-MD-VA-WV-PA",1,548,"03/06/1968",2239,0,"Wells Fargo Bank, National Association","WESTLAKE CROSSING BRANCH",7610,"10/16/2020",11,"MD",24031,"Maryland",239831,20817,"10305 Westlake Dr Bethesda MD 20817",-77.1479607,39.0256
"69","6235 Baltimore Avenue","N","Washington-Arlington-Alexandria, DC-VA-MD-WV","Washington-Arlington-Alexandria, DC-VA-MD-WV",1,47894,47900,1,"Washington-Arlington-Alexandria, DC-VA-MD-WV",0,47900,3511,"Riverdale","Prince George'S","Washington-Baltimore-Arlington, DC-MD-VA-WV-PA",1,548,"10/22/2009",2239,0,"Wells Fargo Bank, National Association","RIVERDALE PARK BRANCH",9906,"10/16/2020",11,"MD",24033,"Maryland",498623,20737,"6235 Baltimore Avenue Riverdale MD 20737",-76.9388899,38.964174
"70","9420 Marlboro Pike","NM","Washington-Arlington-Alexandria, DC-VA-MD-WV","Washington-Arlington-Alexandria, DC-VA-MD-WV",1,47894,47900,1,"Washington-Arlington-Alexandria, DC-VA-MD-WV",0,47900,9846,"Upper Marlboro","Prince George'S","Washington-Baltimore-Arlington, DC-MD-VA-WV-PA",1,548,"10/27/1966",6300,0,"Truist Bank","UPPER MARLBORO BRANCH",1260,"10/16/2020",11,"MD",24033,"Maryland",13442,20772,"9420 Marlboro Pike Upper Marlboro MD 20772",-76.8426045,38.8173824
"71","24 Watkins Park Drive","NM","Washington-Arlington-Alexandria, DC-VA-MD-WV","Washington-Arlington-Alexandria, DC-VA-MD-WV",1,47894,47900,1,"Washington-Arlington-Alexandria, DC-VA-MD-WV",0,47900,9846,"Upper Marlboro","Prince George'S","Washington-Baltimore-Arlington, DC-MD-VA-WV-PA",1,548,"04/23/1986",6300,0,"Truist Bank","WATKINS PARK BRANCH",3918,"10/16/2020",11,"MD",24033,"Maryland",220960,20774,"24 Watkins Park Drive Upper Marlboro MD 20774",-76.7894857,38.9002153
"72","2520 University Boulevard East","NM","Washington-Arlington-Alexandria, DC-VA-MD-WV","Washington-Arlington-Alexandria, DC-VA-MD-WV",1,47894,47900,1,"Washington-Arlington-Alexandria, DC-VA-MD-WV",0,47900,9846,"Adelphi","Prince George'S","Washington-Baltimore-Arlington, DC-MD-VA-WV-PA",1,548,"04/30/1964",6300,0,"Truist Bank","Adelphi-University Branch",3912,"10/16/2020",11,"MD",24033,"Maryland",246680,20783,"2520 University Boulevard East Adelphi MD 20783",-76.9666239,38.9850818
"73","467 North Frederick Avenue","NM","Washington-Arlington-Alexandria, DC-VA-MD-WV","Frederick-Gaithersburg-Rockville, MD",1,23224,47900,1,"Washington-Arlington-Alexandria, DC-VA-MD-WV",0,47900,9846,"Gaithersburg","Montgomery","Washington-Baltimore-Arlington, DC-MD-VA-WV-PA",1,548,"01/01/1887",6300,0,"Truist Bank","GAITHERSBURG BRANCH",616,"10/16/2020",11,"MD",24031,"Maryland",266373,20877,"467 North Frederick Avenue Gaithersburg MD 20877",-77.2073266,39.1492581
"74","1700 Elton Rd","NM","Washington-Arlington-Alexandria, DC-VA-MD-WV","Frederick-Gaithersburg-Rockville, MD",1,23224,47900,1,"Washington-Arlington-Alexandria, DC-VA-MD-WV",0,47900,9846,"Silver Spring","Montgomery","Washington-Baltimore-Arlington, DC-MD-VA-WV-PA",1,548,"01/01/1966",6300,0,"Truist Bank","HILLANDALE BRANCH",3745,"10/16/2020",11,"MD",24031,"Maryland",285192,20903,"1700 Elton Rd Silver Spring MD 20903",-76.9747023,39.0200682
"75","5504 Norbeck Rd","NM","Washington-Arlington-Alexandria, DC-VA-MD-WV","Frederick-Gaithersburg-Rockville, MD",1,23224,47900,1,"Washington-Arlington-Alexandria, DC-VA-MD-WV",0,47900,9846,"Rockville","Montgomery","Washington-Baltimore-Arlington, DC-MD-VA-WV-PA",1,548,"07/01/2003",6300,0,"Truist Bank","ROCK CREEK VILLAGE BRANCH",4050,"10/16/2020",11,"MD",24031,"Maryland",430751,20853,"5504 Norbeck Rd Rockville MD 20853",-77.1105371,39.0954916
"76","10270 Baltimore Avenue","NM","Washington-Arlington-Alexandria, DC-VA-MD-WV","Washington-Arlington-Alexandria, DC-VA-MD-WV",1,47894,47900,1,"Washington-Arlington-Alexandria, DC-VA-MD-WV",0,47900,9846,"College Park","Prince George'S","Washington-Baltimore-Arlington, DC-MD-VA-WV-PA",1,548,"09/21/1989",6300,0,"Truist Bank","College Park MD Branch",643,"10/16/2020",11,"MD",24033,"Maryland",40429,20740,"10270 Baltimore Avenue College Park MD 20740",-76.9248281,39.0227433
"77","3901 National Dr","NM","Washington-Arlington-Alexandria, DC-VA-MD-WV","Frederick-Gaithersburg-Rockville, MD",1,23224,47900,1,"Washington-Arlington-Alexandria, DC-VA-MD-WV",0,47900,9846,"Burtonsville","Montgomery","Washington-Baltimore-Arlington, DC-MD-VA-WV-PA",1,548,"12/03/1984",6300,0,"Truist Bank","BURTONSVILLE BRANCH",3917,"10/16/2020",11,"MD",24031,"Maryland",220956,20866,"3901 National Dr Burtonsville MD 20866",-76.9318514,39.1126175
"78","404 King Farm Blvd Ste 120","NM","Washington-Arlington-Alexandria, DC-VA-MD-WV","Frederick-Gaithersburg-Rockville, MD",1,23224,47900,1,"Washington-Arlington-Alexandria, DC-VA-MD-WV",0,47900,9846,"Rockville","Montgomery","Washington-Baltimore-Arlington, DC-MD-VA-WV-PA",1,548,"02/05/2001",6300,0,"Truist Bank","KING FARM BRANCH",1200,"10/16/2020",11,"MD",24031,"Maryland",359478,20850,"404 King Farm Blvd Ste 120 Rockville MD 20850",-77.172983,39.1132525
"79","9400 Georgia Avenue","N","Washington-Arlington-Alexandria, DC-VA-MD-WV","Frederick-Gaithersburg-Rockville, MD",1,23224,47900,1,"Washington-Arlington-Alexandria, DC-VA-MD-WV",0,47900,7213,"Silver Spring","Montgomery","Washington-Baltimore-Arlington, DC-MD-VA-WV-PA",1,548,"08/13/1973",4759,0,"Citibank, National Association","SILVER SPRING NORTH BRANCH",1025,"10/16/2020",11,"MD",24031,"Maryland",247580,20910,"9400 Georgia Avenue Silver Spring MD 20910",-77.040612,39.00904
"80","14405 Laurel Pl.","N","Washington-Arlington-Alexandria, DC-VA-MD-WV","Washington-Arlington-Alexandria, DC-VA-MD-WV",1,47894,47900,1,"Washington-Arlington-Alexandria, DC-VA-MD-WV",0,47900,7213,"Laurel","Prince George'S","Washington-Baltimore-Arlington, DC-MD-VA-WV-PA",1,548,"01/09/1989",4759,0,"Citibank, National Association","LAUREL LAKES BRANCH",1029,"10/16/2020",11,"MD",24033,"Maryland",258024,20707,"14405 Laurel Pl. Laurel MD 20707",-76.8601275,39.0888068
"81","5600 Greenbelt Road","NM","Washington-Arlington-Alexandria, DC-VA-MD-WV","Washington-Arlington-Alexandria, DC-VA-MD-WV",1,47894,47900,1,"Washington-Arlington-Alexandria, DC-VA-MD-WV",0,47900,9846,"College Park","Prince George'S","Washington-Baltimore-Arlington, DC-MD-VA-WV-PA",1,548,"04/30/1964",6300,0,"Truist Bank","BRANCHVILLE BRANCH",3897,"10/16/2020",11,"MD",24033,"Maryland",220901,20740,"5600 Greenbelt Road College Park MD 20740",-76.9150712,38.9984704
"82","12052 Cherry Hill Road","NM","Washington-Arlington-Alexandria, DC-VA-MD-WV","Frederick-Gaithersburg-Rockville, MD",1,23224,47900,1,"Washington-Arlington-Alexandria, DC-VA-MD-WV",0,47900,9846,"Silver Spring","Montgomery","Washington-Baltimore-Arlington, DC-MD-VA-WV-PA",1,548,"06/30/1996",6300,0,"Truist Bank","Orchard Center Branch",3926,"10/16/2020",11,"MD",24031,"Maryland",220983,20904,"12052 Cherry Hill Road Silver Spring MD 20904",-76.954539,39.0547005
"83","265 Kentlands Blvd","NM","Washington-Arlington-Alexandria, DC-VA-MD-WV","Frederick-Gaithersburg-Rockville, MD",1,23224,47900,1,"Washington-Arlington-Alexandria, DC-VA-MD-WV",0,47900,9846,"Gaithersburg","Montgomery","Washington-Baltimore-Arlington, DC-MD-VA-WV-PA",1,548,"11/20/1993",6300,0,"Truist Bank","KENTLANDS BRANCH",892,"10/16/2020",11,"MD",24031,"Maryland",249126,20878,"265 Kentlands Blvd Gaithersburg MD 20878",-77.2390334,39.1242957
"84","3400 East West Highway","NM","Washington-Arlington-Alexandria, DC-VA-MD-WV","Washington-Arlington-Alexandria, DC-VA-MD-WV",1,47894,47900,1,"Washington-Arlington-Alexandria, DC-VA-MD-WV",0,47900,9846,"Hyattsville","Prince George'S","Washington-Baltimore-Arlington, DC-MD-VA-WV-PA",1,548,"01/25/2010",6300,0,"Truist Bank","HYATTSVILLE MAIN BRANCH",2490,"10/16/2020",11,"MD",24033,"Maryland",507040,20782,"3400 East West Highway Hyattsville MD 20782",-76.9618531,38.9673486
"85","8510 Connecticut Avenue","NM","Washington-Arlington-Alexandria, DC-VA-MD-WV","Frederick-Gaithersburg-Rockville, MD",1,23224,47900,1,"Washington-Arlington-Alexandria, DC-VA-MD-WV",0,47900,9846,"Chevy Chase","Montgomery","Washington-Baltimore-Arlington, DC-MD-VA-WV-PA",1,548,"09/02/1969",6300,0,"Truist Bank","CHEVY CHASE LAKE BRANCH",3905,"10/16/2020",11,"MD",24031,"Maryland",13751,20815,"8510 Connecticut Avenue Chevy Chase MD 20815",-77.077537,38.9951176
"86","11160 Veirs Mill Road","N","Washington-Arlington-Alexandria, DC-VA-MD-WV","Frederick-Gaithersburg-Rockville, MD",1,23224,47900,1,"Washington-Arlington-Alexandria, DC-VA-MD-WV",0,47900,3511,"Wheaton","Montgomery","Washington-Baltimore-Arlington, DC-MD-VA-WV-PA",1,548,"10/08/2013",2239,0,"Wells Fargo Bank, National Association","WESTFIELD WHEATON ND BRANCH",10135,"10/16/2020",27,"MD",24031,"Maryland",544692,20902,"11160 Veirs Mill Road Wheaton MD 20902",-77.055224,39.0356674
"87","12101 Chestnut Branch Way","N","Washington-Arlington-Alexandria, DC-VA-MD-WV","Frederick-Gaithersburg-Rockville, MD",1,23224,47900,1,"Washington-Arlington-Alexandria, DC-VA-MD-WV",0,47900,3511,"Clarksburg","Montgomery","Washington-Baltimore-Arlington, DC-MD-VA-WV-PA",1,548,"11/18/2013",2239,0,"Wells Fargo Bank, National Association","CLARKSBURG VILLAGE CENTER BRANCH",10136,"10/16/2020",11,"MD",24031,"Maryland",546060,20871,"12101 Chestnut Branch Way Clarksburg MD 20871",-77.2504094,39.2305984
"88","8700 Georgia Avenue","NM","Washington-Arlington-Alexandria, DC-VA-MD-WV","Frederick-Gaithersburg-Rockville, MD",1,23224,47900,1,"Washington-Arlington-Alexandria, DC-VA-MD-WV",0,47900,9846,"Silver Spring","Montgomery","Washington-Baltimore-Arlington, DC-MD-VA-WV-PA",1,548,"01/01/1947",6300,0,"Truist Bank","SILVER SPRING BRANCH",3735,"10/16/2020",11,"MD",24031,"Maryland",43334,20910,"8700 Georgia Avenue Silver Spring MD 20910",-77.0302241,38.9973324
"89","1900 Queens Chapel Road","NM","Washington-Arlington-Alexandria, DC-VA-MD-WV","Washington-Arlington-Alexandria, DC-VA-MD-WV",1,47894,47900,1,"Washington-Arlington-Alexandria, DC-VA-MD-WV",0,47900,9846,"Avondale","Prince George'S","Washington-Baltimore-Arlington, DC-MD-VA-WV-PA",1,548,"10/28/1948",6300,0,"Truist Bank","AVONDALE BRANCH",3893,"10/16/2020",11,"MD",24033,"Maryland",220894,20782,"1900 Queens Chapel Road Avondale MD 20782",-76.9778525,38.9470095
"90","19645 Fisher Avenue","NM","Washington-Arlington-Alexandria, DC-VA-MD-WV","Frederick-Gaithersburg-Rockville, MD",1,23224,47900,1,"Washington-Arlington-Alexandria, DC-VA-MD-WV",0,47900,9846,"Poolesville","Montgomery","Washington-Baltimore-Arlington, DC-MD-VA-WV-PA",1,548,"12/10/1990",6300,0,"Truist Bank","POOLESVILLE BRANCH",890,"10/16/2020",11,"MD",24031,"Maryland",249121,20837,"19645 Fisher Avenue Poolesville MD 20837",-77.4106447,39.1446912
"91","7815 Woodmont Avenue","SM","Washington-Arlington-Alexandria, DC-VA-MD-WV","Frederick-Gaithersburg-Rockville, MD",1,23224,47900,1,"Washington-Arlington-Alexandria, DC-VA-MD-WV",0,47900,34742,"Bethesda","Montgomery","Washington-Baltimore-Arlington, DC-MD-VA-WV-PA",1,548,"07/20/1998",61426,1,"EagleBank","EagleBank",0,"10/16/2020",11,"MD",24031,"Maryland",61426,20814,"7815 Woodmont Avenue Bethesda MD 20814",-77.0959147,38.9886499
"92","8677 Georgia Ave","SM","Washington-Arlington-Alexandria, DC-VA-MD-WV","Frederick-Gaithersburg-Rockville, MD",1,23224,47900,1,"Washington-Arlington-Alexandria, DC-VA-MD-WV",0,47900,34742,"Silver Spring","Montgomery","Washington-Baltimore-Arlington, DC-MD-VA-WV-PA",1,548,"07/20/1998",61426,0,"EagleBank","SILVER SPRING BRANCH",2,"10/16/2020",11,"MD",24031,"Maryland",290799,20910,"8677 Georgia Ave Silver Spring MD 20910",-77.0295073,38.9976032
"93","12300 Twinbrook Pkwy","SM","Washington-Arlington-Alexandria, DC-VA-MD-WV","Frederick-Gaithersburg-Rockville, MD",1,23224,47900,1,"Washington-Arlington-Alexandria, DC-VA-MD-WV",0,47900,34742,"Rockville","Montgomery","Washington-Baltimore-Arlington, DC-MD-VA-WV-PA",1,548,"09/10/2007",61426,0,"EagleBank","TWINBROOK BRANCH",16,"10/16/2020",11,"MD",24031,"Maryland",479350,20852,"12300 Twinbrook Pkwy Rockville MD 20852",-77.119842,39.0589453
"94","9001 Edmonston Road #100","NM","Washington-Arlington-Alexandria, DC-VA-MD-WV","Washington-Arlington-Alexandria, DC-VA-MD-WV",1,47894,47900,1,"Washington-Arlington-Alexandria, DC-VA-MD-WV",0,47900,57614,"Greenbelt","Prince George'S","Washington-Baltimore-Arlington, DC-MD-VA-WV-PA",1,548,"07/16/2007",418493,0,"Congressional Bank","EDMONSTON LPO",10,"10/16/2020",24,"MD",24033,"Maryland",518313,20770,"9001 Edmonston Road #100 Greenbelt MD 20770",NA,NA
"95","7637 Old Georgetown Road","N","Washington-Arlington-Alexandria, DC-VA-MD-WV","Frederick-Gaithersburg-Rockville, MD",1,23224,47900,1,"Washington-Arlington-Alexandria, DC-VA-MD-WV",0,47900,57890,"Bethesda","Montgomery","Washington-Baltimore-Arlington, DC-MD-VA-WV-PA",1,548,"10/30/2006",429342,0,"HSBC Bank USA, National Association","BETHESDA BRANCH",530,"10/16/2020",11,"MD",24031,"Maryland",455407,20814,"7637 Old Georgetown Road Bethesda MD 20814",-77.096814,38.9865344
"96","7700 Wisconsin Avenue","SM","Washington-Arlington-Alexandria, DC-VA-MD-WV","Frederick-Gaithersburg-Rockville, MD",1,23224,47900,1,"Washington-Arlington-Alexandria, DC-VA-MD-WV",0,47900,57968,"Bethesda","Montgomery","Washington-Baltimore-Arlington, DC-MD-VA-WV-PA",1,548,"01/09/2007",432804,0,"SONABANK","BETHESDA BRANCH",19,"10/16/2020",11,"MD",24031,"Maryland",458070,20814,"7700 Wisconsin Avenue Bethesda MD 20814",-77.0950973,38.9867474
"97","11834 Rockville Pike","SM","Washington-Arlington-Alexandria, DC-VA-MD-WV","Frederick-Gaithersburg-Rockville, MD",1,23224,47900,1,"Washington-Arlington-Alexandria, DC-VA-MD-WV",0,47900,57968,"Rockville","Montgomery","Washington-Baltimore-Arlington, DC-MD-VA-WV-PA",1,548,"05/04/1998",432804,0,"SONABANK","ROCKVILLE BRANCH",9,"10/16/2020",11,"MD",24031,"Maryland",288391,20852,"11834 Rockville Pike Rockville MD 20852",-77.115646,39.0509549
"98","6304 Kirby Road","SM","Washington-Arlington-Alexandria, DC-VA-MD-WV","Washington-Arlington-Alexandria, DC-VA-MD-WV",1,47894,47900,1,"Washington-Arlington-Alexandria, DC-VA-MD-WV",0,47900,588,"Clinton","Prince George'S","Washington-Baltimore-Arlington, DC-MD-VA-WV-PA",1,548,"05/24/1965",400,0,"Manufacturers and Traders Trust Company","CLINTON BRANCH",716,"10/16/2020",11,"MD",24033,"Maryland",204695,20735,"6304 Kirby Road Clinton MD 20735",-76.8983524,38.7873855
"99","207 Bowie Road","SM","Washington-Arlington-Alexandria, DC-VA-MD-WV","Washington-Arlington-Alexandria, DC-VA-MD-WV",1,47894,47900,1,"Washington-Arlington-Alexandria, DC-VA-MD-WV",0,47900,588,"Laurel","Prince George'S","Washington-Baltimore-Arlington, DC-MD-VA-WV-PA",1,548,"12/01/1996",400,0,"Manufacturers and Traders Trust Company","LAUREL BRANCH",1061,"10/16/2020",11,"MD",24033,"Maryland",236078,20707,"207 Bowie Road Laurel MD 20707",-76.8498855,39.0970671
"100","11325 Seven Locks Road","SM","Washington-Arlington-Alexandria, DC-VA-MD-WV","Frederick-Gaithersburg-Rockville, MD",1,23224,47900,1,"Washington-Arlington-Alexandria, DC-VA-MD-WV",0,47900,588,"Potomac","Montgomery","Washington-Baltimore-Arlington, DC-MD-VA-WV-PA",1,548,"05/14/1979",400,0,"Manufacturers and Traders Trust Company","CABIN JOHN MALL BRANCH",700,"10/16/2020",11,"MD",24031,"Maryland",204266,20854,"11325 Seven Locks Road Potomac MD 20854",-77.1559198,39.0405181
"101","4800 Hampden Lane","SM","Washington-Arlington-Alexandria, DC-VA-MD-WV","Frederick-Gaithersburg-Rockville, MD",1,23224,47900,1,"Washington-Arlington-Alexandria, DC-VA-MD-WV",0,47900,588,"Bethesda","Montgomery","Washington-Baltimore-Arlington, DC-MD-VA-WV-PA",1,548,"12/15/1986",400,0,"Manufacturers and Traders Trust Company","ONE BETHESDA CENTER BRANCH",732,"10/16/2020",11,"MD",24031,"Maryland",204301,20814,"4800 Hampden Lane Bethesda MD 20814",-77.0947507,38.982623
"102","15850 Crabbs Branch Way","SM","Washington-Arlington-Alexandria, DC-VA-MD-WV","Frederick-Gaithersburg-Rockville, MD",1,23224,47900,1,"Washington-Arlington-Alexandria, DC-VA-MD-WV",0,47900,588,"Rockville","Montgomery","Washington-Baltimore-Arlington, DC-MD-VA-WV-PA",1,548,"04/07/1986",400,0,"Manufacturers and Traders Trust Company","DERWOOD BRANCH",733,"10/16/2020",11,"MD",24031,"Maryland",204302,20855,"15850 Crabbs Branch Way Rockville MD 20855",-77.1577734,39.1142571
"103","21006 Frederick Road","SM","Washington-Arlington-Alexandria, DC-VA-MD-WV","Frederick-Gaithersburg-Rockville, MD",1,23224,47900,1,"Washington-Arlington-Alexandria, DC-VA-MD-WV",0,47900,588,"Germantown","Montgomery","Washington-Baltimore-Arlington, DC-MD-VA-WV-PA",1,548,"06/30/1997",400,0,"Manufacturers and Traders Trust Company","MILESTONE BRANCH",783,"10/16/2020",11,"MD",24031,"Maryland",204356,20876,"21006 Frederick Road Germantown MD 20876",-77.2469364,39.2005119
"104","18261 Flower Hill Way","SM","Washington-Arlington-Alexandria, DC-VA-MD-WV","Frederick-Gaithersburg-Rockville, MD",1,23224,47900,1,"Washington-Arlington-Alexandria, DC-VA-MD-WV",0,47900,588,"Gaithersburg","Montgomery","Washington-Baltimore-Arlington, DC-MD-VA-WV-PA",1,548,"06/30/1988",400,0,"Manufacturers and Traders Trust Company","FLOWER HILL WAY BRANCH",1071,"10/16/2020",11,"MD",24031,"Maryland",270198,20879,"18261 Flower Hill Way Gaithersburg MD 20879",-77.1628285,39.1572787
"105","5910 Executive Boulevard","SM","Washington-Arlington-Alexandria, DC-VA-MD-WV","Frederick-Gaithersburg-Rockville, MD",1,23224,47900,1,"Washington-Arlington-Alexandria, DC-VA-MD-WV",0,47900,588,"Rockville","Montgomery","Washington-Baltimore-Arlington, DC-MD-VA-WV-PA",1,548,"03/30/2009",400,0,"Manufacturers and Traders Trust Company","EXECUTIVE BLVD. BRANCH",1161,"10/16/2020",11,"MD",24031,"Maryland",493229,20852,"5910 Executive Boulevard Rockville MD 20852",-77.1175184,39.046746
"106","8213 Wisconsin Ave","NM","Washington-Arlington-Alexandria, DC-VA-MD-WV","Frederick-Gaithersburg-Rockville, MD",1,23224,47900,1,"Washington-Arlington-Alexandria, DC-VA-MD-WV",0,47900,57833,"Bethesda","Montgomery","Washington-Baltimore-Arlington, DC-MD-VA-WV-PA",1,548,"08/13/2012",427137,0,"Beal Bank USA","DC/MD BRANCH",19,"10/16/2020",11,"MD",24031,"Maryland",540634,20814,"8213 Wisconsin Ave Bethesda MD 20814",-77.0957425,38.9924601
"107","7941 Tuckerman Lane","N","Washington-Arlington-Alexandria, DC-VA-MD-WV","Frederick-Gaithersburg-Rockville, MD",1,23224,47900,1,"Washington-Arlington-Alexandria, DC-VA-MD-WV",0,47900,4297,"Potomac","Montgomery","Washington-Baltimore-Arlington, DC-MD-VA-WV-PA",1,548,"06/30/1985",2818,0,"Capital One, National Association","CABIN JOHN MALL BRANCH",958,"10/16/2020",11,"MD",24031,"Maryland",287550,20854,"7941 Tuckerman Lane Potomac MD 20854",-77.1569831,39.0410663
"108","10800 Baltimore Avenue","N","Washington-Arlington-Alexandria, DC-VA-MD-WV","Washington-Arlington-Alexandria, DC-VA-MD-WV",1,47894,47900,1,"Washington-Arlington-Alexandria, DC-VA-MD-WV",0,47900,4297,"Beltsville","Prince George'S","Washington-Baltimore-Arlington, DC-MD-VA-WV-PA",1,548,"03/01/1991",2818,0,"Capital One, National Association","BELTSVILLE BRANCH",1010,"10/16/2020",11,"MD",24033,"Maryland",287607,20705,"10800 Baltimore Avenue Beltsville MD 20705",-76.912469,39.0318091
"109","8670 Georgia Avenue","N","Washington-Arlington-Alexandria, DC-VA-MD-WV","Frederick-Gaithersburg-Rockville, MD",1,23224,47900,1,"Washington-Arlington-Alexandria, DC-VA-MD-WV",0,47900,4297,"Silver Spring","Montgomery","Washington-Baltimore-Arlington, DC-MD-VA-WV-PA",1,548,"05/09/2002",2818,0,"Capital One, National Association","8676 GEORGIA AVENUE BRANCH",1121,"10/16/2020",11,"MD",24031,"Maryland",364342,20910,"8670 Georgia Avenue Silver Spring MD 20910",-77.0296843,38.9967908
"110","8740 Arliss Street","N","Washington-Arlington-Alexandria, DC-VA-MD-WV","Frederick-Gaithersburg-Rockville, MD",1,23224,47900,1,"Washington-Arlington-Alexandria, DC-VA-MD-WV",0,47900,4297,"Silver Spring","Montgomery","Washington-Baltimore-Arlington, DC-MD-VA-WV-PA",1,548,"06/30/1985",2818,0,"Capital One, National Association","8740 ARLISS ST BRANCH",949,"10/16/2020",11,"MD",24031,"Maryland",287541,20901,"8740 Arliss Street Silver Spring MD 20901",-77.0018815,38.9996658
"111","10651 Martin Luther King Jr Hwy","N","Washington-Arlington-Alexandria, DC-VA-MD-WV","Washington-Arlington-Alexandria, DC-VA-MD-WV",1,47894,47900,1,"Washington-Arlington-Alexandria, DC-VA-MD-WV",0,47900,4297,"Bowie","Prince George'S","Washington-Baltimore-Arlington, DC-MD-VA-WV-PA",1,548,"07/30/2009",2818,0,"Capital One, National Association","VISTA GARDENS/LANHAM BRANCH",1202,"10/16/2020",11,"MD",24033,"Maryland",511701,20720,"10651 Martin Luther King Jr Hwy Bowie MD 20720",-76.8226759,38.9554112
"112","13641 Connecticut Avenue","N","Washington-Arlington-Alexandria, DC-VA-MD-WV","Frederick-Gaithersburg-Rockville, MD",1,23224,47900,1,"Washington-Arlington-Alexandria, DC-VA-MD-WV",0,47900,4297,"Wheaton","Montgomery","Washington-Baltimore-Arlington, DC-MD-VA-WV-PA",1,548,"06/30/1985",2818,0,"Capital One, National Association","13641 CONNECTICUT AVENUE BRANCH",939,"10/16/2020",11,"MD",24031,"Maryland",287531,20906,"13641 Connecticut Avenue Wheaton MD 20906",-77.079345,39.0787953
"113","12201 Darnestown Road","N","Washington-Arlington-Alexandria, DC-VA-MD-WV","Frederick-Gaithersburg-Rockville, MD",1,23224,47900,1,"Washington-Arlington-Alexandria, DC-VA-MD-WV",0,47900,4297,"Gaithersburg","Montgomery","Washington-Baltimore-Arlington, DC-MD-VA-WV-PA",1,548,"11/01/2007",2818,0,"Capital One, National Association","DARNESTOWN ROAD BRANCH",1168,"10/16/2020",11,"MD",24031,"Maryland",492518,20878,"12201 Darnestown Road Gaithersburg MD 20878",-77.253141,39.1182423
"114","12293 Tech Rd","N","Washington-Arlington-Alexandria, DC-VA-MD-WV","Frederick-Gaithersburg-Rockville, MD",1,23224,47900,1,"Washington-Arlington-Alexandria, DC-VA-MD-WV",0,47900,4297,"Silver Spring","Montgomery","Washington-Baltimore-Arlington, DC-MD-VA-WV-PA",1,548,"07/30/2009",2818,0,"Capital One, National Association","WEST TECH PARK/SILVER SPRING BRANCH",1205,"10/16/2020",11,"MD",24031,"Maryland",511704,20904,"12293 Tech Rd Silver Spring MD 20904",-76.967029,39.0575767
"115","474 North Frederick Avenue","N","Washington-Arlington-Alexandria, DC-VA-MD-WV","Frederick-Gaithersburg-Rockville, MD",1,23224,47900,1,"Washington-Arlington-Alexandria, DC-VA-MD-WV",0,47900,3510,"Gaithersburg","Montgomery","Washington-Baltimore-Arlington, DC-MD-VA-WV-PA",1,548,"01/30/1967",2238,0,"Bank of America, National Association","GAITHERSBURG SQUARE BRANCH",3930,"10/16/2020",11,"MD",24031,"Maryland",228120,20877,"474 North Frederick Avenue Gaithersburg MD 20877",-77.2082341,39.148841
"116","19226 Montgomery Village Ave","N","Washington-Arlington-Alexandria, DC-VA-MD-WV","Frederick-Gaithersburg-Rockville, MD",1,23224,47900,1,"Washington-Arlington-Alexandria, DC-VA-MD-WV",0,47900,3510,"Gaithersburg","Montgomery","Washington-Baltimore-Arlington, DC-MD-VA-WV-PA",1,548,"01/23/1984",2238,0,"Bank of America, National Association","MONTGOMERY VILLAGE BRANCH",3949,"10/16/2020",11,"MD",24031,"Maryland",228152,20886,"19226 Montgomery Village Ave Gaithersburg MD 20886",-77.2050501,39.1723584
"117","10400 Old Georgetown Road","N","Washington-Arlington-Alexandria, DC-VA-MD-WV","Frederick-Gaithersburg-Rockville, MD",1,23224,47900,1,"Washington-Arlington-Alexandria, DC-VA-MD-WV",0,47900,3510,"Bethesda","Montgomery","Washington-Baltimore-Arlington, DC-MD-VA-WV-PA",1,548,"08/20/1973",2238,0,"Bank of America, National Association","DEMOCRACY BOULEVARD BRANCH",3933,"10/16/2020",11,"MD",24031,"Maryland",228126,20817,"10400 Old Georgetown Road Bethesda MD 20817",-77.1265842,39.0258151
"118","1900 John Hanson Lane","NM","Washington-Arlington-Alexandria, DC-VA-MD-WV","Washington-Arlington-Alexandria, DC-VA-MD-WV",1,47894,47900,1,"Washington-Arlington-Alexandria, DC-VA-MD-WV",0,47900,14679,"Oxon Hill","Prince George'S","Washington-Baltimore-Arlington, DC-MD-VA-WV-PA",1,548,"09/04/2007",9180,0,"Industrial Bank","OXON HILL BRANCH",12,"10/16/2020",11,"MD",24033,"Maryland",511676,20745,"1900 John Hanson Lane Oxon Hill MD 20745",-76.9752424,38.8047777
"119","10630 Baltimore Avenue","N","Washington-Arlington-Alexandria, DC-VA-MD-WV","Washington-Arlington-Alexandria, DC-VA-MD-WV",1,47894,47900,1,"Washington-Arlington-Alexandria, DC-VA-MD-WV",0,47900,3510,"Beltsville","Prince George'S","Washington-Baltimore-Arlington, DC-MD-VA-WV-PA",1,548,"05/18/1959",2238,0,"Bank of America, National Association","BELTSVILLE BRANCH",3904,"10/16/2020",11,"MD",24033,"Maryland",228083,20705,"10630 Baltimore Avenue Beltsville MD 20705",-76.9142925,39.0305951
"120","16571 S Frederick Ave.","N","Washington-Arlington-Alexandria, DC-VA-MD-WV","Frederick-Gaithersburg-Rockville, MD",1,23224,47900,1,"Washington-Arlington-Alexandria, DC-VA-MD-WV",0,47900,3510,"Gaithersburg","Montgomery","Washington-Baltimore-Arlington, DC-MD-VA-WV-PA",1,548,"12/01/1960",2238,0,"Bank of America, National Association","WALNUT HILL",3911,"10/16/2020",11,"MD",24031,"Maryland",228092,20877,"16571 S Frederick Ave. Gaithersburg MD 20877",-77.1838468,39.1267964
"121","6950 Carroll Avenue","N","Washington-Arlington-Alexandria, DC-VA-MD-WV","Frederick-Gaithersburg-Rockville, MD",1,23224,47900,1,"Washington-Arlington-Alexandria, DC-VA-MD-WV",0,47900,3510,"Takoma Park","Montgomery","Washington-Baltimore-Arlington, DC-MD-VA-WV-PA",1,548,"07/23/1938",2238,0,"Bank of America, National Association","TAKOMA PARK BRANCH",3926,"10/16/2020",11,"MD",24031,"Maryland",228113,20912,"6950 Carroll Avenue Takoma Park MD 20912",-77.0133819,38.974955
"122","5416 Queens Chapel Road","N","Washington-Arlington-Alexandria, DC-VA-MD-WV","Washington-Arlington-Alexandria, DC-VA-MD-WV",1,47894,47900,1,"Washington-Arlington-Alexandria, DC-VA-MD-WV",0,47900,3510,"Hyattsville","Prince George'S","Washington-Baltimore-Arlington, DC-MD-VA-WV-PA",1,548,"01/05/1948",2238,0,"Bank of America, National Association","QUEENS CHAPEL BRANCH",3927,"10/16/2020",11,"MD",24033,"Maryland",228116,20782,"5416 Queens Chapel Road Hyattsville MD 20782",-76.9617406,38.9564125
"123","13311 New Hampshire Avenue","N","Washington-Arlington-Alexandria, DC-VA-MD-WV","Frederick-Gaithersburg-Rockville, MD",1,23224,47900,1,"Washington-Arlington-Alexandria, DC-VA-MD-WV",0,47900,3510,"Silver Spring","Montgomery","Washington-Baltimore-Arlington, DC-MD-VA-WV-PA",1,548,"09/10/1973",2238,0,"Bank of America, National Association","COLESVILLE BRANCH",3934,"10/16/2020",11,"MD",24031,"Maryland",228127,20904,"13311 New Hampshire Avenue Silver Spring MD 20904",-77.0017015,39.0744459
"124","10200 Lake Arbor Way","N","Washington-Arlington-Alexandria, DC-VA-MD-WV","Washington-Arlington-Alexandria, DC-VA-MD-WV",1,47894,47900,1,"Washington-Arlington-Alexandria, DC-VA-MD-WV",0,47900,3510,"Mitchellville","Prince George'S","Washington-Baltimore-Arlington, DC-MD-VA-WV-PA",1,548,"12/17/1990",2238,0,"Bank of America, National Association","LAKE ARBOR BRANCH",3953,"10/16/2020",11,"MD",24033,"Maryland",228164,20721,"10200 Lake Arbor Way Mitchellville MD 20721",-76.8295447,38.9057325
"125","9436 Lanham Severn Road","N","Washington-Arlington-Alexandria, DC-VA-MD-WV","Washington-Arlington-Alexandria, DC-VA-MD-WV",1,47894,47900,1,"Washington-Arlington-Alexandria, DC-VA-MD-WV",0,47900,3510,"Seabrook","Prince George'S","Washington-Baltimore-Arlington, DC-MD-VA-WV-PA",1,548,"04/13/1964",2238,0,"Bank of America, National Association","SEABROOK BRANCH",4061,"10/16/2020",11,"MD",24033,"Maryland",190298,20706,"9436 Lanham Severn Road Seabrook MD 20706",-76.8461878,38.9733575
"126","7370 Baltimore Avenue","N","Washington-Arlington-Alexandria, DC-VA-MD-WV","Washington-Arlington-Alexandria, DC-VA-MD-WV",1,47894,47900,1,"Washington-Arlington-Alexandria, DC-VA-MD-WV",0,47900,3510,"College Park","Prince George'S","Washington-Baltimore-Arlington, DC-MD-VA-WV-PA",1,548,"11/01/1946",2238,0,"Bank of America, National Association","COLLEGE PARK BRANCH",3908,"10/16/2020",11,"MD",24033,"Maryland",228089,20740,"7370 Baltimore Avenue College Park MD 20740",-76.9382439,38.9806835
"127","3200 Onley Sandy Spring Road","N","Washington-Arlington-Alexandria, DC-VA-MD-WV","Frederick-Gaithersburg-Rockville, MD",1,23224,47900,1,"Washington-Arlington-Alexandria, DC-VA-MD-WV",0,47900,3510,"Olney","Montgomery","Washington-Baltimore-Arlington, DC-MD-VA-WV-PA",1,548,"05/14/1973",2238,0,"Bank of America, National Association","OLNEY BRANCH",3932,"10/16/2020",11,"MD",24031,"Maryland",228125,20832,"3200 Onley Sandy Spring Road Olney MD 20832",-77.0650584,39.1517246
"128","2101 Bel Pre Road","N","Washington-Arlington-Alexandria, DC-VA-MD-WV","Frederick-Gaithersburg-Rockville, MD",1,23224,47900,1,"Washington-Arlington-Alexandria, DC-VA-MD-WV",0,47900,3510,"Silver Spring","Montgomery","Washington-Baltimore-Arlington, DC-MD-VA-WV-PA",1,548,"11/28/1983",2238,0,"Bank of America, National Association","BEL PRE BRANCH",3948,"10/16/2020",11,"MD",24031,"Maryland",228150,20906,"2101 Bel Pre Road Silver Spring MD 20906",-77.0453323,39.0909792
"129","1 Ashton Road","SM","Washington-Arlington-Alexandria, DC-VA-MD-WV","Frederick-Gaithersburg-Rockville, MD",1,23224,47900,1,"Washington-Arlington-Alexandria, DC-VA-MD-WV",0,47900,4865,"Ashton","Montgomery","Washington-Baltimore-Arlington, DC-MD-VA-WV-PA",1,548,"07/02/1979",3240,0,"Sandy Spring Bank","ASHTON BRANCH",5,"10/16/2020",11,"MD",24031,"Maryland",204679,20861,"1 Ashton Road Ashton MD 20861",-77.0117572,39.149076
"130","20930 Frederick Road","SM","Washington-Arlington-Alexandria, DC-VA-MD-WV","Frederick-Gaithersburg-Rockville, MD",1,23224,47900,1,"Washington-Arlington-Alexandria, DC-VA-MD-WV",0,47900,4865,"Germantown","Montgomery","Washington-Baltimore-Arlington, DC-MD-VA-WV-PA",1,548,"12/22/1997",3240,0,"Sandy Spring Bank","MILESTONE COMMUNITY BRANCH",21,"10/16/2020",11,"MD",24031,"Maryland",204691,20876,"20930 Frederick Road Germantown MD 20876",-77.2488212,39.2031786
"131","7700 Old Georgetown Road","SM","Washington-Arlington-Alexandria, DC-VA-MD-WV","Frederick-Gaithersburg-Rockville, MD",1,23224,47900,1,"Washington-Arlington-Alexandria, DC-VA-MD-WV",0,47900,4865,"Bethesda","Montgomery","Washington-Baltimore-Arlington, DC-MD-VA-WV-PA",1,548,"09/06/2005",3240,0,"Sandy Spring Bank","BETHESDA BRANCH",85,"10/16/2020",11,"MD",24031,"Maryland",432254,20814,"7700 Old Georgetown Road Bethesda MD 20814",-77.0979495,38.9863439
"132","6089 Oxon Hill Road","SM","Washington-Arlington-Alexandria, DC-VA-MD-WV","Washington-Arlington-Alexandria, DC-VA-MD-WV",1,47894,47900,1,"Washington-Arlington-Alexandria, DC-VA-MD-WV",0,47900,4865,"Oxon Hill","Prince George'S","Washington-Baltimore-Arlington, DC-MD-VA-WV-PA",1,548,"11/18/1994",3240,0,"Sandy Spring Bank","OXON HILL BRANCH",69,"10/16/2020",11,"MD",24033,"Maryland",55327,20745,"6089 Oxon Hill Road Oxon Hill MD 20745",-76.9805118,38.804971
"133","6329 Greenbelt Road","SM","Washington-Arlington-Alexandria, DC-VA-MD-WV","Washington-Arlington-Alexandria, DC-VA-MD-WV",1,47894,47900,1,"Washington-Arlington-Alexandria, DC-VA-MD-WV",0,47900,4865,"College Park","Prince George'S","Washington-Baltimore-Arlington, DC-MD-VA-WV-PA",1,548,"03/17/1997",3240,0,"Sandy Spring Bank","GREENBELT BRANCH",70,"10/16/2020",11,"MD",24033,"Maryland",422575,20740,"6329 Greenbelt Road College Park MD 20740",-76.9031481,38.9961076
"134","6196 Oxon Hill Road","N","Washington-Arlington-Alexandria, DC-VA-MD-WV","Washington-Arlington-Alexandria, DC-VA-MD-WV",1,47894,47900,1,"Washington-Arlington-Alexandria, DC-VA-MD-WV",0,47900,6384,"Oxon Hill","Prince George'S","Washington-Baltimore-Arlington, DC-MD-VA-WV-PA",1,548,"12/10/2001",4287,0,"PNC Bank, National Association","OXON HILL BRANCH",1380,"10/16/2020",11,"MD",24033,"Maryland",364650,20745,"6196 Oxon Hill Road Oxon Hill MD 20745",-76.9827007,38.8035133
"135","20044 Goshen Road","N","Washington-Arlington-Alexandria, DC-VA-MD-WV","Frederick-Gaithersburg-Rockville, MD",1,23224,47900,1,"Washington-Arlington-Alexandria, DC-VA-MD-WV",0,47900,6384,"Gaithersburg","Montgomery","Washington-Baltimore-Arlington, DC-MD-VA-WV-PA",1,548,"05/12/2010",4287,0,"PNC Bank, National Association","GOSHEN ROAD @ GIANT BRANCH",3738,"10/16/2020",12,"MD",24031,"Maryland",508868,20878,"20044 Goshen Road Gaithersburg MD 20878",-77.1881379,39.1872658
"136","12051 Rockville Pike","N","Washington-Arlington-Alexandria, DC-VA-MD-WV","Frederick-Gaithersburg-Rockville, MD",1,23224,47900,1,"Washington-Arlington-Alexandria, DC-VA-MD-WV",0,47900,6384,"Rockville","Montgomery","Washington-Baltimore-Arlington, DC-MD-VA-WV-PA",1,548,"10/05/2011",4287,0,"PNC Bank, National Association","MONTROSE CROSSING BRANCH",3867,"10/16/2020",11,"MD",24031,"Maryland",526213,20852,"12051 Rockville Pike Rockville MD 20852",-77.116246,39.0561404
"137","20944 Frederick Road","N","Washington-Arlington-Alexandria, DC-VA-MD-WV","Frederick-Gaithersburg-Rockville, MD",1,23224,47900,1,"Washington-Arlington-Alexandria, DC-VA-MD-WV",0,47900,6384,"Germantown","Montgomery","Washington-Baltimore-Arlington, DC-MD-VA-WV-PA",1,548,"11/19/2014",4287,0,"PNC Bank, National Association","NEELSVILLE @ GIANT",4414,"10/16/2020",11,"MD",24031,"Maryland",562828,20876,"20944 Frederick Road Germantown MD 20876",-77.2468017,39.2032545
"138","10000 Falls Road","N","Washington-Arlington-Alexandria, DC-VA-MD-WV","Frederick-Gaithersburg-Rockville, MD",1,23224,47900,1,"Washington-Arlington-Alexandria, DC-VA-MD-WV",0,47900,3510,"Potomac","Montgomery","Washington-Baltimore-Arlington, DC-MD-VA-WV-PA",1,548,"08/15/1972",2238,0,"Bank of America, National Association","POTOMAC BRANCH",3940,"10/16/2020",11,"MD",24031,"Maryland",14347,20854,"10000 Falls Road Potomac MD 20854",-77.2089436,39.0191645
"139","3852 International Drive","N","Washington-Arlington-Alexandria, DC-VA-MD-WV","Frederick-Gaithersburg-Rockville, MD",1,23224,47900,1,"Washington-Arlington-Alexandria, DC-VA-MD-WV",0,47900,3511,"Silver Spring","Montgomery","Washington-Baltimore-Arlington, DC-MD-VA-WV-PA",1,548,"09/08/1987",2239,0,"Wells Fargo Bank, National Association","LEISURE WORLD PLAZA BRANCH",7615,"10/16/2020",11,"MD",24031,"Maryland",239871,20906,"3852 International Drive Silver Spring MD 20906",-77.0751313,39.1021843
"140","10480 Campus Way South","N","Washington-Arlington-Alexandria, DC-VA-MD-WV","Washington-Arlington-Alexandria, DC-VA-MD-WV",1,47894,47900,1,"Washington-Arlington-Alexandria, DC-VA-MD-WV",0,47900,6384,"Upper Marlboro","Prince George'S","Washington-Baltimore-Arlington, DC-MD-VA-WV-PA",1,548,"08/25/2010",4287,0,"PNC Bank, National Association","LARGO @ GIANT BRANCH",3836,"10/16/2020",12,"MD",24033,"Maryland",521826,20774,"10480 Campus Way South Upper Marlboro MD 20774",-76.8272268,38.8949488
"141","8100 Connecticut Avenue","N","Washington-Arlington-Alexandria, DC-VA-MD-WV","Frederick-Gaithersburg-Rockville, MD",1,23224,47900,1,"Washington-Arlington-Alexandria, DC-VA-MD-WV",0,47900,3511,"Chevy Chase","Montgomery","Washington-Baltimore-Arlington, DC-MD-VA-WV-PA",1,548,"07/01/2013",2239,0,"Wells Fargo Bank, National Association","MD MONTGOMERY COUNTY 1 BRANCH",10216,"10/16/2020",29,"MD",24031,"Maryland",557700,20815,"8100 Connecticut Avenue Chevy Chase MD 20815",-77.0783014,38.9917968
"142","14601 Church Street","N","Washington-Arlington-Alexandria, DC-VA-MD-WV","Washington-Arlington-Alexandria, DC-VA-MD-WV",1,47894,47900,1,"Washington-Arlington-Alexandria, DC-VA-MD-WV",0,47900,3510,"Upper Marlboro","Prince George'S","Washington-Baltimore-Arlington, DC-MD-VA-WV-PA",1,548,"05/20/1920",2238,0,"Bank of America, National Association","UPPER MARLBORO BRANCH",3994,"10/16/2020",11,"MD",24033,"Maryland",204437,20772,"14601 Church Street Upper Marlboro MD 20772",-76.7516198,38.8155024
"143","26203 Ridge Road","N","Washington-Arlington-Alexandria, DC-VA-MD-WV","Frederick-Gaithersburg-Rockville, MD",1,23224,47900,1,"Washington-Arlington-Alexandria, DC-VA-MD-WV",0,47900,6384,"Damascus","Montgomery","Washington-Baltimore-Arlington, DC-MD-VA-WV-PA",1,548,"03/15/1965",4287,0,"PNC Bank, National Association","DAMASCUS BRANCH",1781,"10/16/2020",11,"MD",24031,"Maryland",204581,20872,"26203 Ridge Road Damascus MD 20872",-77.2072143,39.2871355
"144","18100 Town Center Drive","N","Washington-Arlington-Alexandria, DC-VA-MD-WV","Frederick-Gaithersburg-Rockville, MD",1,23224,47900,1,"Washington-Arlington-Alexandria, DC-VA-MD-WV",0,47900,6384,"Olney","Montgomery","Washington-Baltimore-Arlington, DC-MD-VA-WV-PA",1,548,"06/16/1995",4287,0,"PNC Bank, National Association","OLNEY TOWN CENTER BRANCH",1782,"10/16/2020",11,"MD",24031,"Maryland",204606,20832,"18100 Town Center Drive Olney MD 20832",-77.0622478,39.1514284
"145","7505 Greenway Center Drive","N","Washington-Arlington-Alexandria, DC-VA-MD-WV","Washington-Arlington-Alexandria, DC-VA-MD-WV",1,47894,47900,1,"Washington-Arlington-Alexandria, DC-VA-MD-WV",0,47900,7551,"Greenbelt","Prince George'S","Washington-Baltimore-Arlington, DC-MD-VA-WV-PA",1,548,"07/07/1980",4901,0,"Fulton Bank, National Association","GREENBELT BRANCH",256,"10/16/2020",11,"MD",24033,"Maryland",16218,20770,"7505 Greenway Center Drive Greenbelt MD 20770",-76.8788071,38.9913926
"146","7810 Old Branch Avenue","N","Washington-Arlington-Alexandria, DC-VA-MD-WV","Washington-Arlington-Alexandria, DC-VA-MD-WV",1,47894,47900,1,"Washington-Arlington-Alexandria, DC-VA-MD-WV",0,47900,7551,"Clinton","Prince George'S","Washington-Baltimore-Arlington, DC-MD-VA-WV-PA",1,548,"11/30/1995",4901,0,"Fulton Bank, National Association","CLINTON BRANCH",258,"10/16/2020",11,"MD",24033,"Maryland",255966,20735,"7810 Old Branch Avenue Clinton MD 20735",-76.8981722,38.7827836
"147","23400 Frederick Road","NM","Washington-Arlington-Alexandria, DC-VA-MD-WV","Frederick-Gaithersburg-Rockville, MD",1,23224,47900,1,"Washington-Arlington-Alexandria, DC-VA-MD-WV",0,47900,803,"Clarksburg","Montgomery","Washington-Baltimore-Arlington, DC-MD-VA-WV-PA",1,548,"02/14/2000",508,0,"WesBanco Bank, Inc.","CLARKSBURG BRANCH",293,"10/16/2020",11,"MD",24031,"Maryland",261501,20871,"23400 Frederick Road Clarksburg MD 20871",-77.2820665,39.2401012
"148","6301 Ivy Lane","NM","Washington-Arlington-Alexandria, DC-VA-MD-WV","Washington-Arlington-Alexandria, DC-VA-MD-WV",1,47894,47900,1,"Washington-Arlington-Alexandria, DC-VA-MD-WV",0,47900,803,"Greenbelt","Prince George'S","Washington-Baltimore-Arlington, DC-MD-VA-WV-PA",1,548,"05/29/2007",508,0,"WesBanco Bank, Inc.","GREENBELT BRANCH",275,"10/16/2020",11,"MD",24033,"Maryland",466476,20770,"6301 Ivy Lane Greenbelt MD 20770",-76.8988477,39.0086958
"149","1801 Rockville Pike","NM","Washington-Arlington-Alexandria, DC-VA-MD-WV","Frederick-Gaithersburg-Rockville, MD",1,23224,47900,1,"Washington-Arlington-Alexandria, DC-VA-MD-WV",0,47900,803,"Rockville","Montgomery","Washington-Baltimore-Arlington, DC-MD-VA-WV-PA",1,548,"11/09/2015",508,0,"WesBanco Bank, Inc.","ROCKVILLE PIKE BRANCH",287,"10/16/2020",11,"MD",24031,"Maryland",573463,20852,"1801 Rockville Pike Rockville MD 20852",-77.1230783,39.0596277
"150","14945 Shady Grove Road","N","Washington-Arlington-Alexandria, DC-VA-MD-WV","Frederick-Gaithersburg-Rockville, MD",1,23224,47900,1,"Washington-Arlington-Alexandria, DC-VA-MD-WV",0,47900,6384,"Rockville","Montgomery","Washington-Baltimore-Arlington, DC-MD-VA-WV-PA",1,548,"05/24/2004",4287,0,"PNC Bank, National Association","FALLS GROVE BRANCH",1383,"10/16/2020",11,"MD",24031,"Maryland",430942,20850,"14945 Shady Grove Road Rockville MD 20850",-77.1929241,39.0980324
"151","12520 Fairwood Parkway","N","Washington-Arlington-Alexandria, DC-VA-MD-WV","Washington-Arlington-Alexandria, DC-VA-MD-WV",1,47894,47900,1,"Washington-Arlington-Alexandria, DC-VA-MD-WV",0,47900,6384,"Bowie","Prince George'S","Washington-Baltimore-Arlington, DC-MD-VA-WV-PA",1,548,"01/22/2008",4287,0,"PNC Bank, National Association","FAIRWOOD GREEN BRANCH",1959,"10/16/2020",11,"MD",24033,"Maryland",473424,20720,"12520 Fairwood Parkway Bowie MD 20720",-76.7885163,38.9637573
"152","18331 Leaman Farm Road","N","Washington-Arlington-Alexandria, DC-VA-MD-WV","Frederick-Gaithersburg-Rockville, MD",1,23224,47900,1,"Washington-Arlington-Alexandria, DC-VA-MD-WV",0,47900,6384,"Germantown","Montgomery","Washington-Baltimore-Arlington, DC-MD-VA-WV-PA",1,548,"02/04/2009",4287,0,"PNC Bank, National Association","KINGSVIEW VILLAGE @ GIANT BRANCH",2095,"10/16/2020",12,"MD",24031,"Maryland",493321,20874,"18331 Leaman Farm Road Germantown MD 20874",-77.2787672,39.1597772
"153","5700 Se Crain Highway","N","Washington-Arlington-Alexandria, DC-VA-MD-WV","Washington-Arlington-Alexandria, DC-VA-MD-WV",1,47894,47900,1,"Washington-Arlington-Alexandria, DC-VA-MD-WV",0,47900,6384,"Upper Marlboro","Prince George'S","Washington-Baltimore-Arlington, DC-MD-VA-WV-PA",1,548,"06/17/2009",4287,0,"PNC Bank, National Association","UPPER MARLBORO @ GIANT BRANCH",2115,"10/16/2020",12,"MD",24033,"Maryland",493341,20772,"5700 Se Crain Highway Upper Marlboro MD 20772",-76.7370678,38.8111077
"154","12127 Rockville Pike","SM","Washington-Arlington-Alexandria, DC-VA-MD-WV","Frederick-Gaithersburg-Rockville, MD",1,23224,47900,1,"Washington-Arlington-Alexandria, DC-VA-MD-WV",0,47900,22858,"Rockville","Montgomery","Washington-Baltimore-Arlington, DC-MD-VA-WV-PA",1,548,"03/28/1997",15972,0,"United Bank","ROCKVILLE BRANCH",21,"10/16/2020",11,"MD",24031,"Maryland",257450,20852,"12127 Rockville Pike Rockville MD 20852",-77.1187182,39.0577384
"155","8300 Burdette Rd","N","Washington-Arlington-Alexandria, DC-VA-MD-WV","Frederick-Gaithersburg-Rockville, MD",1,23224,47900,1,"Washington-Arlington-Alexandria, DC-VA-MD-WV",0,47900,2093,"Bethesda","Montgomery","Washington-Baltimore-Arlington, DC-MD-VA-WV-PA",1,548,"06/17/2019",1380,0,"The National Capital Bank of Washington","Fox Hill",4,"10/16/2020",11,"MD",24031,"Maryland",614539,20817,"8300 Burdette Rd Bethesda MD 20817",-77.1537249,38.9917254
"156","350 Gude Drive","N","Washington-Arlington-Alexandria, DC-VA-MD-WV","Frederick-Gaithersburg-Rockville, MD",1,23224,47900,1,"Washington-Arlington-Alexandria, DC-VA-MD-WV",0,47900,18409,"Rockville","Montgomery","Washington-Baltimore-Arlington, DC-MD-VA-WV-PA",1,548,"12/26/2006",12315,0,"TD Bank, National Association","ROCKVILLE BRANCH",1145,"10/16/2020",11,"MD",24031,"Maryland",466446,20850,"350 Gude Drive Rockville MD 20850",-77.151707,39.1069779
"157","14401 Baltimore Ave","N","Washington-Arlington-Alexandria, DC-VA-MD-WV","Washington-Arlington-Alexandria, DC-VA-MD-WV",1,47894,47900,1,"Washington-Arlington-Alexandria, DC-VA-MD-WV",0,47900,18409,"Laurel","Prince George'S","Washington-Baltimore-Arlington, DC-MD-VA-WV-PA",1,548,"11/08/2008",12315,0,"TD Bank, National Association","LAUREL, MD BRANCH",1263,"10/16/2020",11,"MD",24033,"Maryland",493807,20707,"14401 Baltimore Ave Laurel MD 20707",-76.8596415,39.0874535
"158","20300 Seneca Meadows Parkway","N","Washington-Arlington-Alexandria, DC-VA-MD-WV","Frederick-Gaithersburg-Rockville, MD",1,23224,47900,1,"Washington-Arlington-Alexandria, DC-VA-MD-WV",0,47900,7888,"Germantown","Montgomery","Washington-Baltimore-Arlington, DC-MD-VA-WV-PA",1,548,"06/01/1861",5061,0,"First National Bank of Pennsylvania","GERMANTOWN BRANCH",384,"10/16/2020",11,"MD",24031,"Maryland",40723,20876,"20300 Seneca Meadows Parkway Germantown MD 20876",-77.2528632,39.1886981
"159","6143 High Bridge Road","SM","Washington-Arlington-Alexandria, DC-VA-MD-WV","Washington-Arlington-Alexandria, DC-VA-MD-WV",1,47894,47900,1,"Washington-Arlington-Alexandria, DC-VA-MD-WV",0,47900,8675,"Bowie","Prince George'S","Washington-Baltimore-Arlington, DC-MD-VA-WV-PA",1,548,"01/12/2015",5529,0,"Essex Bank","BOWIE BRANCH",28,"10/16/2020",11,"MD",24033,"Maryland",564009,20720,"6143 High Bridge Road Bowie MD 20720",-76.7727403,38.9735634
"160","1647 Rockville Pike","N","Washington-Arlington-Alexandria, DC-VA-MD-WV","Frederick-Gaithersburg-Rockville, MD",1,23224,47900,1,"Washington-Arlington-Alexandria, DC-VA-MD-WV",0,47900,6384,"Rockville","Montgomery","Washington-Baltimore-Arlington, DC-MD-VA-WV-PA",1,548,"02/27/2006",4287,0,"PNC Bank, National Association","CONGRESSIONAL PLAZA BRANCH",1411,"10/16/2020",11,"MD",24031,"Maryland",450346,20852,"1647 Rockville Pike Rockville MD 20852",-77.1253706,39.0624867
"161","20 Audrey Lane","N","Washington-Arlington-Alexandria, DC-VA-MD-WV","Washington-Arlington-Alexandria, DC-VA-MD-WV",1,47894,47900,1,"Washington-Arlington-Alexandria, DC-VA-MD-WV",0,47900,6384,"Oxon Hill","Prince George'S","Washington-Baltimore-Arlington, DC-MD-VA-WV-PA",1,548,"10/01/2009",4287,0,"PNC Bank, National Association","OXON HILL @ GIANT BRANCH",3755,"10/16/2020",12,"MD",24033,"Maryland",510874,20745,"20 Audrey Lane Oxon Hill MD 20745",-77.0025564,38.8171421
"162","18140 Village Center Dr","N","Washington-Arlington-Alexandria, DC-VA-MD-WV","Frederick-Gaithersburg-Rockville, MD",1,23224,47900,1,"Washington-Arlington-Alexandria, DC-VA-MD-WV",0,47900,6384,"Olney","Montgomery","Washington-Baltimore-Arlington, DC-MD-VA-WV-PA",1,548,"04/12/2019",4287,0,"PNC Bank, National Association","Olney @Giant",4500,"10/16/2020",11,"MD",24031,"Maryland",612216,20832,"18140 Village Center Dr Olney MD 20832",-77.0636963,39.1530262
"163","9812 Falls Road","N","Washington-Arlington-Alexandria, DC-VA-MD-WV","Frederick-Gaithersburg-Rockville, MD",1,23224,47900,1,"Washington-Arlington-Alexandria, DC-VA-MD-WV",0,47900,7213,"Potomac","Montgomery","Washington-Baltimore-Arlington, DC-MD-VA-WV-PA",1,548,"09/05/1989",4759,0,"Citibank, National Association","POTOMAC PROMENADE BRANCH",1030,"10/16/2020",11,"MD",24031,"Maryland",258025,20854,"9812 Falls Road Potomac MD 20854",-77.2105381,39.0171173
"164","7700 Landover Road","N","Washington-Arlington-Alexandria, DC-VA-MD-WV","Washington-Arlington-Alexandria, DC-VA-MD-WV",1,47894,47900,1,"Washington-Arlington-Alexandria, DC-VA-MD-WV",0,47900,3511,"Landover","Prince George'S","Washington-Baltimore-Arlington, DC-MD-VA-WV-PA",1,548,"03/12/1965",2239,0,"Wells Fargo Bank, National Association","LANDOVER BRANCH",7595,"10/16/2020",11,"MD",24033,"Maryland",238185,20785,"7700 Landover Road Landover MD 20785",-76.8826803,38.9274675
"165","7969 Tuckerman Lane","NM","Washington-Arlington-Alexandria, DC-VA-MD-WV","Frederick-Gaithersburg-Rockville, MD",1,23224,47900,1,"Washington-Arlington-Alexandria, DC-VA-MD-WV",0,47900,9846,"Potomac","Montgomery","Washington-Baltimore-Arlington, DC-MD-VA-WV-PA",1,548,"06/30/1986",6300,0,"Truist Bank","CABIN JOHN BRANCH",3736,"10/16/2020",11,"MD",24031,"Maryland",283903,20854,"7969 Tuckerman Lane Potomac MD 20854",-77.1578857,39.0414684
"166","7220 Wisconsin Avenue","NM","Washington-Arlington-Alexandria, DC-VA-MD-WV","Frederick-Gaithersburg-Rockville, MD",1,23224,47900,1,"Washington-Arlington-Alexandria, DC-VA-MD-WV",0,47900,9846,"Bethesda","Montgomery","Washington-Baltimore-Arlington, DC-MD-VA-WV-PA",1,548,"06/15/1987",6300,0,"Truist Bank","BETHESDA MAIN BRANCH",1019,"10/16/2020",11,"MD",24031,"Maryland",36403,20814,"7220 Wisconsin Avenue Bethesda MD 20814",-77.0932289,38.981606
"167","1010 Largo Center Drive","NM","Washington-Arlington-Alexandria, DC-VA-MD-WV","Washington-Arlington-Alexandria, DC-VA-MD-WV",1,47894,47900,1,"Washington-Arlington-Alexandria, DC-VA-MD-WV",0,47900,9846,"Largo","Prince George'S","Washington-Baltimore-Arlington, DC-MD-VA-WV-PA",1,548,"09/23/1991",6300,0,"Truist Bank","Largo Towne Center Branch",3733,"10/16/2020",11,"MD",24033,"Maryland",220875,20774,"1010 Largo Center Drive Largo MD 20774",-76.8352018,38.9027197
"168","7106 Temple Hill Rd","NM","Washington-Arlington-Alexandria, DC-VA-MD-WV","Washington-Arlington-Alexandria, DC-VA-MD-WV",1,47894,47900,1,"Washington-Arlington-Alexandria, DC-VA-MD-WV",0,47900,9846,"Temple Hills","Prince George'S","Washington-Baltimore-Arlington, DC-MD-VA-WV-PA",1,548,"08/11/1972",6300,0,"Truist Bank","Temple Hill Branch",3913,"10/16/2020",11,"MD",24033,"Maryland",246688,20748,"7106 Temple Hill Rd Temple Hills MD 20748",-76.9279796,38.7925168
"169","9110 Piscataway Road","NM","Washington-Arlington-Alexandria, DC-VA-MD-WV","Washington-Arlington-Alexandria, DC-VA-MD-WV",1,47894,47900,1,"Washington-Arlington-Alexandria, DC-VA-MD-WV",0,47900,9846,"Clinton","Prince George'S","Washington-Baltimore-Arlington, DC-MD-VA-WV-PA",1,548,"07/05/1973",6300,0,"Truist Bank","CLINTON MD BRANCH",1263,"10/16/2020",11,"MD",24033,"Maryland",249109,20735,"9110 Piscataway Road Clinton MD 20735",-76.8989828,38.7647074
"170","8924 Woodyard Rd","NM","Washington-Arlington-Alexandria, DC-VA-MD-WV","Washington-Arlington-Alexandria, DC-VA-MD-WV",1,47894,47900,1,"Washington-Arlington-Alexandria, DC-VA-MD-WV",0,47900,9846,"Clinton","Prince George'S","Washington-Baltimore-Arlington, DC-MD-VA-WV-PA",1,548,"01/01/1925",6300,0,"Truist Bank","CLINTON-WOODYARD BRANCH",3740,"10/16/2020",11,"MD",24033,"Maryland",267946,20735,"8924 Woodyard Rd Clinton MD 20735",-76.8893415,38.7664352
"171","13350 New Hampshire Ave","NM","Washington-Arlington-Alexandria, DC-VA-MD-WV","Frederick-Gaithersburg-Rockville, MD",1,23224,47900,1,"Washington-Arlington-Alexandria, DC-VA-MD-WV",0,47900,9846,"Silver Spring","Montgomery","Washington-Baltimore-Arlington, DC-MD-VA-WV-PA",1,548,"12/01/1971",6300,0,"Truist Bank","COLESVILLE BRANCH",1198,"10/16/2020",11,"MD",24031,"Maryland",285311,20904,"13350 New Hampshire Ave Silver Spring MD 20904",-77.0025449,39.0754001
"172","1100 Wayne Avenue","NM","Washington-Arlington-Alexandria, DC-VA-MD-WV","Frederick-Gaithersburg-Rockville, MD",1,23224,47900,1,"Washington-Arlington-Alexandria, DC-VA-MD-WV",0,47900,9846,"Silver Spring","Montgomery","Washington-Baltimore-Arlington, DC-MD-VA-WV-PA",1,548,"04/07/2003",6300,0,"Truist Bank","WAYNE AVENUE BRANCH",1210,"10/16/2020",11,"MD",24031,"Maryland",422391,20910,"1100 Wayne Avenue Silver Spring MD 20910",-77.0284697,38.9942096
"173","800 Muddy Br Road","NM","Washington-Arlington-Alexandria, DC-VA-MD-WV","Frederick-Gaithersburg-Rockville, MD",1,23224,47900,1,"Washington-Arlington-Alexandria, DC-VA-MD-WV",0,47900,9846,"Gaithersburg","Montgomery","Washington-Baltimore-Arlington, DC-MD-VA-WV-PA",1,548,"05/13/1974",6300,0,"Truist Bank","Muddy Branch Branch",3728,"10/16/2020",11,"MD",24031,"Maryland",220865,20878,"800 Muddy Br Road Gaithersburg MD 20878",-77.2177131,39.1141771
"174","11735 Beltsville Drive","NM","Washington-Arlington-Alexandria, DC-VA-MD-WV","Washington-Arlington-Alexandria, DC-VA-MD-WV",1,47894,47900,1,"Washington-Arlington-Alexandria, DC-VA-MD-WV",0,47900,9846,"Beltsville","Prince George'S","Washington-Baltimore-Arlington, DC-MD-VA-WV-PA",1,548,"04/26/1967",6300,0,"Truist Bank","CALVERTON BRANCH",3900,"10/16/2020",11,"MD",24033,"Maryland",220917,20705,"11735 Beltsville Drive Beltsville MD 20705",-76.9364877,39.0482319
"175","18110 Village Mart Drive","NM","Washington-Arlington-Alexandria, DC-VA-MD-WV","Frederick-Gaithersburg-Rockville, MD",1,23224,47900,1,"Washington-Arlington-Alexandria, DC-VA-MD-WV",0,47900,9846,"Olney","Montgomery","Washington-Baltimore-Arlington, DC-MD-VA-WV-PA",1,548,"04/19/1979",6300,0,"Truist Bank","OLNEY BRANCH",3908,"10/16/2020",11,"MD",24031,"Maryland",220943,20832,"18110 Village Mart Drive Olney MD 20832",-77.0643614,39.153625
"176","14328 Layhill Road","NM","Washington-Arlington-Alexandria, DC-VA-MD-WV","Frederick-Gaithersburg-Rockville, MD",1,23224,47900,1,"Washington-Arlington-Alexandria, DC-VA-MD-WV",0,47900,9846,"Silver Spring","Montgomery","Washington-Baltimore-Arlington, DC-MD-VA-WV-PA",1,548,"12/01/1971",6300,0,"Truist Bank","LAYHILL ROAD BRANCH",1197,"10/16/2020",11,"MD",24031,"Maryland",285310,20906,"14328 Layhill Road Silver Spring MD 20906",-77.0458997,39.091415
"177","19941 Century Boulevard","NM","Washington-Arlington-Alexandria, DC-VA-MD-WV","Frederick-Gaithersburg-Rockville, MD",1,23224,47900,1,"Washington-Arlington-Alexandria, DC-VA-MD-WV",0,47900,9846,"Germantown","Montgomery","Washington-Baltimore-Arlington, DC-MD-VA-WV-PA",1,548,"09/30/2002",6300,0,"Truist Bank","GERMANTOWN BRANCH",1192,"10/16/2020",11,"MD",24031,"Maryland",365622,20874,"19941 Century Boulevard Germantown MD 20874",-77.2608774,39.1821701
"178","4415 East West Hwy","NM","Washington-Arlington-Alexandria, DC-VA-MD-WV","Washington-Arlington-Alexandria, DC-VA-MD-WV",1,47894,47900,1,"Washington-Arlington-Alexandria, DC-VA-MD-WV",0,47900,9846,"Riverdale","Prince George'S","Washington-Baltimore-Arlington, DC-MD-VA-WV-PA",1,548,"12/27/2002",6300,0,"Truist Bank","RIVERDALE PARK BRANCH",4018,"10/16/2020",11,"MD",24033,"Maryland",420202,20737,"4415 East West Hwy Riverdale MD 20737",-76.9399546,38.9646064
"179","405 Manning Rd E","NM","Washington-Arlington-Alexandria, DC-VA-MD-WV","Washington-Arlington-Alexandria, DC-VA-MD-WV",1,47894,47900,1,"Washington-Arlington-Alexandria, DC-VA-MD-WV",0,47900,9846,"Accokeek","Prince George'S","Washington-Baltimore-Arlington, DC-MD-VA-WV-PA",1,548,"12/15/2003",6300,0,"Truist Bank","MANOKEEK BRANCH",4029,"10/16/2020",11,"MD",24033,"Maryland",425168,20607,"405 Manning Rd E Accokeek MD 20607",-77.014389,38.6588869
"180","5272 River Rd","NM","Washington-Arlington-Alexandria, DC-VA-MD-WV","Frederick-Gaithersburg-Rockville, MD",1,23224,47900,1,"Washington-Arlington-Alexandria, DC-VA-MD-WV",0,47900,9846,"Bethesda","Montgomery","Washington-Baltimore-Arlington, DC-MD-VA-WV-PA",1,548,"06/20/1960",6300,0,"Truist Bank","KENWOOD BRANCH",3725,"10/16/2020",11,"MD",24031,"Maryland",220862,20816,"5272 River Rd Bethesda MD 20816",-77.1056371,38.9656756
"181","6931 Laurel Avenue","NM","Washington-Arlington-Alexandria, DC-VA-MD-WV","Frederick-Gaithersburg-Rockville, MD",1,23224,47900,1,"Washington-Arlington-Alexandria, DC-VA-MD-WV",0,47900,9846,"Takoma Park","Montgomery","Washington-Baltimore-Arlington, DC-MD-VA-WV-PA",1,548,"10/22/1962",6300,0,"Truist Bank","TAKOMA PARK BRANCH",3898,"10/16/2020",11,"MD",24031,"Maryland",220912,20912,"6931 Laurel Avenue Takoma Park MD 20912",-77.0119643,38.9744943
"182","19708 Germantown Road","N","Washington-Arlington-Alexandria, DC-VA-MD-WV","Frederick-Gaithersburg-Rockville, MD",1,23224,47900,1,"Washington-Arlington-Alexandria, DC-VA-MD-WV",0,47900,3511,"Germantown","Montgomery","Washington-Baltimore-Arlington, DC-MD-VA-WV-PA",1,548,"09/25/2000",2239,0,"Wells Fargo Bank, National Association","GERMANTOWN BRANCH",8235,"10/16/2020",11,"MD",24031,"Maryland",358911,20874,"19708 Germantown Road Germantown MD 20874",-77.266422,39.1798053
"183","8951 Edmonston Road","NM","Washington-Arlington-Alexandria, DC-VA-MD-WV","Washington-Arlington-Alexandria, DC-VA-MD-WV",1,47894,47900,1,"Washington-Arlington-Alexandria, DC-VA-MD-WV",0,47900,9846,"Greenbelt","Prince George'S","Washington-Baltimore-Arlington, DC-MD-VA-WV-PA",1,548,"01/01/1887",6300,0,"Truist Bank","GREENBELT BRANCH",609,"10/16/2020",11,"MD",24033,"Maryland",266365,20770,"8951 Edmonston Road Greenbelt MD 20770",-76.900784,38.9970202
"184","16410 Heritage Boulevard","NM","Washington-Arlington-Alexandria, DC-VA-MD-WV","Washington-Arlington-Alexandria, DC-VA-MD-WV",1,47894,47900,1,"Washington-Arlington-Alexandria, DC-VA-MD-WV",0,47900,9846,"Bowie","Prince George'S","Washington-Baltimore-Arlington, DC-MD-VA-WV-PA",1,548,"03/27/1989",6300,0,"Truist Bank","BOWIE HERITAGE BRANCH",1028,"10/16/2020",11,"MD",24033,"Maryland",40090,20716,"16410 Heritage Boulevard Bowie MD 20716",-76.7195378,38.9462826
"185","4805 Annapolis Road","NM","Washington-Arlington-Alexandria, DC-VA-MD-WV","Washington-Arlington-Alexandria, DC-VA-MD-WV",1,47894,47900,1,"Washington-Arlington-Alexandria, DC-VA-MD-WV",0,47900,9846,"Bladensburg","Prince George'S","Washington-Baltimore-Arlington, DC-MD-VA-WV-PA",1,548,"07/01/1946",6300,0,"Truist Bank","BLADENSBURG BRANCH",3894,"10/16/2020",11,"MD",24033,"Maryland",220897,20710,"4805 Annapolis Road Bladensburg MD 20710",-76.9354529,38.93908
"186","7620 S Osborne Road","NM","Washington-Arlington-Alexandria, DC-VA-MD-WV","Washington-Arlington-Alexandria, DC-VA-MD-WV",1,47894,47900,1,"Washington-Arlington-Alexandria, DC-VA-MD-WV",0,47900,9846,"Upper Marlboro","Prince George'S","Washington-Baltimore-Arlington, DC-MD-VA-WV-PA",1,548,"10/01/1974",6300,0,"Truist Bank","OSBORNE ROAD BRANCH",3910,"10/16/2020",11,"MD",24033,"Maryland",228080,20772,"7620 S Osborne Road Upper Marlboro MD 20772",-76.7960205,38.7846901
"187","10450 Lottsford Rd","NM","Washington-Arlington-Alexandria, DC-VA-MD-WV","Washington-Arlington-Alexandria, DC-VA-MD-WV",1,47894,47900,1,"Washington-Arlington-Alexandria, DC-VA-MD-WV",0,47900,9846,"Mitchellville","Prince George'S","Washington-Baltimore-Arlington, DC-MD-VA-WV-PA",1,548,"05/10/1989",6300,0,"Truist Bank","COLLINGTON BRANCH",1268,"10/16/2020",29,"MD",24033,"Maryland",249119,20721,"10450 Lottsford Rd Mitchellville MD 20721",-76.8292379,38.9178361
"188","14939 Shady Grove Road","NM","Washington-Arlington-Alexandria, DC-VA-MD-WV","Frederick-Gaithersburg-Rockville, MD",1,23224,47900,1,"Washington-Arlington-Alexandria, DC-VA-MD-WV",0,47900,9846,"Rockville","Montgomery","Washington-Baltimore-Arlington, DC-MD-VA-WV-PA",1,548,"11/13/2002",6300,0,"Truist Bank","FALLSGROVE SAFEWAY BRANCH",4005,"10/16/2020",12,"MD",24031,"Maryland",418554,20850,"14939 Shady Grove Road Rockville MD 20850",-77.1921888,39.098003
"189","9812 Falls Rd, Suite 109","NM","Washington-Arlington-Alexandria, DC-VA-MD-WV","Frederick-Gaithersburg-Rockville, MD",1,23224,47900,1,"Washington-Arlington-Alexandria, DC-VA-MD-WV",0,47900,9846,"Potomac","Montgomery","Washington-Baltimore-Arlington, DC-MD-VA-WV-PA",1,548,"08/14/2006",6300,0,"Truist Bank","POTOMAC PROMENADE BRANCH",1457,"10/16/2020",11,"MD",24031,"Maryland",455624,20854,"9812 Falls Rd, Suite 109 Potomac MD 20854",-77.2105381,39.0171173
"190","9822 Falls Rd","N","Washington-Arlington-Alexandria, DC-VA-MD-WV","Frederick-Gaithersburg-Rockville, MD",1,23224,47900,1,"Washington-Arlington-Alexandria, DC-VA-MD-WV",0,47900,628,"Potomac","Montgomery","Washington-Baltimore-Arlington, DC-MD-VA-WV-PA",1,548,"12/03/2019",417,0,"JPMorgan Chase Bank, National Association","Potomac Falls Rd",8383,"10/16/2020",11,"MD",24031,"Maryland",619326,20854,"9822 Falls Rd Potomac MD 20854",-77.2096286,39.0176676
"191","10420 Montgomery Avenue","SM","Washington-Arlington-Alexandria, DC-VA-MD-WV","Frederick-Gaithersburg-Rockville, MD",1,23224,47900,1,"Washington-Arlington-Alexandria, DC-VA-MD-WV",0,47900,588,"Kensington","Montgomery","Washington-Baltimore-Arlington, DC-MD-VA-WV-PA",1,548,"01/01/1900",400,0,"Manufacturers and Traders Trust Company","ANTIQUE ROW BRANCH",658,"10/16/2020",11,"MD",24031,"Maryland",204206,20895,"10420 Montgomery Avenue Kensington MD 20895",-77.0725021,39.0266863
"192","12161 Rockville Pike","SM","Washington-Arlington-Alexandria, DC-VA-MD-WV","Frederick-Gaithersburg-Rockville, MD",1,23224,47900,1,"Washington-Arlington-Alexandria, DC-VA-MD-WV",0,47900,588,"Rockville","Montgomery","Washington-Baltimore-Arlington, DC-MD-VA-WV-PA",1,548,"12/15/2010",400,0,"Manufacturers and Traders Trust Company","PIKE CENTER BRANCH",1195,"10/16/2020",11,"MD",24031,"Maryland",521684,20852,"12161 Rockville Pike Rockville MD 20852",-77.1193475,39.0570881
"193","11 N. Washington Street, Suite 100","SM","Washington-Arlington-Alexandria, DC-VA-MD-WV","Frederick-Gaithersburg-Rockville, MD",1,23224,47900,1,"Washington-Arlington-Alexandria, DC-VA-MD-WV",0,47900,58243,"Rockville","Montgomery","Washington-Baltimore-Arlington, DC-MD-VA-WV-PA",1,548,"10/31/2008",444356,0,"John Marshall Bank","ROCKVILLE BRANCH",1,"10/16/2020",11,"MD",24031,"Maryland",489409,20850,"11 N. Washington Street, Suite 100 Rockville MD 20850",-77.1525608,39.084701
"194","7901 Eastern Avenue","SM","Washington-Arlington-Alexandria, DC-VA-MD-WV","Frederick-Gaithersburg-Rockville, MD",1,23224,47900,1,"Washington-Arlington-Alexandria, DC-VA-MD-WV",0,47900,58696,"Silver Spring","Montgomery","Washington-Baltimore-Arlington, DC-MD-VA-WV-PA",1,548,"07/01/1968",463069,0,"FVCbank","SILVER SPRING BRANCH",7,"10/16/2020",11,"MD",24031,"Maryland",285208,20910,"7901 Eastern Avenue Silver Spring MD 20910",-77.0282673,38.9864323
"195","6929 Arlington Rd","SM","Washington-Arlington-Alexandria, DC-VA-MD-WV","Frederick-Gaithersburg-Rockville, MD",1,23224,47900,1,"Washington-Arlington-Alexandria, DC-VA-MD-WV",0,47900,58696,"Bethesda","Montgomery","Washington-Baltimore-Arlington, DC-MD-VA-WV-PA",1,548,"04/21/1991",463069,0,"FVCbank","BETHESDA BRANCH",8,"10/16/2020",11,"MD",24031,"Maryland",288884,20814,"6929 Arlington Rd Bethesda MD 20814",-77.098563,38.9787293
"196","18523 N. Frederick Avenue","N","Washington-Arlington-Alexandria, DC-VA-MD-WV","Frederick-Gaithersburg-Rockville, MD",1,23224,47900,1,"Washington-Arlington-Alexandria, DC-VA-MD-WV",0,47900,7888,"Gaithersburg","Montgomery","Washington-Baltimore-Arlington, DC-MD-VA-WV-PA",1,548,"01/01/1987",5061,0,"First National Bank of Pennsylvania","GAITHERSBURG  BRANCH",386,"10/16/2020",11,"MD",24031,"Maryland",366143,20879,"18523 N. Frederick Avenue Gaithersburg MD 20879",-77.2216721,39.160995
"197","1101 Nelson Street","SM","Washington-Arlington-Alexandria, DC-VA-MD-WV","Frederick-Gaithersburg-Rockville, MD",1,23224,47900,1,"Washington-Arlington-Alexandria, DC-VA-MD-WV",0,47900,8675,"Rockville","Montgomery","Washington-Baltimore-Arlington, DC-MD-VA-WV-PA",1,548,"07/01/1996",5529,0,"Essex Bank","ESSEX BANK ROCKVILLE BRANCH",21,"10/16/2020",11,"MD",24031,"Maryland",281980,20850,"1101 Nelson Street Rockville MD 20850",-77.1741062,39.091967
"198","13300 New Hampshire Avenue","SM","Washington-Arlington-Alexandria, DC-VA-MD-WV","Frederick-Gaithersburg-Rockville, MD",1,23224,47900,1,"Washington-Arlington-Alexandria, DC-VA-MD-WV",0,47900,4865,"Colesville","Montgomery","Washington-Baltimore-Arlington, DC-MD-VA-WV-PA",1,548,"11/01/1963",3240,0,"Sandy Spring Bank","COLESVILLE BRANCH",1,"10/16/2020",11,"MD",24031,"Maryland",204675,20904,"13300 New Hampshire Avenue Colesville MD 20904",-77.0031413,39.0737281
"199","2101 Gaither Road","SM","Washington-Arlington-Alexandria, DC-VA-MD-WV","Frederick-Gaithersburg-Rockville, MD",1,23224,47900,1,"Washington-Arlington-Alexandria, DC-VA-MD-WV",0,47900,4865,"Rockville","Montgomery","Washington-Baltimore-Arlington, DC-MD-VA-WV-PA",1,548,"04/01/2020",3240,0,"Sandy Spring Bank","Gaither Road Branch",96,"10/16/2020",11,"MD",24031,"Maryland",460985,20850,"2101 Gaither Road Rockville MD 20850",-77.1820359,39.1177621
"200","8602 Colesville Road","SM","Washington-Arlington-Alexandria, DC-VA-MD-WV","Frederick-Gaithersburg-Rockville, MD",1,23224,47900,1,"Washington-Arlington-Alexandria, DC-VA-MD-WV",0,47900,4865,"Silver Spring","Montgomery","Washington-Baltimore-Arlington, DC-MD-VA-WV-PA",1,548,"05/26/2010",3240,0,"Sandy Spring Bank","SILVER SPRING BRANCH",93,"10/16/2020",11,"MD",24031,"Maryland",510544,20910,"8602 Colesville Road Silver Spring MD 20910",-77.027992,38.9965921
"201","9921 Stedwick Road","SM","Washington-Arlington-Alexandria, DC-VA-MD-WV","Frederick-Gaithersburg-Rockville, MD",1,23224,47900,1,"Washington-Arlington-Alexandria, DC-VA-MD-WV",0,47900,4865,"Gaithersburg","Montgomery","Washington-Baltimore-Arlington, DC-MD-VA-WV-PA",1,548,"11/13/1995",3240,0,"Sandy Spring Bank","MONTGOMERY VILLAGE COMMUNITY BRANCH",16,"10/16/2020",11,"MD",24031,"Maryland",204688,20879,"9921 Stedwick Road Gaithersburg MD 20879",-77.2056068,39.170316
"202","14941 Shady Grove Road","SM","Washington-Arlington-Alexandria, DC-VA-MD-WV","Frederick-Gaithersburg-Rockville, MD",1,23224,47900,1,"Washington-Arlington-Alexandria, DC-VA-MD-WV",0,47900,4865,"Rockville","Montgomery","Washington-Baltimore-Arlington, DC-MD-VA-WV-PA",1,548,"02/19/2014",3240,0,"Sandy Spring Bank","SHADY GROVE BRANCH",80,"10/16/2020",11,"MD",24031,"Maryland",552772,20850,"14941 Shady Grove Road Rockville MD 20850",-77.1927205,39.0978679
"203","9812 Falls Road Ste 125","SM","Washington-Arlington-Alexandria, DC-VA-MD-WV","Frederick-Gaithersburg-Rockville, MD",1,23224,47900,1,"Washington-Arlington-Alexandria, DC-VA-MD-WV",0,47900,4865,"Potomac","Montgomery","Washington-Baltimore-Arlington, DC-MD-VA-WV-PA",1,548,"03/28/2016",3240,0,"Sandy Spring Bank","POTOMAC BRANCH",83,"10/16/2020",11,"MD",24031,"Maryland",577991,20854,"9812 Falls Road Ste 125 Potomac MD 20854",-77.2105381,39.0171173
"204","17801 Georgia Avenue","SM","Washington-Arlington-Alexandria, DC-VA-MD-WV","Frederick-Gaithersburg-Rockville, MD",1,23224,47900,1,"Washington-Arlington-Alexandria, DC-VA-MD-WV",0,47900,4865,"Olney","Montgomery","Washington-Baltimore-Arlington, DC-MD-VA-WV-PA",1,548,"01/01/1900",3240,1,"Sandy Spring Bank","Sandy Spring Bank",0,"10/16/2020",11,"MD",24031,"Maryland",3240,20832,"17801 Georgia Avenue Olney MD 20832",-77.0657555,39.1486246
"205","One Church Street","N","Washington-Arlington-Alexandria, DC-VA-MD-WV","Frederick-Gaithersburg-Rockville, MD",1,23224,47900,1,"Washington-Arlington-Alexandria, DC-VA-MD-WV",0,47900,35278,"Rockville","Montgomery","Washington-Baltimore-Arlington, DC-MD-VA-WV-PA",1,548,"12/14/1999",77667,1,"Capital Bank, National Association","Capital Bank, National Association",0,"10/16/2020",11,"MD",24031,"Maryland",77667,20850,"One Church Street Rockville MD 20850",-77.1468028,39.0835367
"206","215 North Frederick Avenue","SM","Washington-Arlington-Alexandria, DC-VA-MD-WV","Frederick-Gaithersburg-Rockville, MD",1,23224,47900,1,"Washington-Arlington-Alexandria, DC-VA-MD-WV",0,47900,588,"Gaithersburg","Montgomery","Washington-Baltimore-Arlington, DC-MD-VA-WV-PA",1,548,"11/15/1960",400,0,"Manufacturers and Traders Trust Company","GAITHERSBURG BRANCH",652,"10/16/2020",11,"MD",24031,"Maryland",204200,20877,"215 North Frederick Avenue Gaithersburg MD 20877",-77.2023777,39.1448423
"207","51 West Edmonston Drive","SM","Washington-Arlington-Alexandria, DC-VA-MD-WV","Frederick-Gaithersburg-Rockville, MD",1,23224,47900,1,"Washington-Arlington-Alexandria, DC-VA-MD-WV",0,47900,588,"Rockville","Montgomery","Washington-Baltimore-Arlington, DC-MD-VA-WV-PA",1,548,"12/07/1964",400,0,"Manufacturers and Traders Trust Company","ROCKVILLE PIKE BRANCH",663,"10/16/2020",11,"MD",24031,"Maryland",204212,20852,"51 West Edmonston Drive Rockville MD 20852",-77.1364047,39.07435
"208","14700 Main Street","SM","Washington-Arlington-Alexandria, DC-VA-MD-WV","Washington-Arlington-Alexandria, DC-VA-MD-WV",1,47894,47900,1,"Washington-Arlington-Alexandria, DC-VA-MD-WV",0,47900,588,"Upper Marlboro","Prince George'S","Washington-Baltimore-Arlington, DC-MD-VA-WV-PA",1,548,"07/01/1900",400,0,"Manufacturers and Traders Trust Company","UPPER MARLBORO BRANCH",715,"10/16/2020",11,"MD",24033,"Maryland",3242,20772,"14700 Main Street Upper Marlboro MD 20772",-76.7517325,38.8164992
"209","12041 Georgia Avenue","SM","Washington-Arlington-Alexandria, DC-VA-MD-WV","Frederick-Gaithersburg-Rockville, MD",1,23224,47900,1,"Washington-Arlington-Alexandria, DC-VA-MD-WV",0,47900,588,"Wheaton","Montgomery","Washington-Baltimore-Arlington, DC-MD-VA-WV-PA",1,548,"04/01/1968",400,0,"Manufacturers and Traders Trust Company","GLENMONT BRANCH",669,"10/16/2020",11,"MD",24031,"Maryland",204220,20902,"12041 Georgia Avenue Wheaton MD 20902",-77.0506447,39.0528236
"210","8661 Colesville Rd","N","Washington-Arlington-Alexandria, DC-VA-MD-WV","Frederick-Gaithersburg-Rockville, MD",1,23224,47900,1,"Washington-Arlington-Alexandria, DC-VA-MD-WV",0,47900,18409,"Silver Spring","Montgomery","Washington-Baltimore-Arlington, DC-MD-VA-WV-PA",1,548,"07/15/2011",12315,0,"TD Bank, National Association","SILVER SPRING CITY PLACE BRANCH",1615,"10/16/2020",11,"MD",24031,"Maryland",522015,20910,"8661 Colesville Rd Silver Spring MD 20910",-77.0266929,38.9971149
"211","4319 Collington Road (rt 197)","N","Washington-Arlington-Alexandria, DC-VA-MD-WV","Washington-Arlington-Alexandria, DC-VA-MD-WV",1,47894,47900,1,"Washington-Arlington-Alexandria, DC-VA-MD-WV",0,47900,18409,"Bowie","Prince George'S","Washington-Baltimore-Arlington, DC-MD-VA-WV-PA",1,548,"07/14/2012",12315,0,"TD Bank, National Association","BOWIE, MD STORE BRANCH",1683,"10/16/2020",11,"MD",24033,"Maryland",541314,20716,"4319 Collington Road (rt 197) Bowie MD 20716",-76.7332238,38.9466789
"212","8101 Wisconsin Avenue","N","Washington-Arlington-Alexandria, DC-VA-MD-WV","Frederick-Gaithersburg-Rockville, MD",1,23224,47900,1,"Washington-Arlington-Alexandria, DC-VA-MD-WV",0,47900,18409,"Bethesda","Montgomery","Washington-Baltimore-Arlington, DC-MD-VA-WV-PA",1,548,"04/15/2016",12315,0,"TD Bank, National Association","WISCONSIN AVENUE BRANCH",1765,"10/16/2020",11,"MD",24031,"Maryland",580534,20814,"8101 Wisconsin Avenue Bethesda MD 20814",-77.0954993,38.9915407
"213","12003 Rockville Pike","N","Washington-Arlington-Alexandria, DC-VA-MD-WV","Frederick-Gaithersburg-Rockville, MD",1,23224,47900,1,"Washington-Arlington-Alexandria, DC-VA-MD-WV",0,47900,18409,"Rockville","Montgomery","Washington-Baltimore-Arlington, DC-MD-VA-WV-PA",1,548,"09/26/2015",12315,0,"TD Bank, National Association","ROCKVILLE PIKE STORE BRANCH",1755,"10/16/2020",11,"MD",24031,"Maryland",572383,20852,"12003 Rockville Pike Rockville MD 20852",-77.1168303,39.0541635
"214","18108 Town Center Drive","N","Washington-Arlington-Alexandria, DC-VA-MD-WV","Frederick-Gaithersburg-Rockville, MD",1,23224,47900,1,"Washington-Arlington-Alexandria, DC-VA-MD-WV",0,47900,18409,"Olney","Montgomery","Washington-Baltimore-Arlington, DC-MD-VA-WV-PA",1,548,"01/25/2014",12315,0,"TD Bank, National Association","OLNEY BRANCH",1717,"10/16/2020",11,"MD",24031,"Maryland",557761,20832,"18108 Town Center Drive Olney MD 20832",-77.0630348,39.1518968
"215","7200 Wisconsin Avenue Suite100","N","Washington-Arlington-Alexandria, DC-VA-MD-WV","Frederick-Gaithersburg-Rockville, MD",1,23224,47900,1,"Washington-Arlington-Alexandria, DC-VA-MD-WV",0,47900,6384,"Bethesda","Montgomery","Washington-Baltimore-Arlington, DC-MD-VA-WV-PA",1,548,"09/11/1989",4287,0,"PNC Bank, National Association","BETHESDA BRANCH",1376,"10/16/2020",11,"MD",24031,"Maryland",258341,20814,"7200 Wisconsin Avenue Suite100 Bethesda MD 20814",-77.09326,38.981364
"216","7300 Hanover Parkway","N","Washington-Arlington-Alexandria, DC-VA-MD-WV","Washington-Arlington-Alexandria, DC-VA-MD-WV",1,47894,47900,1,"Washington-Arlington-Alexandria, DC-VA-MD-WV",0,47900,6384,"Greenbelt","Prince George'S","Washington-Baltimore-Arlington, DC-MD-VA-WV-PA",1,548,"08/10/1990",4287,0,"PNC Bank, National Association","GREENBELT BRANCH",1379,"10/16/2020",11,"MD",24033,"Maryland",258349,20770,"7300 Hanover Parkway Greenbelt MD 20770",-76.8786335,38.9899329
"217","7515 Greenbelt Road","N","Washington-Arlington-Alexandria, DC-VA-MD-WV","Washington-Arlington-Alexandria, DC-VA-MD-WV",1,47894,47900,1,"Washington-Arlington-Alexandria, DC-VA-MD-WV",0,47900,4297,"Greenbelt","Prince George'S","Washington-Baltimore-Arlington, DC-MD-VA-WV-PA",1,548,"02/27/1997",2818,0,"Capital One, National Association","GREENBELT BRANCH",1045,"10/16/2020",11,"MD",24033,"Maryland",287643,20770,"7515 Greenbelt Road Greenbelt MD 20770",-76.8780864,38.9934736
"218","4707 Bethesda Avenue","N","Washington-Arlington-Alexandria, DC-VA-MD-WV","Frederick-Gaithersburg-Rockville, MD",1,23224,47900,1,"Washington-Arlington-Alexandria, DC-VA-MD-WV",0,47900,4297,"Bethesda","Montgomery","Washington-Baltimore-Arlington, DC-MD-VA-WV-PA",1,548,"03/11/2004",2818,0,"Capital One, National Association","BETHESDA AVENUE BRANCH",1139,"10/16/2020",11,"MD",24031,"Maryland",429290,20814,"4707 Bethesda Avenue Bethesda MD 20814",-77.0930852,38.9810419
"219","5041 Nicholson Lane","N","Washington-Arlington-Alexandria, DC-VA-MD-WV","Frederick-Gaithersburg-Rockville, MD",1,23224,47900,1,"Washington-Arlington-Alexandria, DC-VA-MD-WV",0,47900,4297,"Rockville","Montgomery","Washington-Baltimore-Arlington, DC-MD-VA-WV-PA",1,548,"07/30/2009",2818,0,"Capital One, National Association","NICHOLSON LANE/ROCKVILLE BRANCH",1217,"10/16/2020",11,"MD",24031,"Maryland",511716,20852,"5041 Nicholson Lane Rockville MD 20852",-77.1039959,39.0466173
"220","8401 Georgia Avenue","N","Washington-Arlington-Alexandria, DC-VA-MD-WV","Frederick-Gaithersburg-Rockville, MD",1,23224,47900,1,"Washington-Arlington-Alexandria, DC-VA-MD-WV",0,47900,4297,"Silver Spring","Montgomery","Washington-Baltimore-Arlington, DC-MD-VA-WV-PA",1,548,"06/30/1985",2818,0,"Capital One, National Association","8401 GEORGIA AVE BRANCH",940,"10/16/2020",11,"MD",24031,"Maryland",287532,20910,"8401 Georgia Avenue Silver Spring MD 20910",-77.026423,38.9935582
"221","10400 Old Georgetown Road","N","Washington-Arlington-Alexandria, DC-VA-MD-WV","Frederick-Gaithersburg-Rockville, MD",1,23224,47900,1,"Washington-Arlington-Alexandria, DC-VA-MD-WV",0,47900,4297,"Bethesda","Montgomery","Washington-Baltimore-Arlington, DC-MD-VA-WV-PA",1,548,"08/05/1996",2818,0,"Capital One, National Association","GEORGETOWN SQUARE BRANCH",1034,"10/16/2020",11,"MD",24031,"Maryland",287631,20814,"10400 Old Georgetown Road Bethesda MD 20814",-77.1265842,39.0258151
"222","387 Hungerford Dr","N","Washington-Arlington-Alexandria, DC-VA-MD-WV","Frederick-Gaithersburg-Rockville, MD",1,23224,47900,1,"Washington-Arlington-Alexandria, DC-VA-MD-WV",0,47900,4297,"Rockville","Montgomery","Washington-Baltimore-Arlington, DC-MD-VA-WV-PA",1,548,"07/30/2009",2818,0,"Capital One, National Association","HUNGERFORD BRANCH",1213,"10/16/2020",11,"MD",24031,"Maryland",511712,20850,"387 Hungerford Dr Rockville MD 20850",-77.1501566,39.0883353
"223","1181 University Boulevard East","N","Washington-Arlington-Alexandria, DC-VA-MD-WV","Frederick-Gaithersburg-Rockville, MD",1,23224,47900,1,"Washington-Arlington-Alexandria, DC-VA-MD-WV",0,47900,4297,"Takoma Park","Montgomery","Washington-Baltimore-Arlington, DC-MD-VA-WV-PA",1,548,"06/30/1985",2818,0,"Capital One, National Association","HAMPSHIRE-LANGLEY BRANCH",943,"10/16/2020",11,"MD",24031,"Maryland",287535,20912,"1181 University Boulevard East Takoma Park MD 20912",-76.9886526,38.9883947
"224","509 North Frederick Avenue","N","Washington-Arlington-Alexandria, DC-VA-MD-WV","Frederick-Gaithersburg-Rockville, MD",1,23224,47900,1,"Washington-Arlington-Alexandria, DC-VA-MD-WV",0,47900,4297,"Gaithersburg","Montgomery","Washington-Baltimore-Arlington, DC-MD-VA-WV-PA",1,548,"07/21/1997",2818,0,"Capital One, National Association","NORTH FREDERICK BRANCH",1055,"10/16/2020",11,"MD",24031,"Maryland",287655,20877,"509 North Frederick Avenue Gaithersburg MD 20877",-77.2107402,39.1518772
"225","19801 Century Boulevard","N","Washington-Arlington-Alexandria, DC-VA-MD-WV","Frederick-Gaithersburg-Rockville, MD",1,23224,47900,1,"Washington-Arlington-Alexandria, DC-VA-MD-WV",0,47900,4297,"Germantown","Montgomery","Washington-Baltimore-Arlington, DC-MD-VA-WV-PA",1,548,"07/30/2009",2818,0,"Capital One, National Association","GERMANTOWN TC BRANCH",1209,"10/16/2020",11,"MD",24031,"Maryland",511708,20874,"19801 Century Boulevard Germantown MD 20874",-77.2680606,39.1802865
"226","2900 University Blvd W","N","Washington-Arlington-Alexandria, DC-VA-MD-WV","Frederick-Gaithersburg-Rockville, MD",1,23224,47900,1,"Washington-Arlington-Alexandria, DC-VA-MD-WV",0,47900,6384,"Silver Spring","Montgomery","Washington-Baltimore-Arlington, DC-MD-VA-WV-PA",1,548,"04/28/2010",4287,0,"PNC Bank, National Association","WHEATON PLAZA @ GIANT BRANCH",3735,"10/16/2020",12,"MD",24031,"Maryland",508408,20902,"2900 University Blvd W Silver Spring MD 20902",-77.0586263,39.0374908
"227","18250 Flower Hill Way","N","Washington-Arlington-Alexandria, DC-VA-MD-WV","Frederick-Gaithersburg-Rockville, MD",1,23224,47900,1,"Washington-Arlington-Alexandria, DC-VA-MD-WV",0,47900,6384,"Gaithersburg","Montgomery","Washington-Baltimore-Arlington, DC-MD-VA-WV-PA",1,548,"05/08/2009",4287,0,"PNC Bank, National Association","FLOWER HILL @ GIANT BRANCH",2091,"10/16/2020",12,"MD",24031,"Maryland",493317,20879,"18250 Flower Hill Way Gaithersburg MD 20879",-77.1659512,39.1550629
"228","1700 Rockville Pike","NM","Washington-Arlington-Alexandria, DC-VA-MD-WV","Frederick-Gaithersburg-Rockville, MD",1,23224,47900,1,"Washington-Arlington-Alexandria, DC-VA-MD-WV",0,47900,57614,"Rockville","Montgomery","Washington-Baltimore-Arlington, DC-MD-VA-WV-PA",1,548,"06/06/1983",418493,0,"Congressional Bank","ROCKVILLE PIKE BRANCH",5,"10/16/2020",11,"MD",24031,"Maryland",45162,20852,"1700 Rockville Pike Rockville MD 20852",-77.122449,39.0617195
"229","8511 Georgia Ave","N","Washington-Arlington-Alexandria, DC-VA-MD-WV","Frederick-Gaithersburg-Rockville, MD",1,23224,47900,1,"Washington-Arlington-Alexandria, DC-VA-MD-WV",0,47900,3510,"Silver Spring","Montgomery","Washington-Baltimore-Arlington, DC-MD-VA-WV-PA",1,548,"11/08/2004",2238,0,"Bank of America, National Association","DOWNTOWN SILVER SPRING BRANCH",6985,"10/16/2020",11,"MD",24031,"Maryland",433203,20910,"8511 Georgia Ave Silver Spring MD 20910",-77.0266893,38.9949388
"230","15215 Shady Grove Road","N","Washington-Arlington-Alexandria, DC-VA-MD-WV","Frederick-Gaithersburg-Rockville, MD",1,23224,47900,1,"Washington-Arlington-Alexandria, DC-VA-MD-WV",0,47900,3510,"Rockville","Montgomery","Washington-Baltimore-Arlington, DC-MD-VA-WV-PA",1,548,"06/03/1982",2238,0,"Bank of America, National Association","RESEARCH BOULEVARD BRANCH",4024,"10/16/2020",11,"MD",24031,"Maryland",204534,20850,"15215 Shady Grove Road Rockville MD 20850",-77.1892239,39.1063978
"231","6038 Greenbelt Road","N","Washington-Arlington-Alexandria, DC-VA-MD-WV","Washington-Arlington-Alexandria, DC-VA-MD-WV",1,47894,47900,1,"Washington-Arlington-Alexandria, DC-VA-MD-WV",0,47900,3510,"Greenbelt","Prince George'S","Washington-Baltimore-Arlington, DC-MD-VA-WV-PA",1,548,"06/12/1967",2238,0,"Bank of America, National Association","BELTWAY PLAZA BRANCH",4065,"10/16/2020",11,"MD",24033,"Maryland",190306,20770,"6038 Greenbelt Road Greenbelt MD 20770",-76.9109606,38.9981779
"232","8661 Colesville Road","N","Washington-Arlington-Alexandria, DC-VA-MD-WV","Frederick-Gaithersburg-Rockville, MD",1,23224,47900,1,"Washington-Arlington-Alexandria, DC-VA-MD-WV",0,47900,6384,"Silver Spring","Montgomery","Washington-Baltimore-Arlington, DC-MD-VA-WV-PA",1,548,"07/17/2006",4287,0,"PNC Bank, National Association","SILVER SPRING BRANCH",1802,"10/16/2020",11,"MD",24031,"Maryland",453919,20910,"8661 Colesville Road Silver Spring MD 20910",-77.0266929,38.9971149
"233","1400 Research Boulevard","N","Washington-Arlington-Alexandria, DC-VA-MD-WV","Frederick-Gaithersburg-Rockville, MD",1,23224,47900,1,"Washington-Arlington-Alexandria, DC-VA-MD-WV",0,47900,7213,"Rockville","Montgomery","Washington-Baltimore-Arlington, DC-MD-VA-WV-PA",1,548,"12/20/1978",4759,0,"Citibank, National Association","RESEARCH PARK",1026,"10/16/2020",11,"MD",24031,"Maryland",247583,20850,"1400 Research Boulevard Rockville MD 20850",-77.1792056,39.0913943
"234","12172 Central Ave","N","Washington-Arlington-Alexandria, DC-VA-MD-WV","Washington-Arlington-Alexandria, DC-VA-MD-WV",1,47894,47900,1,"Washington-Arlington-Alexandria, DC-VA-MD-WV",0,47900,7213,"Bowie","Prince George'S","Washington-Baltimore-Arlington, DC-MD-VA-WV-PA",1,548,"10/01/2006",4759,0,"Citibank, National Association","MITCHELLVILLE BRANCH",1745,"10/16/2020",11,"MD",24033,"Maryland",467902,20721,"12172 Central Ave Bowie MD 20721",-76.7946459,38.9002422
"235","6822  Wisconsin Ave","N","Washington-Arlington-Alexandria, DC-VA-MD-WV","Frederick-Gaithersburg-Rockville, MD",1,23224,47900,1,"Washington-Arlington-Alexandria, DC-VA-MD-WV",0,47900,3510,"Bethesda","Montgomery","Washington-Baltimore-Arlington, DC-MD-VA-WV-PA",1,548,"07/14/1947",2238,0,"Bank of America, National Association","CORNERSTONE OF BETHESDA BRANCH",3905,"10/16/2020",11,"MD",24031,"Maryland",228084,20815,"6822  Wisconsin Ave Bethesda MD 20815",-77.091523,38.9781049
"236","10600 Campus Way S","N","Washington-Arlington-Alexandria, DC-VA-MD-WV","Washington-Arlington-Alexandria, DC-VA-MD-WV",1,47894,47900,1,"Washington-Arlington-Alexandria, DC-VA-MD-WV",0,47900,3510,"Upper Marlboro","Prince George'S","Washington-Baltimore-Arlington, DC-MD-VA-WV-PA",1,548,"11/06/1973",2238,0,"Bank of America, National Association","KETTERING BRANCH",3935,"10/16/2020",11,"MD",24033,"Maryland",228128,20774,"10600 Campus Way S Upper Marlboro MD 20774",-76.8233068,38.8975088
"237","6495 New Hampshire Avenue","N","Washington-Arlington-Alexandria, DC-VA-MD-WV","Washington-Arlington-Alexandria, DC-VA-MD-WV",1,47894,47900,1,"Washington-Arlington-Alexandria, DC-VA-MD-WV",0,47900,3510,"Hyattsville","Prince George'S","Washington-Baltimore-Arlington, DC-MD-VA-WV-PA",1,548,"04/05/1982",2238,0,"Bank of America, National Association","NEW HAMPSHIRE AVENUE BRANCH",3942,"10/16/2020",11,"MD",24033,"Maryland",228147,20783,"6495 New Hampshire Avenue Hyattsville MD 20783",-77.0002334,38.9676437
"238","6880 Race Track Road","N","Washington-Arlington-Alexandria, DC-VA-MD-WV","Washington-Arlington-Alexandria, DC-VA-MD-WV",1,47894,47900,1,"Washington-Arlington-Alexandria, DC-VA-MD-WV",0,47900,3510,"Bowie","Prince George'S","Washington-Baltimore-Arlington, DC-MD-VA-WV-PA",1,548,"08/15/1970",2238,0,"Bank of America, National Association","HILLTOP PLAZA BRANCH",4028,"10/16/2020",11,"MD",24033,"Maryland",246310,20715,"6880 Race Track Road Bowie MD 20715",-76.729188,38.9828882
"239","8001 Wisconsin Avenue","N","Washington-Arlington-Alexandria, DC-VA-MD-WV","Frederick-Gaithersburg-Rockville, MD",1,23224,47900,1,"Washington-Arlington-Alexandria, DC-VA-MD-WV",0,47900,7213,"Bethesda","Montgomery","Washington-Baltimore-Arlington, DC-MD-VA-WV-PA",1,548,"09/28/1987",4759,0,"Citibank, National Association","BETHESDA",1023,"10/16/2020",11,"MD",24031,"Maryland",258020,20814,"8001 Wisconsin Avenue Bethesda MD 20814",-77.0952745,38.990794
"240","2970 Belcrest Center Drive","N","Washington-Arlington-Alexandria, DC-VA-MD-WV","Washington-Arlington-Alexandria, DC-VA-MD-WV",1,47894,47900,1,"Washington-Arlington-Alexandria, DC-VA-MD-WV",0,47900,7213,"Hyattsville","Prince George'S","Washington-Baltimore-Arlington, DC-MD-VA-WV-PA",1,548,"12/21/2007",4759,0,"Citibank, National Association","HYATTSVILLE BRANCH",1809,"10/16/2020",11,"MD",24033,"Maryland",473095,20782,"2970 Belcrest Center Drive Hyattsville MD 20782",-76.9552837,38.9659274
"241","7633 New Hampshire Avenue","N","Washington-Arlington-Alexandria, DC-VA-MD-WV","Frederick-Gaithersburg-Rockville, MD",1,23224,47900,1,"Washington-Arlington-Alexandria, DC-VA-MD-WV",0,47900,7213,"Takoma Park","Montgomery","Washington-Baltimore-Arlington, DC-MD-VA-WV-PA",1,548,"01/01/1890",4759,0,"Citibank, National Association","LANGLEY PARK BRANCH",953,"10/16/2020",11,"MD",24031,"Maryland",263995,20912,"7633 New Hampshire Avenue Takoma Park MD 20912",-76.9873702,38.986707
"242","6000 Greenbelt Road","N","Washington-Arlington-Alexandria, DC-VA-MD-WV","Washington-Arlington-Alexandria, DC-VA-MD-WV",1,47894,47900,1,"Washington-Arlington-Alexandria, DC-VA-MD-WV",0,47900,6384,"Greenbelt","Prince George'S","Washington-Baltimore-Arlington, DC-MD-VA-WV-PA",1,548,"03/18/2009",4287,0,"PNC Bank, National Association","GREENBELT @ GIANT BRANCH",2104,"10/16/2020",12,"MD",24033,"Maryland",493330,20770,"6000 Greenbelt Road Greenbelt MD 20770",-76.9099301,38.9995236
"243","3876 International Drive","NM","Washington-Arlington-Alexandria, DC-VA-MD-WV","Frederick-Gaithersburg-Rockville, MD",1,23224,47900,1,"Washington-Arlington-Alexandria, DC-VA-MD-WV",0,47900,9846,"Silver Spring","Montgomery","Washington-Baltimore-Arlington, DC-MD-VA-WV-PA",1,548,"06/30/1987",6300,0,"Truist Bank","LEISURE WORLD BRANCH",3738,"10/16/2020",11,"MD",24031,"Maryland",283914,20906,"3876 International Drive Silver Spring MD 20906",-77.076102,39.1030856
"244","2800 West University Blvd","N","Washington-Arlington-Alexandria, DC-VA-MD-WV","Frederick-Gaithersburg-Rockville, MD",1,23224,47900,1,"Washington-Arlington-Alexandria, DC-VA-MD-WV",0,47900,3511,"Wheaton","Montgomery","Washington-Baltimore-Arlington, DC-MD-VA-WV-PA",1,548,"06/03/1957",2239,0,"Wells Fargo Bank, National Association","WHEATON BRANCH",7597,"10/16/2020",11,"MD",24031,"Maryland",238191,20902,"2800 West University Blvd Wheaton MD 20902",-77.057076,39.0384506
"245","404 King Farm Boulevard, Suite 100","N","Washington-Arlington-Alexandria, DC-VA-MD-WV","Frederick-Gaithersburg-Rockville, MD",1,23224,47900,1,"Washington-Arlington-Alexandria, DC-VA-MD-WV",0,47900,3511,"Rockville","Montgomery","Washington-Baltimore-Arlington, DC-MD-VA-WV-PA",1,548,"11/20/2006",2239,0,"Wells Fargo Bank, National Association","KING FARM BRANCH",9473,"10/16/2020",11,"MD",24031,"Maryland",457213,20850,"404 King Farm Boulevard, Suite 100 Rockville MD 20850",-77.1727359,39.1132449
"246","13920 Georgia Avenue","N","Washington-Arlington-Alexandria, DC-VA-MD-WV","Frederick-Gaithersburg-Rockville, MD",1,23224,47900,1,"Washington-Arlington-Alexandria, DC-VA-MD-WV",0,47900,3511,"Silver Spring","Montgomery","Washington-Baltimore-Arlington, DC-MD-VA-WV-PA",1,548,"01/02/2010",2239,0,"Wells Fargo Bank, National Association","ASPEN HILL BRANCH",9913,"10/16/2020",11,"MD",24031,"Maryland",500325,20906,"13920 Georgia Avenue Silver Spring MD 20906",-77.0778967,39.0825467
"247","8435 Georgia Avenue","N","Washington-Arlington-Alexandria, DC-VA-MD-WV","Frederick-Gaithersburg-Rockville, MD",1,23224,47900,1,"Washington-Arlington-Alexandria, DC-VA-MD-WV",0,47900,628,"Silver Spring","Montgomery","Washington-Baltimore-Arlington, DC-MD-VA-WV-PA",1,548,"04/30/2019",417,0,"JPMorgan Chase Bank, National Association","Silver Spring",8262,"10/16/2020",11,"MD",24031,"Maryland",612898,20910,"8435 Georgia Avenue Silver Spring MD 20910",-77.0264538,38.9940845
"248","21111 Frederick Road","N","Washington-Arlington-Alexandria, DC-VA-MD-WV","Frederick-Gaithersburg-Rockville, MD",1,23224,47900,1,"Washington-Arlington-Alexandria, DC-VA-MD-WV",0,47900,628,"Germantown","Montgomery","Washington-Baltimore-Arlington, DC-MD-VA-WV-PA",1,548,"10/08/2019",417,0,"JPMorgan Chase Bank, National Association","Germantown E Frederick Road",8336,"10/16/2020",11,"MD",24031,"Maryland",617339,20876,"21111 Frederick Road Germantown MD 20876",-77.2452526,39.203942
"249","9812 Falls Road","N","Washington-Arlington-Alexandria, DC-VA-MD-WV","Frederick-Gaithersburg-Rockville, MD",1,23224,47900,1,"Washington-Arlington-Alexandria, DC-VA-MD-WV",0,47900,3511,"Potomac","Montgomery","Washington-Baltimore-Arlington, DC-MD-VA-WV-PA",1,548,"04/03/1989",2239,0,"Wells Fargo Bank, National Association","POTOMAC PROMENADE BRANCH",7593,"10/16/2020",11,"MD",24031,"Maryland",243587,20854,"9812 Falls Road Potomac MD 20854",-77.2105381,39.0171173
"250","6611 Baltimore Avenue Suite 3c","NM","Washington-Arlington-Alexandria, DC-VA-MD-WV","Washington-Arlington-Alexandria, DC-VA-MD-WV",1,47894,47900,1,"Washington-Arlington-Alexandria, DC-VA-MD-WV",0,47900,803,"Riverdale Park","Prince George'S","Washington-Baltimore-Arlington, DC-MD-VA-WV-PA",1,548,"06/26/2017",508,0,"WesBanco Bank, Inc.","RIVERDALE PARK BRANCH OFFICE",291,"10/16/2020",11,"MD",24033,"Maryland",589567,20737,"6611 Baltimore Avenue Suite 3c Riverdale Park MD 20737",-76.9366683,38.968923
"251","9658 Baltimore Avenue Suite 101","NM","Washington-Arlington-Alexandria, DC-VA-MD-WV","Washington-Arlington-Alexandria, DC-VA-MD-WV",1,47894,47900,1,"Washington-Arlington-Alexandria, DC-VA-MD-WV",0,47900,803,"College Park","Prince George'S","Washington-Baltimore-Arlington, DC-MD-VA-WV-PA",1,548,"03/04/2008",508,0,"WesBanco Bank, Inc.","COLLEGE PARK OFFICE BRANCH",276,"10/16/2020",11,"MD",24033,"Maryland",479319,20740,"9658 Baltimore Avenue Suite 101 College Park MD 20740",-76.9285649,39.013196
"252","12161 Darnestown Road","N","Washington-Arlington-Alexandria, DC-VA-MD-WV","Frederick-Gaithersburg-Rockville, MD",1,23224,47900,1,"Washington-Arlington-Alexandria, DC-VA-MD-WV",0,47900,3511,"Gaithersburg","Montgomery","Washington-Baltimore-Arlington, DC-MD-VA-WV-PA",1,548,"02/21/1995",2239,0,"Wells Fargo Bank, National Association","QUINCE ORCHARD BRANCH",7625,"10/16/2020",11,"MD",24031,"Maryland",265028,20878,"12161 Darnestown Road Gaithersburg MD 20878",-77.2510448,39.1188841
"253","4323 Collington Road","N","Washington-Arlington-Alexandria, DC-VA-MD-WV","Washington-Arlington-Alexandria, DC-VA-MD-WV",1,47894,47900,1,"Washington-Arlington-Alexandria, DC-VA-MD-WV",0,47900,3511,"Bowie","Prince George'S","Washington-Baltimore-Arlington, DC-MD-VA-WV-PA",1,548,"03/20/2006",2239,0,"Wells Fargo Bank, National Association","BOWIE TOWN CENTER BRANCH",9425,"10/16/2020",11,"MD",24033,"Maryland",452090,20716,"4323 Collington Road Bowie MD 20716",-76.7341488,38.9469231
"254","16000 Crain Highway","N","Washington-Arlington-Alexandria, DC-VA-MD-WV","Washington-Arlington-Alexandria, DC-VA-MD-WV",1,47894,47900,1,"Washington-Arlington-Alexandria, DC-VA-MD-WV",0,47900,3511,"Brandywine","Prince George'S","Washington-Baltimore-Arlington, DC-MD-VA-WV-PA",1,548,"11/09/2009",2239,0,"Wells Fargo Bank, National Association","BRANDYWINE CROSSING BRANCH",9907,"10/16/2020",11,"MD",24033,"Maryland",498647,20613,"16000 Crain Highway Brandywine MD 20613",-76.8750913,38.670934
"255","9401 Key West Avenue","NM","Washington-Arlington-Alexandria, DC-VA-MD-WV","Frederick-Gaithersburg-Rockville, MD",1,23224,47900,1,"Washington-Arlington-Alexandria, DC-VA-MD-WV",0,47900,9846,"Rockville","Montgomery","Washington-Baltimore-Arlington, DC-MD-VA-WV-PA",1,548,"09/08/1997",6300,0,"Truist Bank","SHADY GROVE BRANCH",1027,"10/16/2020",11,"MD",24031,"Maryland",260587,20850,"9401 Key West Avenue Rockville MD 20850",-77.1915374,39.104194
"256","380 Main Street","NM","Washington-Arlington-Alexandria, DC-VA-MD-WV","Washington-Arlington-Alexandria, DC-VA-MD-WV",1,47894,47900,1,"Washington-Arlington-Alexandria, DC-VA-MD-WV",0,47900,9846,"Laurel","Prince George'S","Washington-Baltimore-Arlington, DC-MD-VA-WV-PA",1,548,"06/30/1986",6300,0,"Truist Bank","LAUREL BRANCH",887,"10/16/2020",11,"MD",24033,"Maryland",45186,20707,"380 Main Street Laurel MD 20707",-76.8473885,39.1054483
"257","7475 Wisconsin Ave","N","Washington-Arlington-Alexandria, DC-VA-MD-WV","Frederick-Gaithersburg-Rockville, MD",1,23224,47900,1,"Washington-Arlington-Alexandria, DC-VA-MD-WV",0,47900,3511,"Bethesda","Montgomery","Washington-Baltimore-Arlington, DC-MD-VA-WV-PA",1,548,"04/01/2015",2239,0,"Wells Fargo Bank, National Association","BETHESDA PB BRANCH",10282,"10/16/2020",23,"MD",24031,"Maryland",567539,20814,"7475 Wisconsin Ave Bethesda MD 20814",-77.0937684,38.9843923
"258","1048 Quince Orchard Road","N","Washington-Arlington-Alexandria, DC-VA-MD-WV","Frederick-Gaithersburg-Rockville, MD",1,23224,47900,1,"Washington-Arlington-Alexandria, DC-VA-MD-WV",0,47900,3510,"Gaithersburg","Montgomery","Washington-Baltimore-Arlington, DC-MD-VA-WV-PA",1,548,"04/28/1980",2238,0,"Bank of America, National Association","QUINCE ORCHARD BRANCH",3941,"10/16/2020",11,"MD",24031,"Maryland",228144,20878,"1048 Quince Orchard Road Gaithersburg MD 20878",-77.252547,39.1185114
"259","17501 Redland Road","N","Washington-Arlington-Alexandria, DC-VA-MD-WV","Frederick-Gaithersburg-Rockville, MD",1,23224,47900,1,"Washington-Arlington-Alexandria, DC-VA-MD-WV",0,47900,3510,"Derwood","Montgomery","Washington-Baltimore-Arlington, DC-MD-VA-WV-PA",1,548,"10/21/1974",2238,0,"Bank of America, National Association","REDLAND ROAD BRANCH",4031,"10/16/2020",11,"MD",24031,"Maryland",246316,20855,"17501 Redland Road Derwood MD 20855",-77.1445548,39.1438135
"260","5801 Silver Hill Rd","N","Washington-Arlington-Alexandria, DC-VA-MD-WV","Washington-Arlington-Alexandria, DC-VA-MD-WV",1,47894,47900,1,"Washington-Arlington-Alexandria, DC-VA-MD-WV",0,47900,3511,"District Heights","Prince George'S","Washington-Baltimore-Arlington, DC-MD-VA-WV-PA",1,548,"01/02/1990",2239,0,"Wells Fargo Bank, National Association","SHOPS AT SILVER HILL BRANCH",7604,"10/16/2020",11,"MD",24033,"Maryland",238221,20747,"5801 Silver Hill Rd District Heights MD 20747",-76.9060976,38.8547013
"261","8901 Woodyard Road","N","Washington-Arlington-Alexandria, DC-VA-MD-WV","Washington-Arlington-Alexandria, DC-VA-MD-WV",1,47894,47900,1,"Washington-Arlington-Alexandria, DC-VA-MD-WV",0,47900,3510,"Clinton","Prince George'S","Washington-Baltimore-Arlington, DC-MD-VA-WV-PA",1,548,"06/20/1920",2238,0,"Bank of America, National Association","CLINTON WOODYARD BRANCH",4075,"10/16/2020",11,"MD",24033,"Maryland",7546,20735,"8901 Woodyard Road Clinton MD 20735",-76.8870038,38.767848
"262","7950 New Hampshire Ave Ste  A","N","Washington-Arlington-Alexandria, DC-VA-MD-WV","Washington-Arlington-Alexandria, DC-VA-MD-WV",1,47894,47900,1,"Washington-Arlington-Alexandria, DC-VA-MD-WV",0,47900,3510,"Hyattsville","Prince George'S","Washington-Baltimore-Arlington, DC-MD-VA-WV-PA",1,548,"12/08/1951",2238,0,"Bank of America, National Association","LANGLEY PARK BRANCH",3914,"10/16/2020",11,"MD",24033,"Maryland",228099,20783,"7950 New Hampshire Ave Ste  A Hyattsville MD 20783",-76.9878427,38.9903869
"263","12125 Veirs Mill Rd","N","Washington-Arlington-Alexandria, DC-VA-MD-WV","Frederick-Gaithersburg-Rockville, MD",1,23224,47900,1,"Washington-Arlington-Alexandria, DC-VA-MD-WV",0,47900,3510,"Silver Spring","Montgomery","Washington-Baltimore-Arlington, DC-MD-VA-WV-PA",1,548,"03/29/1976",2238,0,"Bank of America, National Association","VEIRS MILL BRANCH",3939,"10/16/2020",11,"MD",24031,"Maryland",228135,20906,"12125 Veirs Mill Rd Silver Spring MD 20906",-77.0808644,39.055979
"264","7595 Ora Glen Drive","N","Washington-Arlington-Alexandria, DC-VA-MD-WV","Washington-Arlington-Alexandria, DC-VA-MD-WV",1,47894,47900,1,"Washington-Arlington-Alexandria, DC-VA-MD-WV",0,47900,3510,"Greenbelt","Prince George'S","Washington-Baltimore-Arlington, DC-MD-VA-WV-PA",1,548,"03/05/1990",2238,0,"Bank of America, National Association","HANOVER PARKWAY BRANCH",3951,"10/16/2020",11,"MD",24033,"Maryland",228162,20770,"7595 Ora Glen Drive Greenbelt MD 20770",-76.8753615,38.9908195
"265","2909 University Blvd W","NM","Washington-Arlington-Alexandria, DC-VA-MD-WV","Frederick-Gaithersburg-Rockville, MD",1,23224,47900,1,"Washington-Arlington-Alexandria, DC-VA-MD-WV",0,47900,9846,"Kensington","Montgomery","Washington-Baltimore-Arlington, DC-MD-VA-WV-PA",1,548,"10/28/2013",6300,0,"Truist Bank","Wheaton Main Branch",2647,"10/16/2020",11,"MD",24031,"Maryland",544953,20895,"2909 University Blvd W Kensington MD 20895",-77.0596169,39.0380755
"266","3500 East-West Highway","NM","Washington-Arlington-Alexandria, DC-VA-MD-WV","Washington-Arlington-Alexandria, DC-VA-MD-WV",1,47894,47900,1,"Washington-Arlington-Alexandria, DC-VA-MD-WV",0,47900,9846,"Hyattsville","Prince George'S","Washington-Baltimore-Arlington, DC-MD-VA-WV-PA",1,548,"01/01/1959",6300,0,"Truist Bank","PG Plaza Branch",3734,"10/16/2020",11,"MD",24033,"Maryland",283886,20782,"3500 East-West Highway Hyattsville MD 20782",-76.9574647,38.9683146
"267","15411 New Hampshire Avenue","NM","Washington-Arlington-Alexandria, DC-VA-MD-WV","Frederick-Gaithersburg-Rockville, MD",1,23224,47900,1,"Washington-Arlington-Alexandria, DC-VA-MD-WV",0,47900,9846,"Silver Spring","Montgomery","Washington-Baltimore-Arlington, DC-MD-VA-WV-PA",1,548,"12/06/2000",6300,0,"Truist Bank","CLOVERLY SAFEWAY BRANCH",3950,"10/16/2020",12,"MD",24031,"Maryland",359366,20905,"15411 New Hampshire Avenue Silver Spring MD 20905",-76.9961311,39.1083725
"268","13975 Connecticut Ave.","NM","Washington-Arlington-Alexandria, DC-VA-MD-WV","Frederick-Gaithersburg-Rockville, MD",1,23224,47900,1,"Washington-Arlington-Alexandria, DC-VA-MD-WV",0,47900,9846,"Silver Spring","Montgomery","Washington-Baltimore-Arlington, DC-MD-VA-WV-PA",1,548,"06/14/1971",6300,0,"Truist Bank","ASPEN HILL BRANCH",3727,"10/16/2020",11,"MD",24031,"Maryland",220864,20906,"13975 Connecticut Ave. Silver Spring MD 20906",-77.0781215,39.0829321
"269","7701 Greenbelt Rd","NM","Washington-Arlington-Alexandria, DC-VA-MD-WV","Washington-Arlington-Alexandria, DC-VA-MD-WV",1,47894,47900,1,"Washington-Arlington-Alexandria, DC-VA-MD-WV",0,47900,9846,"Greenbelt","Prince George'S","Washington-Baltimore-Arlington, DC-MD-VA-WV-PA",1,548,"11/07/1988",6300,0,"Truist Bank","Greenway Center Branch",3730,"10/16/2020",11,"MD",24033,"Maryland",220872,20770,"7701 Greenbelt Rd Greenbelt MD 20770",-76.8738076,38.993186
"270","14112 Darnestown Road","NM","Washington-Arlington-Alexandria, DC-VA-MD-WV","Frederick-Gaithersburg-Rockville, MD",1,23224,47900,1,"Washington-Arlington-Alexandria, DC-VA-MD-WV",0,47900,9846,"Germantown","Montgomery","Washington-Baltimore-Arlington, DC-MD-VA-WV-PA",1,548,"03/03/2014",6300,0,"Truist Bank","DARNESTOWN BRANCH",4359,"10/16/2020",11,"MD",24031,"Maryland",557437,20874,"14112 Darnestown Road Germantown MD 20874",-77.2927794,39.1033445
"271","5135 River Road","N","Washington-Arlington-Alexandria, DC-VA-MD-WV","Frederick-Gaithersburg-Rockville, MD",1,23224,47900,1,"Washington-Arlington-Alexandria, DC-VA-MD-WV",0,47900,3510,"Bethesda","Montgomery","Washington-Baltimore-Arlington, DC-MD-VA-WV-PA",1,548,"10/15/1979",2238,0,"Bank of America, National Association","RIVER ROAD BRANCH",4022,"10/16/2020",11,"MD",24031,"Maryland",204502,20816,"5135 River Road Bethesda MD 20816",-77.1023553,38.9642256
"272","7520 Marlboro Pike","N","Washington-Arlington-Alexandria, DC-VA-MD-WV","Washington-Arlington-Alexandria, DC-VA-MD-WV",1,47894,47900,1,"Washington-Arlington-Alexandria, DC-VA-MD-WV",0,47900,3510,"Forestville","Prince George'S","Washington-Baltimore-Arlington, DC-MD-VA-WV-PA",1,548,"09/03/1958",2238,0,"Bank of America, National Association","FORESTVILLE BRANCH",3910,"10/16/2020",11,"MD",24033,"Maryland",228091,20747,"7520 Marlboro Pike Forestville MD 20747",-76.8755642,38.8464903
"273","20670 Seneca Meadows Parkways","N","Washington-Arlington-Alexandria, DC-VA-MD-WV","Frederick-Gaithersburg-Rockville, MD",1,23224,47900,1,"Washington-Arlington-Alexandria, DC-VA-MD-WV",0,47900,3510,"Germantown","Montgomery","Washington-Baltimore-Arlington, DC-MD-VA-WV-PA",1,548,"03/09/2015",2238,0,"Bank of America, National Association","SENECA MEADOWS BRANCH",9766,"10/16/2020",11,"MD",24031,"Maryland",567284,20876,"20670 Seneca Meadows Parkways Germantown MD 20876",-77.2535816,39.1998895
"274","12266 Rockville Pike","N","Washington-Arlington-Alexandria, DC-VA-MD-WV","Frederick-Gaithersburg-Rockville, MD",1,23224,47900,1,"Washington-Arlington-Alexandria, DC-VA-MD-WV",0,47900,7551,"Rockville","Montgomery","Washington-Baltimore-Arlington, DC-MD-VA-WV-PA",1,548,"01/12/1998",4901,0,"Fulton Bank, National Association","FEDERAL PLAZA BRANCH",259,"10/16/2020",11,"MD",24031,"Maryland",255968,20852,"12266 Rockville Pike Rockville MD 20852",-77.121862,39.0570818
"275","11800 Rockville Pike","N","Washington-Arlington-Alexandria, DC-VA-MD-WV","Frederick-Gaithersburg-Rockville, MD",1,23224,47900,1,"Washington-Arlington-Alexandria, DC-VA-MD-WV",0,47900,3510,"Rockville","Montgomery","Washington-Baltimore-Arlington, DC-MD-VA-WV-PA",1,548,"05/24/1965",2238,0,"Bank of America, National Association","MID-PIKE PLAZA BRANCH",3919,"10/16/2020",11,"MD",24031,"Maryland",228105,20852,"11800 Rockville Pike Rockville MD 20852",-77.1152031,39.0497545
"276","13808 Outlet Drive","N","Washington-Arlington-Alexandria, DC-VA-MD-WV","Frederick-Gaithersburg-Rockville, MD",1,23224,47900,1,"Washington-Arlington-Alexandria, DC-VA-MD-WV",0,47900,3510,"Silver Spring","Montgomery","Washington-Baltimore-Arlington, DC-MD-VA-WV-PA",1,548,"03/14/1983",2238,0,"Bank of America, National Association","BRIGGS CHANEY BRANCH",4033,"10/16/2020",11,"MD",24031,"Maryland",246320,20904,"13808 Outlet Drive Silver Spring MD 20904",-76.9474946,39.0830947
"277","7963 Tuckerman Lane","NM","Washington-Arlington-Alexandria, DC-VA-MD-WV","Frederick-Gaithersburg-Rockville, MD",1,23224,47900,1,"Washington-Arlington-Alexandria, DC-VA-MD-WV",0,47900,57614,"Potomac","Montgomery","Washington-Baltimore-Arlington, DC-MD-VA-WV-PA",1,548,"10/17/2003",418493,1,"Congressional Bank","Congressional Bank",0,"10/16/2020",11,"MD",24031,"Maryland",418493,20854,"7963 Tuckerman Lane Potomac MD 20854",-77.1577509,39.0413732
"278","6226 Greenbelt Road","N","Washington-Arlington-Alexandria, DC-VA-MD-WV","Washington-Arlington-Alexandria, DC-VA-MD-WV",1,47894,47900,1,"Washington-Arlington-Alexandria, DC-VA-MD-WV",0,47900,4297,"Greenbelt","Prince George'S","Washington-Baltimore-Arlington, DC-MD-VA-WV-PA",1,548,"06/30/1985",2818,0,"Capital One, National Association","GREENBELT PLAZA MALL BRANCH",952,"10/16/2020",11,"MD",24033,"Maryland",287544,20770,"6226 Greenbelt Road Greenbelt MD 20770",-76.9087317,38.9979044
"279","4825 Cordell Avenue","N","Washington-Arlington-Alexandria, DC-VA-MD-WV","Frederick-Gaithersburg-Rockville, MD",1,23224,47900,1,"Washington-Arlington-Alexandria, DC-VA-MD-WV",0,47900,4297,"Bethesda","Montgomery","Washington-Baltimore-Arlington, DC-MD-VA-WV-PA",1,548,"02/21/1997",2818,0,"Capital One, National Association","CORDELL AVENUE BRANCH",1047,"10/16/2020",11,"MD",24031,"Maryland",287645,20814,"4825 Cordell Avenue Bethesda MD 20814",-77.0968706,38.991033
"280","802 Pleasant Drive","N","Washington-Arlington-Alexandria, DC-VA-MD-WV","Frederick-Gaithersburg-Rockville, MD",1,23224,47900,1,"Washington-Arlington-Alexandria, DC-VA-MD-WV",0,47900,4297,"Rockville","Montgomery","Washington-Baltimore-Arlington, DC-MD-VA-WV-PA",1,548,"12/14/2000",2818,0,"Capital One, National Association","802 PLEASANT DRIVE",1104,"10/16/2020",11,"MD",24031,"Maryland",359394,20850,"802 Pleasant Drive Rockville MD 20850",-77.1719047,39.1140126
"281","21117 Frederick Road","N","Washington-Arlington-Alexandria, DC-VA-MD-WV","Frederick-Gaithersburg-Rockville, MD",1,23224,47900,1,"Washington-Arlington-Alexandria, DC-VA-MD-WV",0,47900,4297,"Germantown","Montgomery","Washington-Baltimore-Arlington, DC-MD-VA-WV-PA",1,548,"09/11/2003",2818,0,"Capital One, National Association","FREDERICK ROAD BRANCH",1136,"10/16/2020",11,"MD",24031,"Maryland",423322,20876,"21117 Frederick Road Germantown MD 20876",-77.2453424,39.2043116
"282","13301 New Hampshire Avenue","N","Washington-Arlington-Alexandria, DC-VA-MD-WV","Frederick-Gaithersburg-Rockville, MD",1,23224,47900,1,"Washington-Arlington-Alexandria, DC-VA-MD-WV",0,47900,4297,"Silver Spring","Montgomery","Washington-Baltimore-Arlington, DC-MD-VA-WV-PA",1,548,"09/18/2003",2818,0,"Capital One, National Association","13301 NEW HAMPSHIRE AVENUE BRANCH",1135,"10/16/2020",11,"MD",24031,"Maryland",423321,20904,"13301 New Hampshire Avenue Silver Spring MD 20904",-77.0021289,39.0733536
"283","101 Halpine Road","N","Washington-Arlington-Alexandria, DC-VA-MD-WV","Frederick-Gaithersburg-Rockville, MD",1,23224,47900,1,"Washington-Arlington-Alexandria, DC-VA-MD-WV",0,47900,4297,"Rockville","Montgomery","Washington-Baltimore-Arlington, DC-MD-VA-WV-PA",1,548,"06/30/1985",2818,0,"Capital One, National Association","HALPINE ROAD BRANCH",947,"10/16/2020",11,"MD",24031,"Maryland",287539,20852,"101 Halpine Road Rockville MD 20852",-77.1247639,39.0617582
"284","4 Bureau Drive","N","Washington-Arlington-Alexandria, DC-VA-MD-WV","Frederick-Gaithersburg-Rockville, MD",1,23224,47900,1,"Washington-Arlington-Alexandria, DC-VA-MD-WV",0,47900,4297,"Gaithersburg","Montgomery","Washington-Baltimore-Arlington, DC-MD-VA-WV-PA",1,548,"06/30/1985",2818,0,"Capital One, National Association","4 BUREAU DR BRANCH",954,"10/16/2020",11,"MD",24031,"Maryland",287546,20878,"4 Bureau Drive Gaithersburg MD 20878",-77.2176124,39.1419736
"285","10211 River Road","N","Washington-Arlington-Alexandria, DC-VA-MD-WV","Frederick-Gaithersburg-Rockville, MD",1,23224,47900,1,"Washington-Arlington-Alexandria, DC-VA-MD-WV",0,47900,4297,"Potomac","Montgomery","Washington-Baltimore-Arlington, DC-MD-VA-WV-PA",1,548,"06/30/1986",2818,0,"Capital One, National Association","10211 RIVER ROAD BRANCH",966,"10/16/2020",11,"MD",24031,"Maryland",287558,20854,"10211 River Road Potomac MD 20854",-77.2092697,39.0184109
"286","1600 East Gude Drive","SM","Washington-Arlington-Alexandria, DC-VA-MD-WV","Frederick-Gaithersburg-Rockville, MD",1,23224,47900,1,"Washington-Arlington-Alexandria, DC-VA-MD-WV",0,47900,58696,"Rockville","Montgomery","Washington-Baltimore-Arlington, DC-MD-VA-WV-PA",1,548,"07/01/1968",463069,0,"FVCbank","ROCKVILLE BRANCH",6,"10/16/2020",11,"MD",24031,"Maryland",44389,20850,"1600 East Gude Drive Rockville MD 20850",-77.1315732,39.0941638
"287","7610 Pennsylvania Avenue","NM","Washington-Arlington-Alexandria, DC-VA-MD-WV","Washington-Arlington-Alexandria, DC-VA-MD-WV",1,47894,47900,1,"Washington-Arlington-Alexandria, DC-VA-MD-WV",0,47900,14679,"Forestville","Prince George'S","Washington-Baltimore-Arlington, DC-MD-VA-WV-PA",1,548,"06/30/1986",9180,0,"Industrial Bank","FORESTVILLE BRANCH",8,"10/16/2020",11,"MD",24033,"Maryland",287890,20747,"7610 Pennsylvania Avenue Forestville MD 20747",-76.874643,38.8418335
"288","4520 East-West Hwy","SA","Washington-Arlington-Alexandria, DC-VA-MD-WV","Frederick-Gaithersburg-Rockville, MD",1,23224,47900,1,"Washington-Arlington-Alexandria, DC-VA-MD-WV",0,47900,32363,"Bethesda","Montgomery","Washington-Baltimore-Arlington, DC-MD-VA-WV-PA",1,548,"07/01/2010",45197,0,"Presidential Bank, FSB","WWW.PRESIDENTIAL.COM BRANCH",110,"10/16/2020",13,"MD",24031,"Maryland",522047,20814,"4520 East-West Hwy Bethesda MD 20814",-77.09197,38.9846718
"289","8912 Woodyard Road","N","Washington-Arlington-Alexandria, DC-VA-MD-WV","Washington-Arlington-Alexandria, DC-VA-MD-WV",1,47894,47900,1,"Washington-Arlington-Alexandria, DC-VA-MD-WV",0,47900,18409,"Clinton","Prince George'S","Washington-Baltimore-Arlington, DC-MD-VA-WV-PA",1,548,"12/22/2006",12315,0,"TD Bank, National Association","CLINTON BRANCH",1144,"10/16/2020",11,"MD",24033,"Maryland",466445,20735,"8912 Woodyard Road Clinton MD 20735",-76.8873641,38.7666831
"290","2801 University Blvd W","N","Washington-Arlington-Alexandria, DC-VA-MD-WV","Frederick-Gaithersburg-Rockville, MD",1,23224,47900,1,"Washington-Arlington-Alexandria, DC-VA-MD-WV",0,47900,628,"Kensington","Montgomery","Washington-Baltimore-Arlington, DC-MD-VA-WV-PA",1,548,"12/11/2019",417,0,"JPMorgan Chase Bank, National Association","Wheaton University Blvd",8414,"10/16/2020",11,"MD",24031,"Maryland",619414,20895,"2801 University Blvd W Kensington MD 20895",-77.0575482,39.0391245
"291","200 East Middle Lane","N","Washington-Arlington-Alexandria, DC-VA-MD-WV","Frederick-Gaithersburg-Rockville, MD",1,23224,47900,1,"Washington-Arlington-Alexandria, DC-VA-MD-WV",0,47900,57890,"Rockville","Montgomery","Washington-Baltimore-Arlington, DC-MD-VA-WV-PA",1,548,"08/20/2007",429342,0,"HSBC Bank USA, National Association","ROCKVILLE BRANCH",537,"10/16/2020",11,"MD",24031,"Maryland",468171,20850,"200 East Middle Lane Rockville MD 20850",-77.1503372,39.0853411
"292","14118 Brandywine Rd","SM","Washington-Arlington-Alexandria, DC-VA-MD-WV","Washington-Arlington-Alexandria, DC-VA-MD-WV",1,47894,47900,1,"Washington-Arlington-Alexandria, DC-VA-MD-WV",0,47900,57968,"Brandywine","Prince George'S","Washington-Baltimore-Arlington, DC-MD-VA-WV-PA",1,548,"05/01/2012",432804,0,"SONABANK","BRANDYWINE BRANCH",27,"10/16/2020",11,"MD",24033,"Maryland",531688,20613,"14118 Brandywine Rd Brandywine MD 20613",-76.8501027,38.6975188
"293","3731 Branch Avenue","N","Washington-Arlington-Alexandria, DC-VA-MD-WV","Washington-Arlington-Alexandria, DC-VA-MD-WV",1,47894,47900,1,"Washington-Arlington-Alexandria, DC-VA-MD-WV",0,47900,3510,"Temple Hills","Prince George'S","Washington-Baltimore-Arlington, DC-MD-VA-WV-PA",1,548,"02/11/1963",2238,0,"Bank of America, National Association","IVERSON MALL BRANCH",4027,"10/16/2020",11,"MD",24033,"Maryland",12571,20748,"3731 Branch Avenue Temple Hills MD 20748",-76.9486424,38.8390893
"294","12097 Rockville Pike Avenue","N","Washington-Arlington-Alexandria, DC-VA-MD-WV","Frederick-Gaithersburg-Rockville, MD",1,23224,47900,1,"Washington-Arlington-Alexandria, DC-VA-MD-WV",0,47900,628,"Rockville","Montgomery","Washington-Baltimore-Arlington, DC-MD-VA-WV-PA",1,548,"06/24/2020",417,0,"JPMorgan Chase Bank, National Association","Rockville Pike and Bou Avenue Branch",8481,"10/16/2020",11,"MD",24031,"Maryland",625187,20852,"12097 Rockville Pike Avenue Rockville MD 20852",-77.1181564,39.0556534
"295","15830 Shady Grove Rd","N","Washington-Arlington-Alexandria, DC-VA-MD-WV","Frederick-Gaithersburg-Rockville, MD",1,23224,47900,1,"Washington-Arlington-Alexandria, DC-VA-MD-WV",0,47900,18409,"Gaithersburg","Montgomery","Washington-Baltimore-Arlington, DC-MD-VA-WV-PA",1,548,"07/16/2011",12315,0,"TD Bank, National Association","SHADY GROVE/GAITHERSBURG BRANCH",1614,"10/16/2020",11,"MD",24031,"Maryland",522014,20877,"15830 Shady Grove Rd Gaithersburg MD 20877",-77.1845293,39.1170595
"296","3791 Evergreen Parkway","N","Washington-Arlington-Alexandria, DC-VA-MD-WV","Washington-Arlington-Alexandria, DC-VA-MD-WV",1,47894,47900,1,"Washington-Arlington-Alexandria, DC-VA-MD-WV",0,47900,3510,"Bowie","Prince George'S","Washington-Baltimore-Arlington, DC-MD-VA-WV-PA",1,548,"04/19/2004",2238,0,"Bank of America, National Association","BOWIE TOWN CENTER BRANCH",6920,"10/16/2020",11,"MD",24033,"Maryland",428732,20716,"3791 Evergreen Parkway Bowie MD 20716",-76.7372143,38.9420696
"297","10801 Indian Head Hwy","NM","Washington-Arlington-Alexandria, DC-VA-MD-WV","Washington-Arlington-Alexandria, DC-VA-MD-WV",1,47894,47900,1,"Washington-Arlington-Alexandria, DC-VA-MD-WV",0,47900,9846,"Ft Washington","Prince George'S","Washington-Baltimore-Arlington, DC-MD-VA-WV-PA",1,548,"01/01/1925",6300,0,"Truist Bank","Indian Head Highway Branch",3739,"10/16/2020",11,"MD",24033,"Maryland",267944,20744,"10801 Indian Head Hwy Ft Washington MD 20744",-76.9927924,38.7435576
"298","7515 Annapolis Road","N","Washington-Arlington-Alexandria, DC-VA-MD-WV","Washington-Arlington-Alexandria, DC-VA-MD-WV",1,47894,47900,1,"Washington-Arlington-Alexandria, DC-VA-MD-WV",0,47900,3510,"Hyattsville","Prince George'S","Washington-Baltimore-Arlington, DC-MD-VA-WV-PA",1,548,"09/21/1951",2238,0,"Bank of America, National Association","LANDOVER HILLS BRANCH",3915,"10/16/2020",11,"MD",24033,"Maryland",228100,20784,"7515 Annapolis Road Hyattsville MD 20784",-76.8854726,38.9505577
"299","275 North Washington Street","N","Washington-Arlington-Alexandria, DC-VA-MD-WV","Frederick-Gaithersburg-Rockville, MD",1,23224,47900,1,"Washington-Arlington-Alexandria, DC-VA-MD-WV",0,47900,3510,"Rockville","Montgomery","Washington-Baltimore-Arlington, DC-MD-VA-WV-PA",1,548,"08/20/1962",2238,0,"Bank of America, National Association","ROCKVILLE  BRANCH",3920,"10/16/2020",11,"MD",24031,"Maryland",228106,20850,"275 North Washington Street Rockville MD 20850",-77.1533314,39.0882701
"300","26500 Ridge Road","NM","Washington-Arlington-Alexandria, DC-VA-MD-WV","Frederick-Gaithersburg-Rockville, MD",1,23224,47900,1,"Washington-Arlington-Alexandria, DC-VA-MD-WV",0,47900,803,"Damascus","Montgomery","Washington-Baltimore-Arlington, DC-MD-VA-WV-PA",1,548,"07/01/1988",508,0,"WesBanco Bank, Inc.","DAMASCUS BRANCH",292,"10/16/2020",11,"MD",24031,"Maryland",39424,20872,"26500 Ridge Road Damascus MD 20872",-77.2056198,39.2906494
"301","7901 Wisconsin Ave","N","Washington-Arlington-Alexandria, DC-VA-MD-WV","Frederick-Gaithersburg-Rockville, MD",1,23224,47900,1,"Washington-Arlington-Alexandria, DC-VA-MD-WV",0,47900,628,"Bethesda","Montgomery","Washington-Baltimore-Arlington, DC-MD-VA-WV-PA",1,548,"08/13/2019",417,0,"JPMorgan Chase Bank, National Association","Wisconsin Avenue and Chase Avenue",8312,"10/16/2020",11,"MD",24031,"Maryland",616794,20814,"7901 Wisconsin Ave Bethesda MD 20814",-77.0950722,38.9898695
"302","15509 Annapolis Road","N","Washington-Arlington-Alexandria, DC-VA-MD-WV","Washington-Arlington-Alexandria, DC-VA-MD-WV",1,47894,47900,1,"Washington-Arlington-Alexandria, DC-VA-MD-WV",0,47900,628,"Bowie","Prince George'S","Washington-Baltimore-Arlington, DC-MD-VA-WV-PA",1,548,"08/18/2020",417,0,"JPMorgan Chase Bank, National Association","Bowie North Branch",8514,"10/16/2020",11,"MD",24033,"Maryland",627177,20715,"15509 Annapolis Road Bowie MD 20715",-76.7342103,38.9791429
"303","13781 Connecticut Avenue","N","Washington-Arlington-Alexandria, DC-VA-MD-WV","Frederick-Gaithersburg-Rockville, MD",1,23224,47900,1,"Washington-Arlington-Alexandria, DC-VA-MD-WV",0,47900,6384,"Silver Spring","Montgomery","Washington-Baltimore-Arlington, DC-MD-VA-WV-PA",1,548,"02/04/2009",4287,0,"PNC Bank, National Association","ASPEN HILL @ GIANT BRANCH",2094,"10/16/2020",12,"MD",24031,"Maryland",493320,20906,"13781 Connecticut Avenue Silver Spring MD 20906",-77.078841,39.079651
"304","260 East Jefferson Street","N","Washington-Arlington-Alexandria, DC-VA-MD-WV","Frederick-Gaithersburg-Rockville, MD",1,23224,47900,1,"Washington-Arlington-Alexandria, DC-VA-MD-WV",0,47900,6384,"Rockville","Montgomery","Washington-Baltimore-Arlington, DC-MD-VA-WV-PA",1,548,"03/12/1973",4287,0,"PNC Bank, National Association","ROCKVILLE BRANCH",1776,"10/16/2020",11,"MD",24031,"Maryland",243471,20850,"260 East Jefferson Street Rockville MD 20850",-77.1493702,39.0822233
"305","6551 Coventry Way","N","Washington-Arlington-Alexandria, DC-VA-MD-WV","Washington-Arlington-Alexandria, DC-VA-MD-WV",1,47894,47900,1,"Washington-Arlington-Alexandria, DC-VA-MD-WV",0,47900,6384,"Clinton","Prince George'S","Washington-Baltimore-Arlington, DC-MD-VA-WV-PA",1,548,"12/30/1985",4287,0,"PNC Bank, National Association","CLINTON BRANCH",1375,"10/16/2020",11,"MD",24033,"Maryland",258336,20735,"6551 Coventry Way Clinton MD 20735",-76.8933785,38.7835501
"306","10150 River Road","N","Washington-Arlington-Alexandria, DC-VA-MD-WV","Frederick-Gaithersburg-Rockville, MD",1,23224,47900,1,"Washington-Arlington-Alexandria, DC-VA-MD-WV",0,47900,6384,"Potomac","Montgomery","Washington-Baltimore-Arlington, DC-MD-VA-WV-PA",1,548,"02/20/1990",4287,0,"PNC Bank, National Association","POTOMAC BRANCH",1377,"10/16/2020",11,"MD",24031,"Maryland",258345,20854,"10150 River Road Potomac MD 20854",-77.2097482,39.0167644
"307","3140 Gracefield Rd","N","Washington-Arlington-Alexandria, DC-VA-MD-WV","Frederick-Gaithersburg-Rockville, MD",1,23224,47900,1,"Washington-Arlington-Alexandria, DC-VA-MD-WV",0,47900,6384,"Silver Spring","Montgomery","Washington-Baltimore-Arlington, DC-MD-VA-WV-PA",1,548,"11/20/2003",4287,0,"PNC Bank, National Association","RIDERWOOD VILLAGE II BRANCH",1831,"10/16/2020",23,"MD",24031,"Maryland",430759,20904,"3140 Gracefield Rd Silver Spring MD 20904",-76.9483724,39.0484372
"308","13074 Middlebrook Road","N","Washington-Arlington-Alexandria, DC-VA-MD-WV","Frederick-Gaithersburg-Rockville, MD",1,23224,47900,1,"Washington-Arlington-Alexandria, DC-VA-MD-WV",0,47900,6384,"Germantown","Montgomery","Washington-Baltimore-Arlington, DC-MD-VA-WV-PA",1,548,"02/02/2009",4287,0,"PNC Bank, National Association","GERMANTOWN BRANCH",2084,"10/16/2020",11,"MD",24031,"Maryland",493310,20874,"13074 Middlebrook Road Germantown MD 20874",-77.2700123,39.181432
"309","6262 Oxon Hill Road","SM","Washington-Arlington-Alexandria, DC-VA-MD-WV","Washington-Arlington-Alexandria, DC-VA-MD-WV",1,47894,47900,1,"Washington-Arlington-Alexandria, DC-VA-MD-WV",0,47900,588,"Oxon Hill","Prince George'S","Washington-Baltimore-Arlington, DC-MD-VA-WV-PA",1,548,"05/07/1962",400,0,"Manufacturers and Traders Trust Company","OXON HILL BRANCH",717,"10/16/2020",11,"MD",24033,"Maryland",204697,20745,"6262 Oxon Hill Road Oxon Hill MD 20745",-76.9881127,38.8032572
"310","8730 Georgia Avenue","SM","Washington-Arlington-Alexandria, DC-VA-MD-WV","Frederick-Gaithersburg-Rockville, MD",1,23224,47900,1,"Washington-Arlington-Alexandria, DC-VA-MD-WV",0,47900,588,"Silver Spring","Montgomery","Washington-Baltimore-Arlington, DC-MD-VA-WV-PA",1,548,"04/27/1998",400,0,"Manufacturers and Traders Trust Company","SILVER SPRING BRANCH",1076,"10/16/2020",11,"MD",24031,"Maryland",236085,20910,"8730 Georgia Avenue Silver Spring MD 20910",-77.0307239,38.9979854
"311","12110 Darnestown Road","SM","Washington-Arlington-Alexandria, DC-VA-MD-WV","Frederick-Gaithersburg-Rockville, MD",1,23224,47900,1,"Washington-Arlington-Alexandria, DC-VA-MD-WV",0,47900,588,"Gaithersburg","Montgomery","Washington-Baltimore-Arlington, DC-MD-VA-WV-PA",1,548,"01/01/1929",400,0,"Manufacturers and Traders Trust Company","QUINCE ORCHARD BRANCH",1069,"10/16/2020",11,"MD",24031,"Maryland",270194,20878,"12110 Darnestown Road Gaithersburg MD 20878",-77.2511346,39.1169732
"312","7550 Wisconsin Avenue Suite 100","SM","Washington-Arlington-Alexandria, DC-VA-MD-WV","Frederick-Gaithersburg-Rockville, MD",1,23224,47900,1,"Washington-Arlington-Alexandria, DC-VA-MD-WV",0,47900,4865,"Bethesda","Montgomery","Washington-Baltimore-Arlington, DC-MD-VA-WV-PA",1,548,"06/28/1983",3240,0,"Sandy Spring Bank","BETHESDA BRANCH",19,"10/16/2020",11,"MD",24031,"Maryland",17060,20814,"7550 Wisconsin Avenue Suite 100 Bethesda MD 20814",-77.0948025,38.9856706
"313","484 N Frederick Avenue","SM","Washington-Arlington-Alexandria, DC-VA-MD-WV","Frederick-Gaithersburg-Rockville, MD",1,23224,47900,1,"Washington-Arlington-Alexandria, DC-VA-MD-WV",0,47900,4865,"Gaithersburg","Montgomery","Washington-Baltimore-Arlington, DC-MD-VA-WV-PA",1,548,"03/14/1988",3240,0,"Sandy Spring Bank","GAITHERSBURG SQUARE BRANCH",13,"10/16/2020",11,"MD",24031,"Maryland",39092,20877,"484 N Frederick Avenue Gaithersburg MD 20877",-77.2084945,39.149148
"314","3801 International Drive","SM","Washington-Arlington-Alexandria, DC-VA-MD-WV","Frederick-Gaithersburg-Rockville, MD",1,23224,47900,1,"Washington-Arlington-Alexandria, DC-VA-MD-WV",0,47900,4865,"Silver Spring","Montgomery","Washington-Baltimore-Arlington, DC-MD-VA-WV-PA",1,548,"08/03/1987",3240,0,"Sandy Spring Bank","LEISUREWORLD PLAZA BRANCH",8,"10/16/2020",11,"MD",24031,"Maryland",204682,20906,"3801 International Drive Silver Spring MD 20906",-77.0754236,39.1040775
"315","1601 And 1603 East Gude Drive","SM","Washington-Arlington-Alexandria, DC-VA-MD-WV","Frederick-Gaithersburg-Rockville, MD",1,23224,47900,1,"Washington-Arlington-Alexandria, DC-VA-MD-WV",0,47900,4865,"Rockville","Montgomery","Washington-Baltimore-Arlington, DC-MD-VA-WV-PA",1,548,"03/01/1996",3240,0,"Sandy Spring Bank","EAST GUDE DRIVE COMMUNITY BRANCH",17,"10/16/2020",11,"MD",24031,"Maryland",204689,20850,"1601 And 1603 East Gude Drive Rockville MD 20850",-77.132667,39.093762
"316","14404 Baltimore Avenue","SM","Washington-Arlington-Alexandria, DC-VA-MD-WV","Washington-Arlington-Alexandria, DC-VA-MD-WV",1,47894,47900,1,"Washington-Arlington-Alexandria, DC-VA-MD-WV",0,47900,4865,"Laurel","Prince George'S","Washington-Baltimore-Arlington, DC-MD-VA-WV-PA",1,548,"08/18/1997",3240,0,"Sandy Spring Bank","LAUREL LAKES COMMUNITY BRANCH",20,"10/16/2020",11,"MD",24033,"Maryland",204690,20707,"14404 Baltimore Avenue Laurel MD 20707",-76.8604298,39.0880835
"317","820 West Diamond Avenue","SM","Washington-Arlington-Alexandria, DC-VA-MD-WV","Frederick-Gaithersburg-Rockville, MD",1,23224,47900,1,"Washington-Arlington-Alexandria, DC-VA-MD-WV",0,47900,4865,"Gaithersburg","Montgomery","Washington-Baltimore-Arlington, DC-MD-VA-WV-PA",1,548,"05/07/2014",3240,0,"Sandy Spring Bank","GAITHERSBURG BRANCH",90,"10/16/2020",11,"MD",24031,"Maryland",552782,20878,"820 West Diamond Avenue Gaithersburg MD 20878",-77.2143783,39.1424825
"318","3535 Spencerville Road","SM","Washington-Arlington-Alexandria, DC-VA-MD-WV","Frederick-Gaithersburg-Rockville, MD",1,23224,47900,1,"Washington-Arlington-Alexandria, DC-VA-MD-WV",0,47900,4865,"Burtonsville","Montgomery","Washington-Baltimore-Arlington, DC-MD-VA-WV-PA",1,548,"08/24/1972",3240,0,"Sandy Spring Bank","BURTONSVILLE BRANCH",3,"10/16/2020",11,"MD",24031,"Maryland",204677,20866,"3535 Spencerville Road Burtonsville MD 20866",-76.9376812,39.1075411
"319","4511 Knox Road","SM","Washington-Arlington-Alexandria, DC-VA-MD-WV","Washington-Arlington-Alexandria, DC-VA-MD-WV",1,47894,47900,1,"Washington-Arlington-Alexandria, DC-VA-MD-WV",0,47900,588,"College Park","Prince George'S","Washington-Baltimore-Arlington, DC-MD-VA-WV-PA",1,548,"06/30/1986",400,0,"Manufacturers and Traders Trust Company","COLLEGE PARK BRANCH",735,"10/16/2020",11,"MD",24033,"Maryland",204305,20740,"4511 Knox Road College Park MD 20740",-76.9364534,38.980322
"320","9600 Medical Center Drive","SM","Washington-Arlington-Alexandria, DC-VA-MD-WV","Frederick-Gaithersburg-Rockville, MD",1,23224,47900,1,"Washington-Arlington-Alexandria, DC-VA-MD-WV",0,47900,588,"Rockville","Montgomery","Washington-Baltimore-Arlington, DC-MD-VA-WV-PA",1,548,"01/06/1992",400,0,"Manufacturers and Traders Trust Company","LIFE SCIENCES BRANCH",745,"10/16/2020",11,"MD",24031,"Maryland",204325,20850,"9600 Medical Center Drive Rockville MD 20850",-77.1956927,39.1043962
"321","11807 Livingston Road","SM","Washington-Arlington-Alexandria, DC-VA-MD-WV","Washington-Arlington-Alexandria, DC-VA-MD-WV",1,47894,47900,1,"Washington-Arlington-Alexandria, DC-VA-MD-WV",0,47900,588,"Fort Washington","Prince George'S","Washington-Baltimore-Arlington, DC-MD-VA-WV-PA",1,548,"03/18/1982",400,0,"Manufacturers and Traders Trust Company","FORT WASHINGTON BRANCH",722,"10/16/2020",11,"MD",24033,"Maryland",204705,20744,"11807 Livingston Road Fort Washington MD 20744",-76.991105,38.7271351
"322","3866 International Drive","SM","Washington-Arlington-Alexandria, DC-VA-MD-WV","Frederick-Gaithersburg-Rockville, MD",1,23224,47900,1,"Washington-Arlington-Alexandria, DC-VA-MD-WV",0,47900,588,"Silver Spring","Montgomery","Washington-Baltimore-Arlington, DC-MD-VA-WV-PA",1,548,"08/22/1997",400,0,"Manufacturers and Traders Trust Company","LEISURE WORLD BRANCH",1072,"10/16/2020",11,"MD",24031,"Maryland",236080,20906,"3866 International Drive Silver Spring MD 20906",-77.0762555,39.1017504
"323","10410 Campus Way South","SM","Washington-Arlington-Alexandria, DC-VA-MD-WV","Washington-Arlington-Alexandria, DC-VA-MD-WV",1,47894,47900,1,"Washington-Arlington-Alexandria, DC-VA-MD-WV",0,47900,588,"Largo","Prince George'S","Washington-Baltimore-Arlington, DC-MD-VA-WV-PA",1,548,"10/15/2001",400,0,"Manufacturers and Traders Trust Company","LARGO PLAZA BRANCH",911,"10/16/2020",11,"MD",24033,"Maryland",363711,20774,"10410 Campus Way South Largo MD 20774",-76.823487,38.8957645
"324","5416 Wisconsin Avenue","SM","Washington-Arlington-Alexandria, DC-VA-MD-WV","Frederick-Gaithersburg-Rockville, MD",1,23224,47900,1,"Washington-Arlington-Alexandria, DC-VA-MD-WV",0,47900,588,"Chevy Chase","Montgomery","Washington-Baltimore-Arlington, DC-MD-VA-WV-PA",1,548,"01/01/1953",400,0,"Manufacturers and Traders Trust Company","FRIENDSHIP HEIGHTS BRANCH",1070,"10/16/2020",11,"MD",24031,"Maryland",43822,20815,"5416 Wisconsin Avenue Chevy Chase MD 20815",-77.0865328,38.961737
"325","12914 Middlebrook Road","SM","Washington-Arlington-Alexandria, DC-VA-MD-WV","Frederick-Gaithersburg-Rockville, MD",1,23224,47900,1,"Washington-Arlington-Alexandria, DC-VA-MD-WV",0,47900,588,"Germantown","Montgomery","Washington-Baltimore-Arlington, DC-MD-VA-WV-PA",1,548,"07/18/1973",400,0,"Manufacturers and Traders Trust Company","GERMANTOWN BRANCH",682,"10/16/2020",11,"MD",24031,"Maryland",204234,20874,"12914 Middlebrook Road Germantown MD 20874",-77.2688687,39.1797762
"326","5229 River Road","N","Washington-Arlington-Alexandria, DC-VA-MD-WV","Frederick-Gaithersburg-Rockville, MD",1,23224,47900,1,"Washington-Arlington-Alexandria, DC-VA-MD-WV",0,47900,7888,"Bethesda","Montgomery","Washington-Baltimore-Arlington, DC-MD-VA-WV-PA",1,548,"03/01/2001",5061,0,"First National Bank of Pennsylvania","BETHESDA BRANCH",385,"10/16/2020",11,"MD",24031,"Maryland",363185,20816,"5229 River Road Bethesda MD 20816",-77.1043644,38.9659206
"327","7475 Wisconsin Ave","N","Washington-Arlington-Alexandria, DC-VA-MD-WV","Frederick-Gaithersburg-Rockville, MD",1,23224,47900,1,"Washington-Arlington-Alexandria, DC-VA-MD-WV",0,47900,7888,"Bethesda","Montgomery","Washington-Baltimore-Arlington, DC-MD-VA-WV-PA",1,548,"02/21/2017",5061,0,"First National Bank of Pennsylvania","WISCONSIN AVE BRANCH",448,"10/16/2020",11,"MD",24031,"Maryland",587050,20814,"7475 Wisconsin Ave Bethesda MD 20814",-77.0937684,38.9843923
"328","15924 S Crain Highway","NM","Washington-Arlington-Alexandria, DC-VA-MD-WV","Washington-Arlington-Alexandria, DC-VA-MD-WV",1,47894,47900,1,"Washington-Arlington-Alexandria, DC-VA-MD-WV",0,47900,9846,"Brandywine","Prince George'S","Washington-Baltimore-Arlington, DC-MD-VA-WV-PA",1,548,"07/01/1912",6300,0,"Truist Bank","BRANDYWINE CROSSING BRANCH",3909,"10/16/2020",11,"MD",24033,"Maryland",8153,20613,"15924 S Crain Highway Brandywine MD 20613",-76.8749337,38.6717816
"329","14070 Baltimore Avenue","NM","Washington-Arlington-Alexandria, DC-VA-MD-WV","Washington-Arlington-Alexandria, DC-VA-MD-WV",1,47894,47900,1,"Washington-Arlington-Alexandria, DC-VA-MD-WV",0,47900,9846,"Laurel","Prince George'S","Washington-Baltimore-Arlington, DC-MD-VA-WV-PA",1,548,"07/22/1991",6300,0,"Truist Bank","LAUREL LAKES BRANCH",3732,"10/16/2020",11,"MD",24033,"Maryland",220874,20707,"14070 Baltimore Avenue Laurel MD 20707",-76.8634929,39.0833937
"330","5418 Wisconsin Ave","NM","Washington-Arlington-Alexandria, DC-VA-MD-WV","Frederick-Gaithersburg-Rockville, MD",1,23224,47900,1,"Washington-Arlington-Alexandria, DC-VA-MD-WV",0,47900,9846,"Chevy Chase","Montgomery","Washington-Baltimore-Arlington, DC-MD-VA-WV-PA",1,548,"12/18/1972",6300,0,"Truist Bank","McLean Gardens Branch",3906,"10/16/2020",11,"MD",24031,"Maryland",250166,20815,"5418 Wisconsin Ave Chevy Chase MD 20815",-77.0865643,38.9619675
"331","16000 Shady Grove Rd","NM","Washington-Arlington-Alexandria, DC-VA-MD-WV","Frederick-Gaithersburg-Rockville, MD",1,23224,47900,1,"Washington-Arlington-Alexandria, DC-VA-MD-WV",0,47900,9846,"Gaithersburg","Montgomery","Washington-Baltimore-Arlington, DC-MD-VA-WV-PA",1,548,"05/14/1986",6300,0,"Truist Bank","The Grove Branch",3744,"10/16/2020",11,"MD",24031,"Maryland",259871,20877,"16000 Shady Grove Rd Gaithersburg MD 20877",-77.1825077,39.1196752
"332","6175 Oxon Hill Road","N","Washington-Arlington-Alexandria, DC-VA-MD-WV","Washington-Arlington-Alexandria, DC-VA-MD-WV",1,47894,47900,1,"Washington-Arlington-Alexandria, DC-VA-MD-WV",0,47900,3511,"Oxon Hill","Prince George'S","Washington-Baltimore-Arlington, DC-MD-VA-WV-PA",1,548,"06/17/1987",2239,0,"Wells Fargo Bank, National Association","RIVERTOWNE COMMONS BRANCH",7603,"10/16/2020",11,"MD",24033,"Maryland",238215,20745,"6175 Oxon Hill Road Oxon Hill MD 20745",-76.9839052,38.8045303
"333","10501 Greenbelt Rd","N","Washington-Arlington-Alexandria, DC-VA-MD-WV","Washington-Arlington-Alexandria, DC-VA-MD-WV",1,47894,47900,1,"Washington-Arlington-Alexandria, DC-VA-MD-WV",0,47900,6384,"Lanham","Prince George'S","Washington-Baltimore-Arlington, DC-MD-VA-WV-PA",1,548,"04/29/2010",4287,0,"PNC Bank, National Association","EASTGATE BRANCH",3736,"10/16/2020",11,"MD",24033,"Maryland",508409,20706,"10501 Greenbelt Rd Lanham MD 20706",-76.8223605,38.9878679
"334","3521 East-West Hwy","N","Washington-Arlington-Alexandria, DC-VA-MD-WV","Washington-Arlington-Alexandria, DC-VA-MD-WV",1,47894,47900,1,"Washington-Arlington-Alexandria, DC-VA-MD-WV",0,47900,6384,"Hyattsville","Prince George'S","Washington-Baltimore-Arlington, DC-MD-VA-WV-PA",1,548,"10/26/2011",4287,0,"PNC Bank, National Association","HYATTSVILLE BRANCH",3871,"10/16/2020",11,"MD",24033,"Maryland",527010,20782,"3521 East-West Hwy Hyattsville MD 20782",-76.958725,38.9657318
"335","10450 Baltimore Avenue","N","Washington-Arlington-Alexandria, DC-VA-MD-WV","Washington-Arlington-Alexandria, DC-VA-MD-WV",1,47894,47900,1,"Washington-Arlington-Alexandria, DC-VA-MD-WV",0,47900,6384,"Beltsville","Prince George'S","Washington-Baltimore-Arlington, DC-MD-VA-WV-PA",1,548,"10/31/1964",4287,0,"PNC Bank, National Association","BELTSVILLE CHESTNUT HILLS BRANCH",1813,"10/16/2020",11,"MD",24033,"Maryland",204628,20705,"10450 Baltimore Avenue Beltsville MD 20705",-76.9183223,39.02775
"336","502 Hungerford Drive","N","Washington-Arlington-Alexandria, DC-VA-MD-WV","Frederick-Gaithersburg-Rockville, MD",1,23224,47900,1,"Washington-Arlington-Alexandria, DC-VA-MD-WV",0,47900,3511,"Rockville","Montgomery","Washington-Baltimore-Arlington, DC-MD-VA-WV-PA",1,548,"09/08/1987",2239,0,"Wells Fargo Bank, National Association","ROCKVILLE BRANCH",7614,"10/16/2020",11,"MD",24031,"Maryland",239870,20850,"502 Hungerford Drive Rockville MD 20850",-77.1533465,39.0909059
"337","10415 Old Georgetown Road","NM","Washington-Arlington-Alexandria, DC-VA-MD-WV","Frederick-Gaithersburg-Rockville, MD",1,23224,47900,1,"Washington-Arlington-Alexandria, DC-VA-MD-WV",0,47900,9846,"Bethesda","Montgomery","Washington-Baltimore-Arlington, DC-MD-VA-WV-PA",1,548,"02/02/1959",6300,0,"Truist Bank","WILDWOOD MANOR BRANCH",3724,"10/16/2020",11,"MD",24031,"Maryland",220859,20814,"10415 Old Georgetown Road Bethesda MD 20814",-77.1255504,39.0264607
"338","12605 Wisteria Drive","NM","Washington-Arlington-Alexandria, DC-VA-MD-WV","Frederick-Gaithersburg-Rockville, MD",1,23224,47900,1,"Washington-Arlington-Alexandria, DC-VA-MD-WV",0,47900,9846,"Germantown","Montgomery","Washington-Baltimore-Arlington, DC-MD-VA-WV-PA",1,548,"05/01/1990",6300,0,"Truist Bank","Germantown Square Branch",3731,"10/16/2020",11,"MD",24031,"Maryland",220873,20874,"12605 Wisteria Drive Germantown MD 20874",-77.2620223,39.1712417
"339","1800 Rockville Pike","NM","Washington-Arlington-Alexandria, DC-VA-MD-WV","Frederick-Gaithersburg-Rockville, MD",1,23224,47900,1,"Washington-Arlington-Alexandria, DC-VA-MD-WV",0,47900,9846,"Rockville","Montgomery","Washington-Baltimore-Arlington, DC-MD-VA-WV-PA",1,548,"12/13/1974",6300,0,"Truist Bank","THE GALVAN BRANCH",3914,"10/16/2020",11,"MD",24031,"Maryland",246691,20852,"1800 Rockville Pike Rockville MD 20852",-77.1212718,39.0602631
"340","6168 Oxon Hill Rd","NM","Washington-Arlington-Alexandria, DC-VA-MD-WV","Washington-Arlington-Alexandria, DC-VA-MD-WV",1,47894,47900,1,"Washington-Arlington-Alexandria, DC-VA-MD-WV",0,47900,9846,"Oxon Hill","Prince George'S","Washington-Baltimore-Arlington, DC-MD-VA-WV-PA",1,548,"09/04/1968",6300,0,"Truist Bank","OXON HILL BRANCH",1261,"10/16/2020",11,"MD",24033,"Maryland",249106,20745,"6168 Oxon Hill Rd Oxon Hill MD 20745",-76.9799226,38.8040204
"341","10590 Campus Way South","NM","Washington-Arlington-Alexandria, DC-VA-MD-WV","Washington-Arlington-Alexandria, DC-VA-MD-WV",1,47894,47900,1,"Washington-Arlington-Alexandria, DC-VA-MD-WV",0,47900,9846,"Largo","Prince George'S","Washington-Baltimore-Arlington, DC-MD-VA-WV-PA",1,548,"01/01/1887",6300,0,"Truist Bank","KETTERING BRANCH",608,"10/16/2020",11,"MD",24033,"Maryland",266364,20774,"10590 Campus Way South Largo MD 20774",-76.8233413,38.8968113
"342","11605 Beltsville Drive","NM","Washington-Arlington-Alexandria, DC-VA-MD-WV","Washington-Arlington-Alexandria, DC-VA-MD-WV",1,47894,47900,1,"Washington-Arlington-Alexandria, DC-VA-MD-WV",0,47900,9846,"Beltsville","Prince George'S","Washington-Baltimore-Arlington, DC-MD-VA-WV-PA",1,548,"12/01/1971",6300,0,"Truist Bank","BELTSVILLE BRANCH",1199,"10/16/2020",11,"MD",24033,"Maryland",285317,20705,"11605 Beltsville Drive Beltsville MD 20705",-76.9373773,39.0484918
"343","3448 Donnell Drive","NM","Washington-Arlington-Alexandria, DC-VA-MD-WV","Washington-Arlington-Alexandria, DC-VA-MD-WV",1,47894,47900,1,"Washington-Arlington-Alexandria, DC-VA-MD-WV",0,47900,9846,"Forestville","Prince George'S","Washington-Baltimore-Arlington, DC-MD-VA-WV-PA",1,548,"06/05/2006",6300,0,"Truist Bank","FORESTVILLE BRANCH",1423,"10/16/2020",11,"MD",24033,"Maryland",453718,20747,"3448 Donnell Drive Forestville MD 20747",-76.8842116,38.8446644
"344","6 Montgomery Village Avenue","N","Washington-Arlington-Alexandria, DC-VA-MD-WV","Frederick-Gaithersburg-Rockville, MD",1,23224,47900,1,"Washington-Arlington-Alexandria, DC-VA-MD-WV",0,47900,7213,"Gaithersburg","Montgomery","Washington-Baltimore-Arlington, DC-MD-VA-WV-PA",1,548,"02/28/1983",4759,0,"Citibank, National Association","MONTGOMERY VILLAGE BRANCH",1027,"10/16/2020",11,"MD",24031,"Maryland",190360,20879,"6 Montgomery Village Avenue Gaithersburg MD 20879",-77.2104298,39.1545286
"345","11499 Columbia Pike","N","Washington-Arlington-Alexandria, DC-VA-MD-WV","Frederick-Gaithersburg-Rockville, MD",1,23224,47900,1,"Washington-Arlington-Alexandria, DC-VA-MD-WV",0,47900,3510,"Silver Spring","Montgomery","Washington-Baltimore-Arlington, DC-MD-VA-WV-PA",1,548,"12/12/1966",2238,0,"Bank of America, National Association","WHITE OAK BRANCH",3929,"10/16/2020",11,"MD",24031,"Maryland",228119,20904,"11499 Columbia Pike Silver Spring MD 20904",-76.9868302,39.0459266
"346","1097 Seven Locks Road","NM","Washington-Arlington-Alexandria, DC-VA-MD-WV","Frederick-Gaithersburg-Rockville, MD",1,23224,47900,1,"Washington-Arlington-Alexandria, DC-VA-MD-WV",0,47900,9846,"Rockville","Montgomery","Washington-Baltimore-Arlington, DC-MD-VA-WV-PA",1,548,"10/29/2001",6300,0,"Truist Bank","POTOMAC WOODS BRANCH",1009,"10/16/2020",11,"MD",24031,"Maryland",363058,20854,"1097 Seven Locks Road Rockville MD 20854",-77.1588611,39.0617326
"347","9800 Apollo Drive","N","Washington-Arlington-Alexandria, DC-VA-MD-WV","Washington-Arlington-Alexandria, DC-VA-MD-WV",1,47894,47900,1,"Washington-Arlington-Alexandria, DC-VA-MD-WV",0,47900,3511,"Largo","Prince George'S","Washington-Baltimore-Arlington, DC-MD-VA-WV-PA",1,548,"10/25/2006",2239,0,"Wells Fargo Bank, National Association","LARGO COMMONS BRANCH",9467,"10/16/2020",11,"MD",24033,"Maryland",456840,20774,"9800 Apollo Drive Largo MD 20774",-76.8365534,38.9033555
"348","5410 Wisconsin Avenue","SM","Washington-Arlington-Alexandria, DC-VA-MD-WV","Frederick-Gaithersburg-Rockville, MD",1,23224,47900,1,"Washington-Arlington-Alexandria, DC-VA-MD-WV",0,47900,22858,"Chevy Chase","Montgomery","Washington-Baltimore-Arlington, DC-MD-VA-WV-PA",1,548,"01/26/2006",15972,0,"United Bank","CHEVY CHASE BRANCH",110,"10/16/2020",11,"MD",24031,"Maryland",457577,20815,"5410 Wisconsin Avenue Chevy Chase MD 20815",-77.0863726,38.9616528
"349","8630 Fenton Street","SM","Washington-Arlington-Alexandria, DC-VA-MD-WV","Frederick-Gaithersburg-Rockville, MD",1,23224,47900,1,"Washington-Arlington-Alexandria, DC-VA-MD-WV",0,47900,22858,"Silver Spring","Montgomery","Washington-Baltimore-Arlington, DC-MD-VA-WV-PA",1,548,"04/27/1998",15972,0,"United Bank","FENTON STREET BRANCH",46,"10/16/2020",11,"MD",24031,"Maryland",262036,20910,"8630 Fenton Street Silver Spring MD 20910",-77.0285147,38.9978611
"350","7315 Wisconsin Avenue","SM","Washington-Arlington-Alexandria, DC-VA-MD-WV","Frederick-Gaithersburg-Rockville, MD",1,23224,47900,1,"Washington-Arlington-Alexandria, DC-VA-MD-WV",0,47900,22858,"Bethesda","Montgomery","Washington-Baltimore-Arlington, DC-MD-VA-WV-PA",1,548,"01/31/2007",15972,0,"United Bank","BETHESDA BRANCH",139,"10/16/2020",11,"MD",24031,"Maryland",458386,20814,"7315 Wisconsin Avenue Bethesda MD 20814",-77.0928692,38.9826881
"351","7788 Riverdale Road","NM","Washington-Arlington-Alexandria, DC-VA-MD-WV","Washington-Arlington-Alexandria, DC-VA-MD-WV",1,47894,47900,1,"Washington-Arlington-Alexandria, DC-VA-MD-WV",0,47900,9846,"New Carrollton","Prince George'S","Washington-Baltimore-Arlington, DC-MD-VA-WV-PA",1,548,"08/07/1963",6300,0,"Truist Bank","CARROLLTON BRANCH",3895,"10/16/2020",11,"MD",24033,"Maryland",220898,20784,"7788 Riverdale Road New Carrollton MD 20784",-76.8740469,38.9580594
"352","41 Audrey Lane","NM","Washington-Arlington-Alexandria, DC-VA-MD-WV","Washington-Arlington-Alexandria, DC-VA-MD-WV",1,47894,47900,1,"Washington-Arlington-Alexandria, DC-VA-MD-WV",0,47900,9846,"Oxon Hill","Prince George'S","Washington-Baltimore-Arlington, DC-MD-VA-WV-PA",1,548,"10/27/1966",6300,0,"Truist Bank","EASTOVER BRANCH",3899,"10/16/2020",11,"MD",24033,"Maryland",220915,20745,"41 Audrey Lane Oxon Hill MD 20745",-77.0011616,38.817909
"353","4520 East-West Highway","SA","Washington-Arlington-Alexandria, DC-VA-MD-WV","Frederick-Gaithersburg-Rockville, MD",1,23224,47900,1,"Washington-Arlington-Alexandria, DC-VA-MD-WV",0,47900,32363,"Bethesda","Montgomery","Washington-Baltimore-Arlington, DC-MD-VA-WV-PA",1,548,"04/15/1985",45197,1,"Presidential Bank, FSB","Presidential Bank, FSB",0,"10/16/2020",11,"MD",24031,"Maryland",45197,20814,"4520 East-West Highway Bethesda MD 20814",-77.09197,38.9846718
"354","6000 Executive Blvd, #101","N","Washington-Arlington-Alexandria, DC-VA-MD-WV","Frederick-Gaithersburg-Rockville, MD",1,23224,47900,1,"Washington-Arlington-Alexandria, DC-VA-MD-WV",0,47900,35278,"North Bethesda","Montgomery","Washington-Baltimore-Arlington, DC-MD-VA-WV-PA",1,548,"09/15/2008",77667,0,"Capital Bank, National Association","EXECUTIVE BOULEVARD BRANCH",3,"10/16/2020",11,"MD",24031,"Maryland",492511,20852,"6000 Executive Blvd, #101 North Bethesda MD 20852",NA,NA
"355","6210  Annapolis Rd","N","Washington-Arlington-Alexandria, DC-VA-MD-WV","Washington-Arlington-Alexandria, DC-VA-MD-WV",1,47894,47900,1,"Washington-Arlington-Alexandria, DC-VA-MD-WV",0,47900,23220,"Landover Hills","Prince George'S","Washington-Baltimore-Arlington, DC-MD-VA-WV-PA",1,548,"03/13/2010",16273,0,"Woodforest National Bank","0564 LANDOVER HILLS MARYLAND WALMART BRANCH",580,"10/16/2020",12,"MD",24033,"Maryland",508655,20784,"6210  Annapolis Rd Landover Hills MD 20784",-76.9079437,38.9429776
"356","8252 Georgia Avenue","N","Washington-Arlington-Alexandria, DC-VA-MD-WV","Frederick-Gaithersburg-Rockville, MD",1,23224,47900,1,"Washington-Arlington-Alexandria, DC-VA-MD-WV",0,47900,57890,"Silver Spring","Montgomery","Washington-Baltimore-Arlington, DC-MD-VA-WV-PA",1,548,"11/18/2019",429342,0,"HSBC Bank USA, National Association","SILVER SPRINGS",605,"10/16/2020",11,"MD",24031,"Maryland",618571,20910,"8252 Georgia Avenue Silver Spring MD 20910",-77.0271843,38.9932631
"357","9111 Riggs Road","N","Washington-Arlington-Alexandria, DC-VA-MD-WV","Washington-Arlington-Alexandria, DC-VA-MD-WV",1,47894,47900,1,"Washington-Arlington-Alexandria, DC-VA-MD-WV",0,47900,3510,"Adelphi","Prince George'S","Washington-Baltimore-Arlington, DC-MD-VA-WV-PA",1,548,"12/01/1972",2238,0,"Bank of America, National Association","ADELPHI BRANCH",4029,"10/16/2020",11,"MD",24033,"Maryland",246311,20783,"9111 Riggs Road Adelphi MD 20783",-76.9710345,39.0038512
"358","1371 Lamberton Drive","NM","Washington-Arlington-Alexandria, DC-VA-MD-WV","Frederick-Gaithersburg-Rockville, MD",1,23224,47900,1,"Washington-Arlington-Alexandria, DC-VA-MD-WV",0,47900,9846,"Silver Spring","Montgomery","Washington-Baltimore-Arlington, DC-MD-VA-WV-PA",1,548,"01/08/1970",6300,0,"Truist Bank","KEMP MILL BRANCH",3901,"10/16/2020",11,"MD",24031,"Maryland",220924,20902,"1371 Lamberton Drive Silver Spring MD 20902",-77.0310563,39.0405479
"359","6106 Laurel-Bowie Road","NM","Washington-Arlington-Alexandria, DC-VA-MD-WV","Washington-Arlington-Alexandria, DC-VA-MD-WV",1,47894,47900,1,"Washington-Arlington-Alexandria, DC-VA-MD-WV",0,47900,9846,"Bowie","Prince George'S","Washington-Baltimore-Arlington, DC-MD-VA-WV-PA",1,548,"12/22/1987",6300,0,"Truist Bank","WEST BOWIE BRANCH",3922,"10/16/2020",11,"MD",24033,"Maryland",220968,20715,"6106 Laurel-Bowie Road Bowie MD 20715",-76.7566241,38.9734524
"360","7535 Old Georgetown Rd","NM","Washington-Arlington-Alexandria, DC-VA-MD-WV","Frederick-Gaithersburg-Rockville, MD",1,23224,47900,1,"Washington-Arlington-Alexandria, DC-VA-MD-WV",0,47900,9846,"Bethesda","Montgomery","Washington-Baltimore-Arlington, DC-MD-VA-WV-PA",1,548,"10/31/1980",6300,0,"Truist Bank","BETHESDA ELEMENT 28 BRANCH",3916,"10/16/2020",11,"MD",24031,"Maryland",246699,20814,"7535 Old Georgetown Rd Bethesda MD 20814",-77.0954114,38.9856665
"361","9412 Livingston Road","NM","Washington-Arlington-Alexandria, DC-VA-MD-WV","Washington-Arlington-Alexandria, DC-VA-MD-WV",1,47894,47900,1,"Washington-Arlington-Alexandria, DC-VA-MD-WV",0,47900,9846,"Fort Washington","Prince George'S","Washington-Baltimore-Arlington, DC-MD-VA-WV-PA",1,548,"11/04/1993",6300,0,"Truist Bank","FORT WASHINGTON BRANCH",1271,"10/16/2020",11,"MD",24033,"Maryland",249125,20744,"9412 Livingston Road Fort Washington MD 20744",-76.9943223,38.7595764
"362","1470 Rockville Pike","NM","Washington-Arlington-Alexandria, DC-VA-MD-WV","Frederick-Gaithersburg-Rockville, MD",1,23224,47900,1,"Washington-Arlington-Alexandria, DC-VA-MD-WV",0,47900,9846,"Rockville","Montgomery","Washington-Baltimore-Arlington, DC-MD-VA-WV-PA",1,548,"12/01/1971",6300,0,"Truist Bank","ROCKVILLE PIKE BRANCH",624,"10/16/2020",11,"MD",24031,"Maryland",285316,20852,"1470 Rockville Pike Rockville MD 20852",-77.1268988,39.0659408
"363","9812 Falls Rd","NM","Washington-Arlington-Alexandria, DC-VA-MD-WV","Frederick-Gaithersburg-Rockville, MD",1,23224,47900,1,"Washington-Arlington-Alexandria, DC-VA-MD-WV",0,47900,9846,"Potomac","Montgomery","Washington-Baltimore-Arlington, DC-MD-VA-WV-PA",1,548,"06/30/1986",6300,0,"Truist Bank","POTOMAC BRANCH",3737,"10/16/2020",11,"MD",24031,"Maryland",283905,20854,"9812 Falls Rd Potomac MD 20854",-77.2105381,39.0171173
"364","3413 Kenilworth Avenue","N","Washington-Arlington-Alexandria, DC-VA-MD-WV","Washington-Arlington-Alexandria, DC-VA-MD-WV",1,47894,47900,1,"Washington-Arlington-Alexandria, DC-VA-MD-WV",0,47900,3510,"Hyattsville","Prince George'S","Washington-Baltimore-Arlington, DC-MD-VA-WV-PA",1,548,"02/08/1960",2238,0,"Bank of America, National Association","KENILWORTH BRANCH",3906,"10/16/2020",11,"MD",24033,"Maryland",228085,20781,"3413 Kenilworth Avenue Hyattsville MD 20781",-76.932099,38.9317423
"365","2601 University Boulevard, West","N","Washington-Arlington-Alexandria, DC-VA-MD-WV","Frederick-Gaithersburg-Rockville, MD",1,23224,47900,1,"Washington-Arlington-Alexandria, DC-VA-MD-WV",0,47900,3510,"Wheaton","Montgomery","Washington-Baltimore-Arlington, DC-MD-VA-WV-PA",1,548,"12/20/1948",2238,0,"Bank of America, National Association","WHEATON BRANCH",3928,"10/16/2020",11,"MD",24031,"Maryland",228117,20902,"2601 University Boulevard, West Wheaton MD 20902",-77.0533432,39.0413548
"366","3132 Briggs Chaney Road","N","Washington-Arlington-Alexandria, DC-VA-MD-WV","Frederick-Gaithersburg-Rockville, MD",1,23224,47900,1,"Washington-Arlington-Alexandria, DC-VA-MD-WV",0,47900,18409,"Silver Spring","Montgomery","Washington-Baltimore-Arlington, DC-MD-VA-WV-PA",1,548,"06/23/2007",12315,0,"TD Bank, National Association","SILVER SPRINGS BRANCH",1146,"10/16/2020",11,"MD",24031,"Maryland",466447,20904,"3132 Briggs Chaney Road Silver Spring MD 20904",-76.945559,39.0809946
"367","5710 Riverdale Road","N","Washington-Arlington-Alexandria, DC-VA-MD-WV","Washington-Arlington-Alexandria, DC-VA-MD-WV",1,47894,47900,1,"Washington-Arlington-Alexandria, DC-VA-MD-WV",0,47900,3510,"Riverdale","Prince George'S","Washington-Baltimore-Arlington, DC-MD-VA-WV-PA",1,548,"11/03/1959",2238,0,"Bank of America, National Association","EAST RIVERDALE BRANCH",3918,"10/16/2020",11,"MD",24033,"Maryland",228104,20737,"5710 Riverdale Road Riverdale MD 20737",-76.9181647,38.9596478
"368","12099 Rockville Pike","N","Washington-Arlington-Alexandria, DC-VA-MD-WV","Frederick-Gaithersburg-Rockville, MD",1,23224,47900,1,"Washington-Arlington-Alexandria, DC-VA-MD-WV",0,47900,3510,"Rockville","Montgomery","Washington-Baltimore-Arlington, DC-MD-VA-WV-PA",1,548,"08/03/1964",2238,0,"Bank of America, National Association","FLAGSHIP CENTER BRANCH",4091,"10/16/2020",11,"MD",24031,"Maryland",13013,20852,"12099 Rockville Pike Rockville MD 20852",-77.1187007,39.0561245
"369","344 Montrose Avenue","N","Washington-Arlington-Alexandria, DC-VA-MD-WV","Washington-Arlington-Alexandria, DC-VA-MD-WV",1,47894,47900,1,"Washington-Arlington-Alexandria, DC-VA-MD-WV",0,47900,3510,"Laurel","Prince George'S","Washington-Baltimore-Arlington, DC-MD-VA-WV-PA",1,548,"11/14/1956",2238,0,"Bank of America, National Association","LAUREL CENTER BRANCH",4057,"10/16/2020",11,"MD",24033,"Maryland",190292,20707,"344 Montrose Avenue Laurel MD 20707",-76.8546639,39.0962233
"370","3740 University Boulevard, West","NM","Washington-Arlington-Alexandria, DC-VA-MD-WV","Frederick-Gaithersburg-Rockville, MD",1,23224,47900,1,"Washington-Arlington-Alexandria, DC-VA-MD-WV",0,47900,9846,"Kensington","Montgomery","Washington-Baltimore-Arlington, DC-MD-VA-WV-PA",1,548,"06/15/1967",6300,0,"Truist Bank","KENSINGTON BRANCH",3726,"10/16/2020",11,"MD",24031,"Maryland",220863,20895,"3740 University Boulevard, West Kensington MD 20895",-77.0734239,39.032646
"371","3550 Donnell Dr","NM","Washington-Arlington-Alexandria, DC-VA-MD-WV","Washington-Arlington-Alexandria, DC-VA-MD-WV",1,47894,47900,1,"Washington-Arlington-Alexandria, DC-VA-MD-WV",0,47900,9846,"Forestville","Prince George'S","Washington-Baltimore-Arlington, DC-MD-VA-WV-PA",1,548,"11/19/1959",6300,0,"Truist Bank","PENN MAR BRANCH",3896,"10/16/2020",11,"MD",24033,"Maryland",220900,20747,"3550 Donnell Dr Forestville MD 20747",-76.8834234,38.8439122
"372","19134 Montgomery Village Ave","NM","Washington-Arlington-Alexandria, DC-VA-MD-WV","Frederick-Gaithersburg-Rockville, MD",1,23224,47900,1,"Washington-Arlington-Alexandria, DC-VA-MD-WV",0,47900,9846,"Montgomery Village","Montgomery","Washington-Baltimore-Arlington, DC-MD-VA-WV-PA",1,548,"09/24/1970",6300,0,"Truist Bank","MONTGOMERY VILLAGE BRANCH",3903,"10/16/2020",11,"MD",24031,"Maryland",220925,20886,"19134 Montgomery Village Ave Montgomery Village MD 20886",-77.204334,39.171533
"373","12325 Georgia Ave","NM","Washington-Arlington-Alexandria, DC-VA-MD-WV","Frederick-Gaithersburg-Rockville, MD",1,23224,47900,1,"Washington-Arlington-Alexandria, DC-VA-MD-WV",0,47900,9846,"Silver Spring","Montgomery","Washington-Baltimore-Arlington, DC-MD-VA-WV-PA",1,548,"06/30/1987",6300,0,"Truist Bank","GLENMONT BRANCH",3921,"10/16/2020",11,"MD",24031,"Maryland",220965,20906,"12325 Georgia Ave Silver Spring MD 20906",-77.0492729,39.0595354
"374","9411 Annapolis Road","NM","Washington-Arlington-Alexandria, DC-VA-MD-WV","Washington-Arlington-Alexandria, DC-VA-MD-WV",1,47894,47900,1,"Washington-Arlington-Alexandria, DC-VA-MD-WV",0,47900,9846,"Lanham","Prince George'S","Washington-Baltimore-Arlington, DC-MD-VA-WV-PA",1,548,"02/14/1975",6300,0,"Truist Bank","LANHAM BRANCH",3915,"10/16/2020",11,"MD",24033,"Maryland",246692,20706,"9411 Annapolis Road Lanham MD 20706",-76.8449332,38.9648495
"375","9395 Lanham Severn Road","NM","Washington-Arlington-Alexandria, DC-VA-MD-WV","Washington-Arlington-Alexandria, DC-VA-MD-WV",1,47894,47900,1,"Washington-Arlington-Alexandria, DC-VA-MD-WV",0,47900,9846,"Lanham","Prince George'S","Washington-Baltimore-Arlington, DC-MD-VA-WV-PA",1,548,"06/19/1976",6300,0,"Truist Bank","SEABROOK BRANCH",1264,"10/16/2020",11,"MD",24033,"Maryland",249111,20706,"9395 Lanham Severn Road Lanham MD 20706",-76.847456,38.9715489
"376","7599 Greenbelt Road","SM","Washington-Arlington-Alexandria, DC-VA-MD-WV","Washington-Arlington-Alexandria, DC-VA-MD-WV",1,47894,47900,1,"Washington-Arlington-Alexandria, DC-VA-MD-WV",0,47900,588,"Greenbelt","Prince George'S","Washington-Baltimore-Arlington, DC-MD-VA-WV-PA",1,548,"12/01/1980",400,0,"Manufacturers and Traders Trust Company","GREENBELT BRANCH",706,"10/16/2020",11,"MD",24033,"Maryland",204277,20770,"7599 Greenbelt Road Greenbelt MD 20770",-76.8763524,38.9936564
"377","10100 River Road","SM","Washington-Arlington-Alexandria, DC-VA-MD-WV","Frederick-Gaithersburg-Rockville, MD",1,23224,47900,1,"Washington-Arlington-Alexandria, DC-VA-MD-WV",0,47900,588,"Potomac","Montgomery","Washington-Baltimore-Arlington, DC-MD-VA-WV-PA",1,548,"01/01/1929",400,0,"Manufacturers and Traders Trust Company","POTOMAC VILLAGE BRANCH",1067,"10/16/2020",11,"MD",24031,"Maryland",270191,20854,"10100 River Road Potomac MD 20854",-77.2080678,39.0167227
"378","4 Courthouse Square","SM","Washington-Arlington-Alexandria, DC-VA-MD-WV","Frederick-Gaithersburg-Rockville, MD",1,23224,47900,1,"Washington-Arlington-Alexandria, DC-VA-MD-WV",0,47900,588,"Rockville","Montgomery","Washington-Baltimore-Arlington, DC-MD-VA-WV-PA",1,548,"07/23/1962",400,0,"Manufacturers and Traders Trust Company","ROCKVILLE BRANCH",662,"10/16/2020",11,"MD",24031,"Maryland",204210,20850,"4 Courthouse Square Rockville MD 20850",-77.1525158,39.0843357
"379","10821 Connecticut Avenue","N","Washington-Arlington-Alexandria, DC-VA-MD-WV","Frederick-Gaithersburg-Rockville, MD",1,23224,47900,1,"Washington-Arlington-Alexandria, DC-VA-MD-WV",0,47900,4297,"Kensington","Montgomery","Washington-Baltimore-Arlington, DC-MD-VA-WV-PA",1,548,"02/24/1996",2818,0,"Capital One, National Association","KENSINGTON BRANCH",1026,"10/16/2020",11,"MD",24031,"Maryland",287623,20895,"10821 Connecticut Avenue Kensington MD 20895",-77.0745917,39.0335899
"380","8845 Branch Avenue","N","Washington-Arlington-Alexandria, DC-VA-MD-WV","Washington-Arlington-Alexandria, DC-VA-MD-WV",1,47894,47900,1,"Washington-Arlington-Alexandria, DC-VA-MD-WV",0,47900,4297,"Clinton","Prince George'S","Washington-Baltimore-Arlington, DC-MD-VA-WV-PA",1,548,"07/30/2009",2818,0,"Capital One, National Association","CLINTON CROSSING BRANCH",1225,"10/16/2020",11,"MD",24033,"Maryland",511724,20735,"8845 Branch Avenue Clinton MD 20735",-76.8901232,38.7677736
"381","6001 Good Luck Road","N","Washington-Arlington-Alexandria, DC-VA-MD-WV","Washington-Arlington-Alexandria, DC-VA-MD-WV",1,47894,47900,1,"Washington-Arlington-Alexandria, DC-VA-MD-WV",0,47900,4297,"Riverdale","Prince George'S","Washington-Baltimore-Arlington, DC-MD-VA-WV-PA",1,548,"09/14/2011",2818,0,"Capital One, National Association","PARKDALE HIGH SCHOOL BRANCH",1295,"10/16/2020",23,"MD",24033,"Maryland",525923,20737,"6001 Good Luck Road Riverdale MD 20737",-76.9047017,38.9698604
"382","3400 Crain Highway","N","Washington-Arlington-Alexandria, DC-VA-MD-WV","Washington-Arlington-Alexandria, DC-VA-MD-WV",1,47894,47900,1,"Washington-Arlington-Alexandria, DC-VA-MD-WV",0,47900,4297,"Bowie","Prince George'S","Washington-Baltimore-Arlington, DC-MD-VA-WV-PA",1,548,"04/16/1996",2818,0,"Capital One, National Association","COLLINGTON PLAZA BRANCH",1028,"10/16/2020",11,"MD",24033,"Maryland",287625,20716,"3400 Crain Highway Bowie MD 20716",-76.7186584,38.9374653
"383","1025 Washington Blvd","N","Washington-Arlington-Alexandria, DC-VA-MD-WV","Washington-Arlington-Alexandria, DC-VA-MD-WV",1,47894,47900,1,"Washington-Arlington-Alexandria, DC-VA-MD-WV",0,47900,4297,"Laurel","Prince George'S","Washington-Baltimore-Arlington, DC-MD-VA-WV-PA",1,548,"07/30/2009",2818,0,"Capital One, National Association","LAUREL SHOPPING CENTER BRANCH",1201,"10/16/2020",11,"MD",24033,"Maryland",511700,20707,"1025 Washington Blvd Laurel MD 20707",-76.8538755,39.0951534
"384","1040 Largo Center Drive","N","Washington-Arlington-Alexandria, DC-VA-MD-WV","Washington-Arlington-Alexandria, DC-VA-MD-WV",1,47894,47900,1,"Washington-Arlington-Alexandria, DC-VA-MD-WV",0,47900,4297,"Largo","Prince George'S","Washington-Baltimore-Arlington, DC-MD-VA-WV-PA",1,548,"03/05/1994",2818,0,"Capital One, National Association","LARGO TOWN CENTER BRANCH",995,"10/16/2020",11,"MD",24033,"Maryland",287591,20774,"1040 Largo Center Drive Largo MD 20774",-76.8372362,38.9023282
"385","6400 Belcrest Road","N","Washington-Arlington-Alexandria, DC-VA-MD-WV","Washington-Arlington-Alexandria, DC-VA-MD-WV",1,47894,47900,1,"Washington-Arlington-Alexandria, DC-VA-MD-WV",0,47900,4297,"Hyattsville","Prince George'S","Washington-Baltimore-Arlington, DC-MD-VA-WV-PA",1,548,"06/30/1985",2818,0,"Capital One, National Association","6400 BELCREST RD BRANCH",962,"10/16/2020",11,"MD",24033,"Maryland",287554,20782,"6400 Belcrest Road Hyattsville MD 20782",-76.950817,38.965015
"386","842 Muddy Branch Road","N","Washington-Arlington-Alexandria, DC-VA-MD-WV","Frederick-Gaithersburg-Rockville, MD",1,23224,47900,1,"Washington-Arlington-Alexandria, DC-VA-MD-WV",0,47900,4297,"Gaithersburg","Montgomery","Washington-Baltimore-Arlington, DC-MD-VA-WV-PA",1,548,"06/30/1986",2818,0,"Capital One, National Association","MUDDY BRANCH SALES CENTER",964,"10/16/2020",11,"MD",24031,"Maryland",287556,20878,"842 Muddy Branch Road Gaithersburg MD 20878",-77.217671,39.1148399
"387","317 Kentlands Boulevard","N","Washington-Arlington-Alexandria, DC-VA-MD-WV","Frederick-Gaithersburg-Rockville, MD",1,23224,47900,1,"Washington-Arlington-Alexandria, DC-VA-MD-WV",0,47900,4297,"Gaithersburg","Montgomery","Washington-Baltimore-Arlington, DC-MD-VA-WV-PA",1,548,"12/30/1993",2818,0,"Capital One, National Association","GAITHERSBURG BRANCH",994,"10/16/2020",11,"MD",24031,"Maryland",287590,20878,"317 Kentlands Boulevard Gaithersburg MD 20878",-77.2382925,39.1238734
"388","7845 Wisconsin Avenue","SM","Washington-Arlington-Alexandria, DC-VA-MD-WV","Frederick-Gaithersburg-Rockville, MD",1,23224,47900,1,"Washington-Arlington-Alexandria, DC-VA-MD-WV",0,47900,22858,"Bethesda","Montgomery","Washington-Baltimore-Arlington, DC-MD-VA-WV-PA",1,548,"05/28/1996",15972,0,"United Bank","BETHESDA METRO",39,"10/16/2020",11,"MD",24031,"Maryland",255758,20814,"7845 Wisconsin Avenue Bethesda MD 20814",-77.0949823,38.9893785
"389","16810 Georgia Ave","N","Washington-Arlington-Alexandria, DC-VA-MD-WV","Frederick-Gaithersburg-Rockville, MD",1,23224,47900,1,"Washington-Arlington-Alexandria, DC-VA-MD-WV",0,47900,3511,"Olney","Montgomery","Washington-Baltimore-Arlington, DC-MD-VA-WV-PA",1,548,"07/20/2007",2239,0,"Wells Fargo Bank, National Association","OLNEY BRANCH",9847,"10/16/2020",11,"MD",24031,"Maryland",479915,20832,"16810 Georgia Ave Olney MD 20832",-77.0715097,39.1322607
"390","8711 Georgia Avenue","N","Washington-Arlington-Alexandria, DC-VA-MD-WV","Frederick-Gaithersburg-Rockville, MD",1,23224,47900,1,"Washington-Arlington-Alexandria, DC-VA-MD-WV",0,47900,3511,"Silver Spring","Montgomery","Washington-Baltimore-Arlington, DC-MD-VA-WV-PA",1,548,"11/18/1946",2239,0,"Wells Fargo Bank, National Association","GEORGIA AVENUE BRANCH",7594,"10/16/2020",11,"MD",24031,"Maryland",10664,20910,"8711 Georgia Avenue Silver Spring MD 20910",-77.0300442,38.9982738
"391","12740 Old Fort Road","NM","Washington-Arlington-Alexandria, DC-VA-MD-WV","Washington-Arlington-Alexandria, DC-VA-MD-WV",1,47894,47900,1,"Washington-Arlington-Alexandria, DC-VA-MD-WV",0,47900,803,"Fort Washington","Prince George'S","Washington-Baltimore-Arlington, DC-MD-VA-WV-PA",1,548,"07/30/1973",508,0,"WesBanco Bank, Inc.","FORT WASHINGTON BRANCH",282,"10/16/2020",11,"MD",24033,"Maryland",243948,20744,"12740 Old Fort Road Fort Washington MD 20744",-76.9877977,38.7117331
"392","1 Research Ct","SM","Washington-Arlington-Alexandria, DC-VA-MD-WV","Frederick-Gaithersburg-Rockville, MD",1,23224,47900,1,"Washington-Arlington-Alexandria, DC-VA-MD-WV",0,47900,588,"Rockville","Montgomery","Washington-Baltimore-Arlington, DC-MD-VA-WV-PA",1,548,"08/26/2019",400,0,"Manufacturers and Traders Trust Company","Rockville Regional Office Branch",1435,"10/16/2020",11,"MD",24031,"Maryland",616908,20850,"1 Research Ct Rockville MD 20850",-77.1850909,39.106578
"393","3972 Campus Drive","SM","Washington-Arlington-Alexandria, DC-VA-MD-WV","Washington-Arlington-Alexandria, DC-VA-MD-WV",1,47894,47900,1,"Washington-Arlington-Alexandria, DC-VA-MD-WV",0,47900,588,"College Park","Prince George'S","Washington-Baltimore-Arlington, DC-MD-VA-WV-PA",1,548,"09/16/2019",400,0,"Manufacturers and Traders Trust Company","UNIVERSITY OF MARYLAND",1436,"10/16/2020",11,"MD",24033,"Maryland",617239,20742,"3972 Campus Drive College Park MD 20742",-76.9448867,38.9878244
"394","6966 Temple Hills Road","N","Washington-Arlington-Alexandria, DC-VA-MD-WV","Washington-Arlington-Alexandria, DC-VA-MD-WV",1,47894,47900,1,"Washington-Arlington-Alexandria, DC-VA-MD-WV",0,47900,3510,"Temple Hills","Prince George'S","Washington-Baltimore-Arlington, DC-MD-VA-WV-PA",1,548,"12/19/1964",2238,0,"Bank of America, National Association","WOODBERRY SQUARE BRANCH",4076,"10/16/2020",11,"MD",24033,"Maryland",225565,20748,"6966 Temple Hills Road Temple Hills MD 20748",-76.9282836,38.7937339
"395","6011 Oxon Hill Road","N","Washington-Arlington-Alexandria, DC-VA-MD-WV","Washington-Arlington-Alexandria, DC-VA-MD-WV",1,47894,47900,1,"Washington-Arlington-Alexandria, DC-VA-MD-WV",0,47900,3510,"Oxon Hill","Prince George'S","Washington-Baltimore-Arlington, DC-MD-VA-WV-PA",1,548,"01/28/1967",2238,0,"Bank of America, National Association","CONSTELLATION CENTER BRANCH",4077,"10/16/2020",11,"MD",24033,"Maryland",225566,20745,"6011 Oxon Hill Road Oxon Hill MD 20745",-76.9788478,38.8050039
"396","19707 Germantown Road","N","Washington-Arlington-Alexandria, DC-VA-MD-WV","Frederick-Gaithersburg-Rockville, MD",1,23224,47900,1,"Washington-Arlington-Alexandria, DC-VA-MD-WV",0,47900,3510,"Germantown","Montgomery","Washington-Baltimore-Arlington, DC-MD-VA-WV-PA",1,548,"10/15/1958",2238,0,"Bank of America, National Association","GERMANTOWN BRANCH",3912,"10/16/2020",11,"MD",24031,"Maryland",228093,20874,"19707 Germantown Road Germantown MD 20874",-77.2664797,39.1787127
"397","5550 Friendship Boulevard","N","Washington-Arlington-Alexandria, DC-VA-MD-WV","Frederick-Gaithersburg-Rockville, MD",1,23224,47900,1,"Washington-Arlington-Alexandria, DC-VA-MD-WV",0,47900,3510,"Chevy Chase","Montgomery","Washington-Baltimore-Arlington, DC-MD-VA-WV-PA",1,548,"12/15/2008",2238,0,"Bank of America, National Association","CHEVY CHASE PWM BRANCH",9442,"10/16/2020",23,"MD",24031,"Maryland",484880,20815,"5550 Friendship Boulevard Chevy Chase MD 20815",-77.0904414,38.9638935
"398","3110 Gracefield Road","N","Washington-Arlington-Alexandria, DC-VA-MD-WV","Frederick-Gaithersburg-Rockville, MD",1,23224,47900,1,"Washington-Arlington-Alexandria, DC-VA-MD-WV",0,47900,6384,"Silver Spring","Montgomery","Washington-Baltimore-Arlington, DC-MD-VA-WV-PA",1,548,"04/27/2000",4287,0,"PNC Bank, National Association","RIDERWOOD BRANCH",1825,"10/16/2020",11,"MD",24031,"Maryland",301148,20904,"3110 Gracefield Road Silver Spring MD 20904",-76.9489125,39.0504199
"399","1009 Fairlawn Street","N","Washington-Arlington-Alexandria, DC-VA-MD-WV","Washington-Arlington-Alexandria, DC-VA-MD-WV",1,47894,47900,1,"Washington-Arlington-Alexandria, DC-VA-MD-WV",0,47900,6384,"Laurel","Prince George'S","Washington-Baltimore-Arlington, DC-MD-VA-WV-PA",1,548,"10/27/2010",4287,0,"PNC Bank, National Association","LAUREL CENTER BRANCH",3794,"10/16/2020",11,"MD",24033,"Maryland",515102,20707,"1009 Fairlawn Street Laurel MD 20707",-76.8557986,39.0967584
"400","100 Gibbs St","NM","Washington-Arlington-Alexandria, DC-VA-MD-WV","Frederick-Gaithersburg-Rockville, MD",1,23224,47900,1,"Washington-Arlington-Alexandria, DC-VA-MD-WV",0,47900,9846,"Rockville","Montgomery","Washington-Baltimore-Arlington, DC-MD-VA-WV-PA",1,548,"12/10/2018",6300,0,"Truist Bank","ROCKVILLE TOWN SQUARE BRANCH",4377,"10/16/2020",11,"MD",24031,"Maryland",607782,20850,"100 Gibbs St Rockville MD 20850",-77.1522008,39.0852314
"401","10211 Old Georgetown Road","N","Washington-Arlington-Alexandria, DC-VA-MD-WV","Frederick-Gaithersburg-Rockville, MD",1,23224,47900,1,"Washington-Arlington-Alexandria, DC-VA-MD-WV",0,47900,6384,"Bethesda","Montgomery","Washington-Baltimore-Arlington, DC-MD-VA-WV-PA",1,548,"08/18/2004",4287,0,"PNC Bank, National Association","WILDWOOD BRANCH",1384,"10/16/2020",11,"MD",24031,"Maryland",439751,20814,"10211 Old Georgetown Road Bethesda MD 20814",-77.1235952,39.0230971
"402","7417 Baltimore Ave, Ste B","N","Washington-Arlington-Alexandria, DC-VA-MD-WV","Washington-Arlington-Alexandria, DC-VA-MD-WV",1,47894,47900,1,"Washington-Arlington-Alexandria, DC-VA-MD-WV",0,47900,628,"College Park","Prince George'S","Washington-Baltimore-Arlington, DC-MD-VA-WV-PA",1,548,"08/13/2019",417,0,"JPMorgan Chase Bank, National Association","College Park Baltimore Avenue",8314,"10/16/2020",11,"MD",24033,"Maryland",616796,20740,"7417 Baltimore Ave, Ste B College Park MD 20740",-76.9374224,38.9815821
"403","15520 Annapolis Road","N","Washington-Arlington-Alexandria, DC-VA-MD-WV","Washington-Arlington-Alexandria, DC-VA-MD-WV",1,47894,47900,1,"Washington-Arlington-Alexandria, DC-VA-MD-WV",0,47900,6384,"Bowie","Prince George'S","Washington-Baltimore-Arlington, DC-MD-VA-WV-PA",1,548,"12/21/2011",4287,0,"PNC Bank, National Association","FREE STATE @ GIANT BRANCH",4350,"10/16/2020",12,"MD",24033,"Maryland",532203,20715,"15520 Annapolis Road Bowie MD 20715",-76.7356361,38.9815892
"404","611 Rockville Pike","SM","Washington-Arlington-Alexandria, DC-VA-MD-WV","Frederick-Gaithersburg-Rockville, MD",1,23224,47900,1,"Washington-Arlington-Alexandria, DC-VA-MD-WV",0,47900,4865,"Rockville","Montgomery","Washington-Baltimore-Arlington, DC-MD-VA-WV-PA",1,548,"04/29/1991",3240,0,"Sandy Spring Bank","ROCKVILLE BRANCH",14,"10/16/2020",11,"MD",24031,"Maryland",261332,20852,"611 Rockville Pike Rockville MD 20852",-77.1446066,39.0802503
"405","414 Hungerford Drive","SM","Washington-Arlington-Alexandria, DC-VA-MD-WV","Frederick-Gaithersburg-Rockville, MD",1,23224,47900,1,"Washington-Arlington-Alexandria, DC-VA-MD-WV",0,47900,4865,"Rockville","Montgomery","Washington-Baltimore-Arlington, DC-MD-VA-WV-PA",1,548,"06/23/2009",3240,0,"Sandy Spring Bank","Rockville Branch",87,"10/16/2020",11,"MD",24031,"Maryland",493022,20850,"414 Hungerford Drive Rockville MD 20850",-77.1513025,39.0879229
"406","319 Main Street","SM","Washington-Arlington-Alexandria, DC-VA-MD-WV","Washington-Arlington-Alexandria, DC-VA-MD-WV",1,47894,47900,1,"Washington-Arlington-Alexandria, DC-VA-MD-WV",0,47900,4865,"Laurel","Prince George'S","Washington-Baltimore-Arlington, DC-MD-VA-WV-PA",1,548,"10/23/2017",3240,0,"Sandy Spring Bank","LAUREL BRANCH",92,"10/16/2020",11,"MD",24033,"Maryland",592849,20707,"319 Main Street Laurel MD 20707",-76.8445728,39.1046664
"407","10329 Old Georgetown Road","SM","Washington-Arlington-Alexandria, DC-VA-MD-WV","Frederick-Gaithersburg-Rockville, MD",1,23224,47900,1,"Washington-Arlington-Alexandria, DC-VA-MD-WV",0,47900,4865,"Bethesda","Montgomery","Washington-Baltimore-Arlington, DC-MD-VA-WV-PA",1,548,"01/01/1966",3240,0,"Sandy Spring Bank","WILDWOOD BRANCH",26,"10/16/2020",11,"MD",24031,"Maryland",285179,20816,"10329 Old Georgetown Road Bethesda MD 20816",-77.1251234,39.0252712
"408","8401 Colesville Road","SM","Washington-Arlington-Alexandria, DC-VA-MD-WV","Frederick-Gaithersburg-Rockville, MD",1,23224,47900,1,"Washington-Arlington-Alexandria, DC-VA-MD-WV",0,47900,4865,"Silver Spring","Montgomery","Washington-Baltimore-Arlington, DC-MD-VA-WV-PA",1,548,"12/11/2006",3240,0,"Sandy Spring Bank","SILVER SPRING COMMUNITY BRANCH",40,"10/16/2020",11,"MD",24031,"Maryland",457788,20910,"8401 Colesville Road Silver Spring MD 20910",-77.0314636,38.9948727
"409","9707 Old Georgetown Road","SM","Washington-Arlington-Alexandria, DC-VA-MD-WV","Frederick-Gaithersburg-Rockville, MD",1,23224,47900,1,"Washington-Arlington-Alexandria, DC-VA-MD-WV",0,47900,4865,"Bethesda","Montgomery","Washington-Baltimore-Arlington, DC-MD-VA-WV-PA",1,548,"12/02/2013",3240,0,"Sandy Spring Bank","MAPLEWOOD BRANCH OFFICE",94,"10/16/2020",11,"MD",24031,"Maryland",545299,20814,"9707 Old Georgetown Road Bethesda MD 20814",-77.1168857,39.014928
"410","9916 Main Street","NM","Washington-Arlington-Alexandria, DC-VA-MD-WV","Frederick-Gaithersburg-Rockville, MD",1,23224,47900,1,"Washington-Arlington-Alexandria, DC-VA-MD-WV",0,47900,9846,"Damascus","Montgomery","Washington-Baltimore-Arlington, DC-MD-VA-WV-PA",1,548,"01/01/1921",6300,0,"Truist Bank","Damascus MD Branch",3919,"10/16/2020",11,"MD",24031,"Maryland",4016,20872,"9916 Main Street Damascus MD 20872",-77.2048113,39.2882449
"411","107 Crown Park Avenue","N","Washington-Arlington-Alexandria, DC-VA-MD-WV","Frederick-Gaithersburg-Rockville, MD",1,23224,47900,1,"Washington-Arlington-Alexandria, DC-VA-MD-WV",0,47900,3511,"Gaithersburg","Montgomery","Washington-Baltimore-Arlington, DC-MD-VA-WV-PA",1,548,"05/12/2014",2239,0,"Wells Fargo Bank, National Association","CROWN FARM BRANCH",10158,"10/16/2020",11,"MD",24031,"Maryland",553942,20878,"107 Crown Park Avenue Gaithersburg MD 20878",-77.2066215,39.1148966
"412","7451 Van Dusen Road","N","Washington-Arlington-Alexandria, DC-VA-MD-WV","Washington-Arlington-Alexandria, DC-VA-MD-WV",1,47894,47900,1,"Washington-Arlington-Alexandria, DC-VA-MD-WV",0,47900,6384,"Laurel","Prince George'S","Washington-Baltimore-Arlington, DC-MD-VA-WV-PA",1,548,"02/01/1964",4287,0,"PNC Bank, National Association","VAN DUSEN BRANCH",1812,"10/16/2020",11,"MD",24033,"Maryland",204627,20707,"7451 Van Dusen Road Laurel MD 20707",-76.8779063,39.0869589
"413","18200 Flower Hill Way","NM","Washington-Arlington-Alexandria, DC-VA-MD-WV","Frederick-Gaithersburg-Rockville, MD",1,23224,47900,1,"Washington-Arlington-Alexandria, DC-VA-MD-WV",0,47900,9846,"Gaithersburg","Montgomery","Washington-Baltimore-Arlington, DC-MD-VA-WV-PA",1,548,"01/12/1987",6300,0,"Truist Bank","FLOWER HILL BRANCH",3729,"10/16/2020",11,"MD",24031,"Maryland",220870,20879,"18200 Flower Hill Way Gaithersburg MD 20879",-77.1647132,39.154007
"414","6410 Allentown Road","NM","Washington-Arlington-Alexandria, DC-VA-MD-WV","Washington-Arlington-Alexandria, DC-VA-MD-WV",1,47894,47900,1,"Washington-Arlington-Alexandria, DC-VA-MD-WV",0,47900,9846,"Camp Springs","Prince George'S","Washington-Baltimore-Arlington, DC-MD-VA-WV-PA",1,548,"01/01/1887",6300,0,"Truist Bank","CAMP SPRINGS BRANCH",610,"10/16/2020",11,"MD",24033,"Maryland",266366,20748,"6410 Allentown Road Camp Springs MD 20748",-76.9087993,38.801431
"415","650 Hungerford Dr","NM","Washington-Arlington-Alexandria, DC-VA-MD-WV","Frederick-Gaithersburg-Rockville, MD",1,23224,47900,1,"Washington-Arlington-Alexandria, DC-VA-MD-WV",0,47900,18503,"Rockville","Montgomery","Washington-Baltimore-Arlington, DC-MD-VA-WV-PA",1,548,"07/12/1999",12395,0,"Cathay Bank","ROCKVILLE BRANCH",91,"10/16/2020",11,"MD",24031,"Maryland",258180,20850,"650 Hungerford Dr Rockville MD 20850",-77.1539538,39.0928217
"416","15480 Annapolis Road, #200","N","Washington-Arlington-Alexandria, DC-VA-MD-WV","Washington-Arlington-Alexandria, DC-VA-MD-WV",1,47894,47900,1,"Washington-Arlington-Alexandria, DC-VA-MD-WV",0,47900,3511,"Bowie","Prince George'S","Washington-Baltimore-Arlington, DC-MD-VA-WV-PA",1,548,"12/02/1970",2239,0,"Wells Fargo Bank, National Association","BOWIE BRANCH",7598,"10/16/2020",11,"MD",24033,"Maryland",238193,20715,"15480 Annapolis Road, #200 Bowie MD 20715",NA,NA
"417","4965 Elm St","N","Washington-Arlington-Alexandria, DC-VA-MD-WV","Frederick-Gaithersburg-Rockville, MD",1,23224,47900,1,"Washington-Arlington-Alexandria, DC-VA-MD-WV",0,47900,3511,"Bethesda","Montgomery","Washington-Baltimore-Arlington, DC-MD-VA-WV-PA",1,548,"01/27/1964",2239,0,"Wells Fargo Bank, National Association","BETHESDA BRANCH",7592,"10/16/2020",11,"MD",24031,"Maryland",243575,20814,"4965 Elm St Bethesda MD 20814",-77.0982795,38.9822307
"418","822 Rockville Pike","N","Washington-Arlington-Alexandria, DC-VA-MD-WV","Frederick-Gaithersburg-Rockville, MD",1,23224,47900,1,"Washington-Arlington-Alexandria, DC-VA-MD-WV",0,47900,7213,"Rockville","Montgomery","Washington-Baltimore-Arlington, DC-MD-VA-WV-PA",1,548,"08/15/1988",4759,0,"Citibank, National Association","ROCKVILLE PIKE",1028,"10/16/2020",11,"MD",24031,"Maryland",258023,20852,"822 Rockville Pike Rockville MD 20852",-77.1383148,39.0769854
